{
"type": "FeatureCollection",
"name": "nodes",
"crs": { "type": "name", "properties": { "name": "urn:ogc:def:crs:EPSG::32647" } },
"features": [
{ "type": "Feature", "properties": { "node_id": 0, "degree": 1 }, "geometry": { "type": "Point", "coordinates": [ 641722.313056932063773, 1844367.096856391755864 ] } },
{ "type": "Feature", "properties": { "node_id": 2, "degree": 1 }, "geometry": { "type": "Point", "coordinates": [ 641545.788049227325246, 1826744.053323180181906 ] } },
{ "type": "Feature", "properties": { "node_id": 3, "degree": 3 }, "geometry": { "type": "Point", "coordinates": [ 644012.562586827320047, 1835200.568215938052163 ] } },
{ "type": "Feature", "properties": { "node_id": 4, "degree": 3 }, "geometry": { "type": "Point", "coordinates": [ 642013.09382588241715, 1836379.908623954514042 ] } },
{ "type": "Feature", "properties": { "node_id": 6, "degree": 9 }, "geometry": { "type": "Point", "coordinates": [ 639425.130705994321033, 1836288.741949600400403 ] } },
{ "type": "Feature", "properties": { "node_id": 7, "degree": 15 }, "geometry": { "type": "Point", "coordinates": [ 639492.136053649708629, 1835325.714230240322649 ] } },
{ "type": "Feature", "properties": { "node_id": 12, "degree": 4 }, "geometry": { "type": "Point", "coordinates": [ 638856.910555978538468, 1834269.212139738025144 ] } },
{ "type": "Feature", "properties": { "node_id": 14, "degree": 5 }, "geometry": { "type": "Point", "coordinates": [ 644891.801362542784773, 1841142.014394949423149 ] } },
{ "type": "Feature", "properties": { "node_id": 18, "degree": 3 }, "geometry": { "type": "Point", "coordinates": [ 645337.845926681882702, 1837332.671735289506614 ] } },
{ "type": "Feature", "properties": { "node_id": 19, "degree": 3 }, "geometry": { "type": "Point", "coordinates": [ 645969.302768289344385, 1838157.516304884338751 ] } },
{ "type": "Feature", "properties": { "node_id": 21, "degree": 8 }, "geometry": { "type": "Point", "coordinates": [ 642921.479803433641791, 1833583.603844658005983 ] } },
{ "type": "Feature", "properties": { "node_id": 22, "degree": 1 }, "geometry": { "type": "Point", "coordinates": [ 642770.982217670069076, 1834437.608342051738873 ] } },
{ "type": "Feature", "properties": { "node_id": 24, "degree": 8 }, "geometry": { "type": "Point", "coordinates": [ 645810.291976044769399, 1835433.254478731192648 ] } },
{ "type": "Feature", "properties": { "node_id": 25, "degree": 3 }, "geometry": { "type": "Point", "coordinates": [ 645408.567823640652932, 1835311.83844345388934 ] } },
{ "type": "Feature", "properties": { "node_id": 27, "degree": 5 }, "geometry": { "type": "Point", "coordinates": [ 644131.73595992627088, 1835359.949250255478546 ] } },
{ "type": "Feature", "properties": { "node_id": 28, "degree": 1 }, "geometry": { "type": "Point", "coordinates": [ 642823.612443854333833, 1835424.966272548073903 ] } },
{ "type": "Feature", "properties": { "node_id": 29, "degree": 1 }, "geometry": { "type": "Point", "coordinates": [ 643592.174761114758439, 1835024.684264783049002 ] } },
{ "type": "Feature", "properties": { "node_id": 30, "degree": 1 }, "geometry": { "type": "Point", "coordinates": [ 642483.716992650181055, 1833109.87726932624355 ] } },
{ "type": "Feature", "properties": { "node_id": 31, "degree": 1 }, "geometry": { "type": "Point", "coordinates": [ 643297.485660424921662, 1832853.836774265160784 ] } },
{ "type": "Feature", "properties": { "node_id": 32, "degree": 1 }, "geometry": { "type": "Point", "coordinates": [ 648521.323552387184463, 1842679.500536600826308 ] } },
{ "type": "Feature", "properties": { "node_id": 33, "degree": 5 }, "geometry": { "type": "Point", "coordinates": [ 647203.456706020515412, 1842376.237117260694504 ] } },
{ "type": "Feature", "properties": { "node_id": 34, "degree": 7 }, "geometry": { "type": "Point", "coordinates": [ 647027.820886192494072, 1841928.144878196762875 ] } },
{ "type": "Feature", "properties": { "node_id": 37, "degree": 11 }, "geometry": { "type": "Point", "coordinates": [ 646581.76336969085969, 1839829.964095732429996 ] } },
{ "type": "Feature", "properties": { "node_id": 38, "degree": 3 }, "geometry": { "type": "Point", "coordinates": [ 646481.744017435237765, 1839606.073141298023984 ] } },
{ "type": "Feature", "properties": { "node_id": 39, "degree": 3 }, "geometry": { "type": "Point", "coordinates": [ 646446.763807576964609, 1839614.255512948613614 ] } },
{ "type": "Feature", "properties": { "node_id": 40, "degree": 4 }, "geometry": { "type": "Point", "coordinates": [ 645527.309649294824339, 1842596.089188100770116 ] } },
{ "type": "Feature", "properties": { "node_id": 42, "degree": 3 }, "geometry": { "type": "Point", "coordinates": [ 645598.198974885512143, 1842716.997966994065791 ] } },
{ "type": "Feature", "properties": { "node_id": 43, "degree": 1 }, "geometry": { "type": "Point", "coordinates": [ 644485.495354961953126, 1843987.546550689032301 ] } },
{ "type": "Feature", "properties": { "node_id": 44, "degree": 5 }, "geometry": { "type": "Point", "coordinates": [ 646338.0819785943022, 1842874.252291495446116 ] } },
{ "type": "Feature", "properties": { "node_id": 47, "degree": 5 }, "geometry": { "type": "Point", "coordinates": [ 645734.771041337866336, 1842524.032368385698646 ] } },
{ "type": "Feature", "properties": { "node_id": 48, "degree": 3 }, "geometry": { "type": "Point", "coordinates": [ 639614.889323081588373, 1835380.43924389895983 ] } },
{ "type": "Feature", "properties": { "node_id": 51, "degree": 1 }, "geometry": { "type": "Point", "coordinates": [ 638882.044405092252418, 1839574.821526393294334 ] } },
{ "type": "Feature", "properties": { "node_id": 52, "degree": 1 }, "geometry": { "type": "Point", "coordinates": [ 643796.253897313261405, 1842191.531328871380538 ] } },
{ "type": "Feature", "properties": { "node_id": 55, "degree": 3 }, "geometry": { "type": "Point", "coordinates": [ 646047.466852861223742, 1835211.278111957013607 ] } },
{ "type": "Feature", "properties": { "node_id": 56, "degree": 5 }, "geometry": { "type": "Point", "coordinates": [ 646472.507207175949588, 1834947.361802271334454 ] } },
{ "type": "Feature", "properties": { "node_id": 57, "degree": 5 }, "geometry": { "type": "Point", "coordinates": [ 646189.649969050777145, 1834161.601721244631335 ] } },
{ "type": "Feature", "properties": { "node_id": 58, "degree": 7 }, "geometry": { "type": "Point", "coordinates": [ 645961.066940322751179, 1833927.489424992585555 ] } },
{ "type": "Feature", "properties": { "node_id": 59, "degree": 1 }, "geometry": { "type": "Point", "coordinates": [ 648088.610247781383805, 1830953.544732444221154 ] } },
{ "type": "Feature", "properties": { "node_id": 60, "degree": 1 }, "geometry": { "type": "Point", "coordinates": [ 646257.356700001168065, 1843403.790500000119209 ] } },
{ "type": "Feature", "properties": { "node_id": 61, "degree": 3 }, "geometry": { "type": "Point", "coordinates": [ 645826.346400002134033, 1843103.941600000252947 ] } },
{ "type": "Feature", "properties": { "node_id": 62, "degree": 1 }, "geometry": { "type": "Point", "coordinates": [ 645646.875599999795668, 1842860.581100000301376 ] } },
{ "type": "Feature", "properties": { "node_id": 63, "degree": 1 }, "geometry": { "type": "Point", "coordinates": [ 644580.061200002441183, 1842852.072799999266863 ] } },
{ "type": "Feature", "properties": { "node_id": 64, "degree": 1 }, "geometry": { "type": "Point", "coordinates": [ 646432.003600002266467, 1841768.7533 ] } },
{ "type": "Feature", "properties": { "node_id": 65, "degree": 1 }, "geometry": { "type": "Point", "coordinates": [ 643722.666600001743063, 1840737.873199999565259 ] } },
{ "type": "Feature", "properties": { "node_id": 66, "degree": 1 }, "geometry": { "type": "Point", "coordinates": [ 643893.842100001871586, 1840798.920700000831857 ] } },
{ "type": "Feature", "properties": { "node_id": 67, "degree": 1 }, "geometry": { "type": "Point", "coordinates": [ 646962.632000001263805, 1840612.0988 ] } },
{ "type": "Feature", "properties": { "node_id": 68, "degree": 1 }, "geometry": { "type": "Point", "coordinates": [ 647973.127200002083555, 1840525.836300000781193 ] } },
{ "type": "Feature", "properties": { "node_id": 69, "degree": 1 }, "geometry": { "type": "Point", "coordinates": [ 651957.271800002548844, 1840857.908700000727549 ] } },
{ "type": "Feature", "properties": { "node_id": 70, "degree": 1 }, "geometry": { "type": "Point", "coordinates": [ 649327.177300001494586, 1839665.3815 ] } },
{ "type": "Feature", "properties": { "node_id": 71, "degree": 3 }, "geometry": { "type": "Point", "coordinates": [ 651516.473700002068654, 1839168.192700000246987 ] } },
{ "type": "Feature", "properties": { "node_id": 72, "degree": 1 }, "geometry": { "type": "Point", "coordinates": [ 651328.0726000018185, 1839143.277699999045581 ] } },
{ "type": "Feature", "properties": { "node_id": 73, "degree": 1 }, "geometry": { "type": "Point", "coordinates": [ 653207.712800002424046, 1839144.3575 ] } },
{ "type": "Feature", "properties": { "node_id": 76, "degree": 1 }, "geometry": { "type": "Point", "coordinates": [ 653627.920200001564808, 1837988.156099999323487 ] } },
{ "type": "Feature", "properties": { "node_id": 77, "degree": 1 }, "geometry": { "type": "Point", "coordinates": [ 646610.616900001186877, 1839006.455600001616403 ] } },
{ "type": "Feature", "properties": { "node_id": 78, "degree": 1 }, "geometry": { "type": "Point", "coordinates": [ 647049.609100001864135, 1837117.460100001189858 ] } },
{ "type": "Feature", "properties": { "node_id": 80, "degree": 3 }, "geometry": { "type": "Point", "coordinates": [ 643049.855200001271442, 1837683.894799999892712 ] } },
{ "type": "Feature", "properties": { "node_id": 84, "degree": 1 }, "geometry": { "type": "Point", "coordinates": [ 654160.445900002378039, 1836685.658 ] } },
{ "type": "Feature", "properties": { "node_id": 85, "degree": 1 }, "geometry": { "type": "Point", "coordinates": [ 644263.841300001950003, 1835696.089400000870228 ] } },
{ "type": "Feature", "properties": { "node_id": 86, "degree": 3 }, "geometry": { "type": "Point", "coordinates": [ 650820.343000002671033, 1835674.573799999430776 ] } },
{ "type": "Feature", "properties": { "node_id": 87, "degree": 3 }, "geometry": { "type": "Point", "coordinates": [ 647594.321400000946596, 1836228.910900000482798 ] } },
{ "type": "Feature", "properties": { "node_id": 90, "degree": 1 }, "geometry": { "type": "Point", "coordinates": [ 647543.312599999713711, 1835646.12959999893792 ] } },
{ "type": "Feature", "properties": { "node_id": 94, "degree": 1 }, "geometry": { "type": "Point", "coordinates": [ 646078.61970000108704, 1835482.9328 ] } },
{ "type": "Feature", "properties": { "node_id": 96, "degree": 1 }, "geometry": { "type": "Point", "coordinates": [ 646671.627900001592934, 1835118.367000000551343 ] } },
{ "type": "Feature", "properties": { "node_id": 99, "degree": 1 }, "geometry": { "type": "Point", "coordinates": [ 648223.504000002052635, 1835330.023900000145659 ] } },
{ "type": "Feature", "properties": { "node_id": 100, "degree": 1 }, "geometry": { "type": "Point", "coordinates": [ 646754.605800001067109, 1834523.727999999886379 ] } },
{ "type": "Feature", "properties": { "node_id": 101, "degree": 1 }, "geometry": { "type": "Point", "coordinates": [ 647729.553200001362711, 1834185.506899999454618 ] } },
{ "type": "Feature", "properties": { "node_id": 102, "degree": 1 }, "geometry": { "type": "Point", "coordinates": [ 647676.09540000197012, 1834769.038100000470877 ] } },
{ "type": "Feature", "properties": { "node_id": 103, "degree": 1 }, "geometry": { "type": "Point", "coordinates": [ 644621.46360000106506, 1835171.216199999209493 ] } },
{ "type": "Feature", "properties": { "node_id": 104, "degree": 1 }, "geometry": { "type": "Point", "coordinates": [ 650688.665100001497194, 1833618.622300000628456 ] } },
{ "type": "Feature", "properties": { "node_id": 105, "degree": 1 }, "geometry": { "type": "Point", "coordinates": [ 644315.245900003006682, 1833639.817900000140071 ] } },
{ "type": "Feature", "properties": { "node_id": 106, "degree": 1 }, "geometry": { "type": "Point", "coordinates": [ 638833.350900001358241, 1833442.568099999800324 ] } },
{ "type": "Feature", "properties": { "node_id": 107, "degree": 1 }, "geometry": { "type": "Point", "coordinates": [ 641965.271000001113862, 1833407.57520000054501 ] } }
]
}
