{"type":"FeatureCollection","metadata":{"source":"OpenStreetMap via Overpass API (overpass-api.de)","query_bbox_wgs84":[16.57333,100.299385,16.672267,100.436145],"fetched_at":"2026-08-30T03:27:19.703Z","tambon":"nakhon_pa_mak"},"features":[{"type":"Feature","properties":{"osm_id":37632033,"waterway":"drain","name":null,"intermittent":null},"geometry":{"type":"LineString","coordinates":[[100.437912,16.626323],[100.437269,16.627919],[100.436754,16.629095],[100.436153,16.630279],[100.435462,16.631791],[100.434771,16.633182],[100.434119,16.634391],[100.433441,16.635526],[100.432891,16.636414],[100.432376,16.63708],[100.431733,16.637936],[100.431076,16.63879],[100.430497,16.639679],[100.430115,16.640361],[100.429681,16.640995],[100.429123,16.641579],[100.427785,16.642829],[100.427166,16.643413],[100.425931,16.644358],[100.42466,16.645394],[100.423999,16.646036],[100.423416,16.646463],[100.422806,16.64713],[100.421866,16.648074],[100.421171,16.648864],[100.420532,16.649712],[100.418901,16.651521],[100.418257,16.652105],[100.417485,16.65268],[100.416678,16.65319],[100.415811,16.653667],[100.414893,16.65416],[100.411897,16.655394],[100.410884,16.655854],[100.40879,16.656603],[100.406636,16.657351],[100.405091,16.657926],[100.403992,16.658395],[100.402782,16.658831],[100.400791,16.659538],[100.39801,16.660303],[100.394998,16.661139],[100.392722,16.661977]]}},{"type":"Feature","properties":{"osm_id":139505583,"waterway":"river","name":"แคววังทอง","intermittent":null},"geometry":{"type":"LineString","coordinates":[[100.329084,16.677647],[100.329194,16.675411],[100.329061,16.674042],[100.328071,16.672265],[100.32796,16.671685],[100.327969,16.670836],[100.328089,16.669778],[100.328268,16.669175],[100.328403,16.668902],[100.328625,16.668655],[100.328996,16.668429],[100.329269,16.66827],[100.330172,16.668049],[100.331364,16.667852],[100.331744,16.667738],[100.332078,16.66758],[100.332283,16.66745],[100.332415,16.667293],[100.332741,16.666594],[100.332858,16.666297],[100.332883,16.666092],[100.332836,16.665925],[100.332569,16.665642],[100.332283,16.665326],[100.332029,16.664834],[100.331945,16.664571],[100.331938,16.664249],[100.332224,16.663037],[100.332279,16.662572],[100.332317,16.661936],[100.332296,16.661671],[100.332192,16.66143],[100.331766,16.660792],[100.331365,16.660363],[100.330956,16.660022],[100.330134,16.659483],[100.329964,16.659433],[100.329776,16.659429],[100.329627,16.65947],[100.32948,16.659589],[100.328842,16.660268],[100.328225,16.661071],[100.326858,16.662646],[100.326602,16.662827],[100.325685,16.66326],[100.324913,16.663527],[100.324573,16.663567],[100.324101,16.663591],[100.323794,16.663551],[100.323129,16.663344],[100.322767,16.663249],[100.322216,16.663208],[100.32162,16.663261],[100.320554,16.663511],[100.320183,16.663712],[100.319924,16.663937],[100.318643,16.665807],[100.318264,16.666243],[100.317842,16.666614],[100.317427,16.666877],[100.316968,16.66707],[100.316497,16.66716],[100.316045,16.667177],[100.315419,16.667059],[100.314991,16.666945],[100.314665,16.666754],[100.314385,16.666476],[100.314195,16.666086],[100.313844,16.665458],[100.313514,16.665102],[100.313261,16.664889],[100.31276,16.664617],[100.312241,16.664249],[100.312049,16.664008],[100.311942,16.663794],[100.311903,16.663531],[100.311968,16.663308],[100.312107,16.663143],[100.312424,16.66303],[100.312948,16.662922],[100.313521,16.662844],[100.314196,16.662738],[100.314732,16.662573],[100.315239,16.662386],[100.315577,16.662145],[100.315866,16.661874],[100.316096,16.661526],[100.316243,16.661221],[100.31633,16.660837],[100.316347,16.660453],[100.316162,16.658862],[100.31612,16.657082],[100.316108,16.656754],[100.316086,16.656607],[100.316024,16.656336],[100.31579,16.655773],[100.315717,16.655664],[100.315555,16.655539],[100.31539,16.655465],[100.315192,16.655405],[100.315022,16.65539],[100.3148,16.655402],[100.314686,16.655403],[100.314543,16.655362],[100.314379,16.655279],[100.314178,16.655086],[100.313219,16.653918],[100.312757,16.653436],[100.312522,16.653248],[100.31219,16.653045],[100.31177,16.652855],[100.311478,16.652753],[100.31116,16.65268],[100.310846,16.652613],[100.310381,16.652516],[100.310107,16.652423],[100.309951,16.652307],[100.309817,16.652147],[100.309757,16.651992],[100.309733,16.651826],[100.309728,16.65142],[100.309734,16.65091],[100.309946,16.64961],[100.310384,16.647889],[100.311312,16.646925],[100.311796,16.646227],[100.312425,16.644441],[100.312714,16.64395],[100.312993,16.643617],[100.313287,16.643409],[100.313631,16.6433],[100.313971,16.643274],[100.314259,16.643346],[100.314498,16.643553],[100.314691,16.643892],[100.314905,16.644606],[100.315039,16.644791],[100.31527,16.645008],[100.316134,16.645834],[100.31655,16.646203],[100.317193,16.647126],[100.317972,16.647363],[100.318764,16.647351],[100.319413,16.647081],[100.319792,16.646745],[100.319846,16.646218],[100.319271,16.643892],[100.319198,16.643665],[100.319162,16.643335],[100.31943,16.641032],[100.319447,16.640752],[100.319419,16.640495],[100.319385,16.640303],[100.319314,16.640093],[100.31915,16.639796],[100.318013,16.638327],[100.317598,16.637973],[100.317132,16.637674],[100.314694,16.636742],[100.314287,16.636497],[100.313738,16.636125],[100.310989,16.633292],[100.310832,16.633076],[100.310737,16.632691],[100.3108,16.632307],[100.310943,16.63198],[100.311241,16.631657],[100.311602,16.631342],[100.312407,16.630825],[100.312861,16.630444],[100.313928,16.629166],[100.315207,16.625822],[100.31569,16.625255],[100.316275,16.624695],[100.317207,16.624045],[100.318241,16.623297],[100.318872,16.622699],[100.321205,16.621447],[100.323037,16.62094],[100.324548,16.620419],[100.325395,16.619937],[100.325705,16.619417],[100.325635,16.618858],[100.325259,16.617961],[100.324668,16.61716],[100.324442,16.616356],[100.324674,16.615527],[100.325208,16.614944],[100.32578,16.614779],[100.327261,16.614856],[100.329108,16.613854],[100.329424,16.613388],[100.329309,16.612521],[100.32889,16.611818],[100.328282,16.611259],[100.327409,16.611276],[100.325945,16.611959],[100.324815,16.612116],[100.324197,16.612012],[100.323124,16.611508],[100.322256,16.61111],[100.32125,16.610818],[100.320596,16.610488],[100.320285,16.610203],[100.320092,16.60955],[100.319859,16.608642],[100.320213,16.607901],[100.321122,16.606019],[100.321873,16.605432],[100.322417,16.605258],[100.322857,16.605269]]}},{"type":"Feature","properties":{"osm_id":285405668,"waterway":"river","name":"แคววังทอง","intermittent":null},"geometry":{"type":"LineString","coordinates":[[100.326336,16.51839],[100.32805,16.519224],[100.328248,16.519235],[100.32842,16.519196],[100.328952,16.518859],[100.329619,16.518559],[100.330099,16.518381],[100.330361,16.518348],[100.33075,16.518424],[100.331174,16.518649],[100.331799,16.519242],[100.332259,16.519722],[100.332607,16.520338],[100.333001,16.520872],[100.333325,16.521174],[100.333802,16.521366],[100.334463,16.521518],[100.334771,16.521698],[100.334818,16.521815],[100.334808,16.521961],[100.334517,16.522378],[100.334312,16.522776],[100.333931,16.523049],[100.333331,16.523435],[100.332897,16.523739],[100.332616,16.524071],[100.332515,16.52449],[100.332497,16.525036],[100.33254,16.525369],[100.332787,16.525701],[100.333279,16.526006],[100.333645,16.52625],[100.334357,16.526781],[100.334635,16.527083],[100.334676,16.527389],[100.334633,16.527637],[100.334277,16.52834],[100.333964,16.528941],[100.333439,16.529734],[100.33325,16.530223],[100.333244,16.530596],[100.33343,16.530964],[100.333693,16.53127],[100.334255,16.531513],[100.334543,16.531808],[100.334616,16.532064],[100.334536,16.532318],[100.334358,16.532587],[100.334059,16.532828],[100.333893,16.533068],[100.333492,16.533225],[100.333157,16.533373],[100.33292,16.533696],[100.332812,16.534098],[100.332862,16.534549],[100.33305,16.534902],[100.333277,16.535147],[100.33366,16.535623],[100.333929,16.536303],[100.334162,16.53663],[100.334596,16.536949],[100.335147,16.537271],[100.33556,16.537359],[100.335704,16.537444],[100.335862,16.537646],[100.33591,16.538026],[100.33586,16.53842],[100.335649,16.538726],[100.335355,16.538918],[100.334821,16.539264],[100.334339,16.539427],[100.33397,16.539615],[100.333752,16.539929],[100.333722,16.540271],[100.333748,16.540792],[100.333619,16.541331],[100.333433,16.541743],[100.333277,16.541934],[100.332968,16.542151],[100.332426,16.542551],[100.332115,16.542819],[100.331852,16.54302],[100.331685,16.543377],[100.331722,16.543626],[100.331974,16.543921],[100.332332,16.544117],[100.33292,16.544128],[100.333445,16.5442],[100.333879,16.544221],[100.334334,16.544187],[100.334667,16.544221],[100.334929,16.544176],[100.335248,16.544035],[100.335721,16.543657],[100.335973,16.543565],[100.336305,16.543631],[100.336466,16.543925],[100.33644,16.544305],[100.33608,16.544958],[100.335564,16.545817],[100.335408,16.545971],[100.334954,16.546191],[100.334642,16.546384],[100.334484,16.546675],[100.334491,16.547065],[100.334474,16.547539],[100.334431,16.54803],[100.334248,16.548371],[100.334028,16.548987],[100.333974,16.549434],[100.334007,16.549825],[100.334332,16.550445],[100.334655,16.55081],[100.335141,16.551106],[100.335696,16.551382],[100.335865,16.551527],[100.335879,16.55168],[100.335806,16.551896],[100.335677,16.552148],[100.33548,16.552626],[100.3354,16.552998],[100.335446,16.553376],[100.335793,16.554135],[100.336093,16.554805],[100.336329,16.55539],[100.336499,16.555779],[100.33666,16.555935],[100.336916,16.556042],[100.33711,16.556241],[100.337358,16.556755],[100.337409,16.557255],[100.337369,16.557762],[100.337467,16.558252],[100.33779,16.558708],[100.338341,16.559104],[100.33878,16.559375],[100.339,16.559702],[100.33911,16.560067],[100.339053,16.560331],[100.338773,16.560861],[100.338631,16.561349],[100.338637,16.561769],[100.338735,16.562169],[100.338974,16.562503],[100.33934,16.562639],[100.339852,16.562607],[100.340272,16.562625],[100.340628,16.562792],[100.34092,16.563062],[100.341033,16.563511],[100.341239,16.563767],[100.341646,16.563967],[100.342156,16.563995],[100.343206,16.563958],[100.343785,16.563867],[100.344709,16.563571],[100.345095,16.563548],[100.345551,16.56363],[100.34581,16.563795],[100.345931,16.56398],[100.345981,16.56423],[100.345953,16.564436],[100.345829,16.564851],[100.345398,16.565574],[100.345069,16.566144],[100.345069,16.566305],[100.344987,16.566421],[100.344929,16.566745],[100.344961,16.567009],[100.345096,16.567253],[100.3453,16.567634],[100.34537,16.567919],[100.345374,16.568106],[100.34531,16.568289],[100.345197,16.568489],[100.344929,16.568741],[100.344714,16.569012],[100.344645,16.569267],[100.344641,16.569644],[100.344788,16.570031],[100.34497,16.570305],[100.345232,16.570597],[100.345241,16.570805],[100.345179,16.57129],[100.345044,16.571717],[100.344883,16.572057],[100.344631,16.572269],[100.344356,16.572374],[100.343972,16.572633],[100.343711,16.57296],[100.343439,16.573389],[100.343034,16.574026],[100.342772,16.574507],[100.342739,16.574773],[100.342705,16.575316],[100.342802,16.575594],[100.343119,16.575953],[100.34346,16.576146],[100.343795,16.576146],[100.344524,16.575948],[100.345094,16.575867],[100.345562,16.575819],[100.346162,16.575935],[100.346894,16.576215],[100.34818,16.576935],[100.348683,16.577138],[100.348961,16.57757],[100.349275,16.577847],[100.349714,16.577992],[100.350334,16.577841],[100.350638,16.577815],[100.351146,16.578058],[100.351824,16.578617],[100.352334,16.579195],[100.352722,16.57987],[100.352757,16.580226],[100.352576,16.580742],[100.352077,16.581987],[100.351986,16.582562],[100.352031,16.583007],[100.352156,16.583574],[100.352367,16.584002],[100.352401,16.584244],[100.35229,16.584493],[100.351554,16.585138],[100.350604,16.585816],[100.349536,16.586349],[100.349182,16.586783],[100.349231,16.587255],[100.349288,16.587484],[100.349467,16.588044],[100.349457,16.58929],[100.34933,16.590127],[100.349132,16.590814],[100.349196,16.591229],[100.349503,16.591483],[100.35002,16.591528],[100.350741,16.591578],[100.351131,16.591807],[100.351204,16.59224],[100.351195,16.592745],[100.350934,16.593549],[100.350686,16.594025],[100.350419,16.5944],[100.350181,16.594549],[100.349978,16.594667],[100.349325,16.594657],[100.348548,16.594471],[100.347986,16.594355],[100.347658,16.594333],[100.347347,16.594369],[100.34697,16.594538],[100.346068,16.595101],[100.345153,16.595695],[100.344774,16.59581],[100.344066,16.595974],[100.342876,16.59633],[100.34218,16.596381],[100.341689,16.596526],[100.341273,16.597106],[100.34086,16.597402],[100.340645,16.597488],[100.340396,16.597528],[100.340227,16.597539],[100.340033,16.597485],[100.339893,16.597436],[100.339149,16.596995],[100.339011,16.596939],[100.338847,16.596896],[100.338649,16.596866],[100.338452,16.596865],[100.338242,16.596907],[100.337988,16.596979],[100.337793,16.597078],[100.337409,16.597377],[100.336805,16.598251],[100.336191,16.599164],[100.335937,16.599928],[100.335714,16.600717],[100.335383,16.601321],[100.335045,16.601814],[100.334599,16.602232],[100.33391,16.602634],[100.333229,16.603309],[100.332719,16.604096],[100.332346,16.604535],[100.332051,16.604826],[100.331666,16.605069],[100.331369,16.605335],[100.331312,16.605446],[100.331058,16.605936],[100.330897,16.606087],[100.330675,16.60623],[100.330349,16.606332],[100.330013,16.606344],[100.329615,16.606305],[100.328716,16.606108],[100.327924,16.605987],[100.327312,16.60589],[100.326875,16.605902],[100.326186,16.60595],[100.325435,16.606054],[100.324854,16.606045],[100.324352,16.605853],[100.322857,16.605269]]}},{"type":"Feature","properties":{"osm_id":291284309,"waterway":"river","name":"คลองท่าหลวง","intermittent":null},"geometry":{"type":"LineString","coordinates":[[100.419642,16.575608],[100.419819,16.575156],[100.420108,16.57476],[100.420414,16.574482],[100.420505,16.574226],[100.42043,16.573717],[100.420473,16.573331],[100.420779,16.572879],[100.420892,16.572641],[100.420838,16.572189],[100.420479,16.571721],[100.420301,16.571341],[100.42028,16.570909],[100.42043,16.57041],[100.420709,16.569958],[100.420892,16.56931],[100.420961,16.567783],[100.420956,16.567362],[100.420698,16.567063],[100.420194,16.566739],[100.41999,16.566457],[100.419969,16.56621],[100.420114,16.56604],[100.420462,16.565952],[100.420709,16.565809],[100.420881,16.565551],[100.420945,16.564991],[100.420967,16.564055],[100.421111,16.563181],[100.421074,16.562924],[100.42087,16.562718],[100.4205,16.562656],[100.419947,16.562477],[100.419722,16.562322],[100.41961,16.562044],[100.419733,16.561453],[100.420028,16.560826],[100.420098,16.560579],[100.420076,16.560363],[100.419856,16.56025],[100.419288,16.560075],[100.418976,16.559849],[100.418891,16.55951],[100.418891,16.559027],[100.418875,16.55862],[100.418746,16.55823],[100.418387,16.557557],[100.418344,16.557106],[100.418337,16.556985],[100.418348,16.556882],[100.418388,16.556746],[100.418506,16.556514],[100.418643,16.556283],[100.418761,16.556101],[100.418828,16.555977],[100.418887,16.555841],[100.418946,16.555661],[100.418986,16.555484],[100.419,16.555324],[100.418992,16.555088],[100.418968,16.554856],[100.41896,16.554648],[100.418968,16.554429],[100.418997,16.554167],[100.419064,16.553936],[100.419182,16.553684],[100.419295,16.553427],[100.419373,16.5532],[100.419402,16.553051],[100.419405,16.55291],[100.419386,16.552792],[100.419319,16.552676],[100.419134,16.552514],[100.418691,16.552236],[100.418512,16.552123],[100.418445,16.552062],[100.418375,16.551979],[100.418337,16.551897],[100.418316,16.551812],[100.418316,16.551727],[100.418329,16.551627],[100.418372,16.551478],[100.418469,16.551285],[100.418622,16.55109],[100.418777,16.550946],[100.41886,16.550843],[100.41897,16.55067],[100.419032,16.55055],[100.419078,16.550411],[100.419086,16.550308],[100.419053,16.55011],[100.418946,16.549763],[100.418895,16.549534],[100.418879,16.549388],[100.418885,16.549205],[100.418876,16.54894],[100.418847,16.548593],[100.418796,16.548233],[100.418721,16.547912],[100.418699,16.547778],[100.418699,16.547632],[100.418726,16.54738],[100.418777,16.547135],[100.41885,16.546896],[100.418882,16.546747],[100.418871,16.546616],[100.418831,16.54648],[100.418764,16.546372],[100.418584,16.546174],[100.41838,16.545976],[100.418235,16.545803],[100.418091,16.545603],[100.41793,16.545361],[100.417787,16.545161],[100.417677,16.54504],[100.417575,16.544924],[100.417415,16.544793],[100.417216,16.544667],[100.416953,16.5445],[100.41687,16.544428],[100.416819,16.544346],[100.41679,16.544258],[100.416776,16.544114],[100.416787,16.543978],[100.416814,16.543752],[100.416819,16.543561],[100.41683,16.543219],[100.416808,16.543045],[100.416717,16.542607],[100.416618,16.542237],[100.416589,16.542093],[100.416559,16.541908],[100.416543,16.541795],[100.416508,16.541708],[100.416417,16.541612],[100.416318,16.541556],[100.416197,16.541504],[100.416111,16.541502],[100.416022,16.541515],[100.415875,16.541556],[100.415773,16.541563],[100.415655,16.541558],[100.41555,16.541528],[100.415446,16.541481],[100.415339,16.541386],[100.415261,16.541278],[100.415135,16.541106],[100.415076,16.541016],[100.415009,16.540867],[100.414968,16.540748],[100.414923,16.540605],[100.414872,16.540507],[100.414765,16.540376],[100.414657,16.540288],[100.414475,16.540178],[100.414314,16.540095],[100.414172,16.540016],[100.414062,16.539939],[100.413973,16.539849],[100.413895,16.539771],[100.413823,16.539671],[100.413786,16.539589],[100.413748,16.539463],[100.413735,16.539265],[100.413697,16.539077],[100.41367,16.538941],[100.413633,16.538812],[100.413558,16.538699],[100.413432,16.538573],[100.413257,16.538457],[100.413099,16.538347],[100.412938,16.538206],[100.412796,16.538056],[100.412568,16.537833],[100.412436,16.537714],[100.412377,16.537642],[100.412324,16.537532],[100.412289,16.53746],[100.412262,16.537406],[100.412259,16.537321],[100.41227,16.537221],[100.412313,16.537131],[100.412471,16.536992],[100.412537,16.536956],[100.412608,16.536911],[100.412683,16.536857],[100.412729,16.536813],[100.412747,16.536748],[100.412722,16.536602],[100.412677,16.536427],[100.412402,16.535976],[100.412243,16.535812],[100.412166,16.535706],[100.412069,16.535516],[100.411978,16.535367],[100.411903,16.535267],[100.41183,16.535213],[100.411718,16.535179],[100.411621,16.535143],[100.411546,16.535076],[100.411479,16.534971],[100.411404,16.534799],[100.411348,16.534616],[100.411278,16.534313],[100.411248,16.534171],[100.411179,16.533966],[100.411152,16.533852],[100.41113,16.533626],[100.411087,16.533415],[100.410991,16.533202],[100.410881,16.533012],[100.41073,16.532842],[100.410575,16.532729],[100.410344,16.532616],[100.410119,16.532556],[100.409966,16.532538],[100.409684,16.532508],[100.409508,16.532487],[100.409355,16.532446],[100.40921,16.532389],[100.409057,16.53232],[100.408947,16.532248],[100.40885,16.532158],[100.408775,16.532078],[100.408697,16.531937],[100.408641,16.531772],[100.40859,16.531554],[100.408577,16.531394],[100.408558,16.531312],[100.408469,16.531116],[100.408231,16.530828],[100.40804,16.5306],[100.407911,16.530435],[100.407815,16.530324],[100.407759,16.53025],[100.407743,16.530193],[100.407737,16.530121],[100.407753,16.530026],[100.407823,16.529916],[100.407968,16.52972],[100.408024,16.529574],[100.408035,16.529442],[100.408016,16.529298],[100.407973,16.529227],[100.407831,16.529075],[100.407418,16.528784],[100.407316,16.528704],[100.407139,16.528514],[100.40708,16.528416],[100.407064,16.528303],[100.407128,16.528103],[100.407236,16.527866],[100.407316,16.52764],[100.40737,16.527429],[100.407364,16.527229],[100.407327,16.526992],[100.407246,16.526827],[100.406882,16.526488],[100.406758,16.526359],[100.406629,16.526179],[100.406447,16.525866],[100.406313,16.525639],[100.406211,16.525511],[100.406082,16.525418],[100.405932,16.525362],[100.405777,16.525362],[100.405664,16.525393],[100.405508,16.525516],[100.405261,16.525814],[100.405095,16.526041],[100.405004,16.526143],[100.404875,16.52621],[100.404693,16.526246],[100.404435,16.526287],[100.40406,16.526287],[100.40384,16.526251],[100.403658,16.52621],[100.403497,16.526138],[100.403191,16.525933],[100.402917,16.525742],[100.402697,16.525614],[100.402504,16.525562],[100.402257,16.525531],[100.401962,16.525557],[100.401716,16.525609],[100.40149,16.525691],[100.401276,16.525778],[100.401115,16.525804],[100.400954,16.525773],[100.40082,16.525691],[100.400761,16.525598],[100.40075,16.52548],[100.400772,16.525357],[100.400884,16.52512],[100.40097,16.524868],[100.401008,16.524667],[100.400991,16.52459],[100.400911,16.524451],[100.400745,16.524194],[100.400702,16.524061],[100.400712,16.523942],[100.400772,16.523762],[100.400906,16.523582],[100.401024,16.523459],[100.401088,16.52333],[100.401136,16.523171],[100.401158,16.523017],[100.401126,16.522842],[100.401024,16.522682],[100.4009,16.522574],[100.400455,16.522322],[100.399763,16.52188],[100.399425,16.521674],[100.399189,16.521551],[100.39898,16.521499],[100.398765,16.521494],[100.398556,16.521551],[100.398438,16.521571],[100.398331,16.521556],[100.398223,16.521494],[100.398154,16.521381],[100.398132,16.521227],[100.398175,16.521031],[100.398245,16.520872],[100.398347,16.520692],[100.398518,16.520491],[100.398647,16.520322],[100.398685,16.520198],[100.39869,16.520044],[100.398663,16.519926],[100.398594,16.519766],[100.398486,16.519674],[100.398315,16.519596],[100.398164,16.519576],[100.397821,16.519622],[100.397279,16.519674],[100.396909,16.519741],[100.396571,16.519864],[100.396158,16.520044],[100.395933,16.520214],[100.395799,16.520378],[100.395708,16.520553],[100.395627,16.52063],[100.395547,16.520651],[100.395466,16.520625],[100.395391,16.520553],[100.39537,16.520445],[100.395273,16.519987],[100.395203,16.51972],[100.395112,16.51953],[100.394994,16.519319],[100.394903,16.519154],[100.394812,16.519041],[100.39471,16.518974],[100.394586,16.518938],[100.394436,16.518933],[100.394291,16.518964],[100.394066,16.519015],[100.393921,16.519031],[100.393792,16.51901],[100.393669,16.518938],[100.393599,16.518856],[100.393406,16.518588],[100.39331,16.518465],[100.393218,16.518357],[100.39309,16.51827],[100.392966,16.518228],[100.392843,16.518228],[100.392687,16.518234],[100.392548,16.518223],[100.392446,16.518187],[100.392387,16.518151],[100.392328,16.51809],[100.392285,16.517997],[100.392231,16.517812],[100.392156,16.517241],[100.392135,16.517133],[100.392103,16.517046],[100.392011,16.516968],[100.391872,16.516917],[100.391335,16.516876],[100.390804,16.51685],[100.390601,16.516794],[100.390504,16.516722],[100.390423,16.516593],[100.390397,16.516464],[100.390407,16.516331],[100.390432,16.516225],[100.390488,16.516102],[100.390625,16.515904],[100.390807,16.515672],[100.390922,16.515518],[100.390947,16.515433],[100.390944,16.515348],[100.390906,16.515282],[100.390837,16.515251],[100.390727,16.515222],[100.390625,16.51522],[100.390469,16.515238],[100.390335,16.515287],[100.390099,16.51539],[100.39,16.515418],[100.389909,16.515415],[100.389812,16.51539],[100.389724,16.515333],[100.389565,16.515228],[100.389308,16.51506],[100.389096,16.514937],[100.388986,16.514885],[100.388849,16.51485],[100.388632,16.514821],[100.388358,16.514801],[100.388117,16.514801],[100.387921,16.514824],[100.387698,16.514831],[100.38747,16.514826],[100.38713,16.514778],[100.386532,16.514657],[100.386121,16.514592],[100.385622,16.514551],[100.385212,16.514523],[100.384689,16.514495],[100.384142,16.514495],[100.383747,16.514471],[100.383249,16.514438],[100.383013,16.514407],[100.382761,16.514358],[100.382377,16.514309],[100.381996,16.514289],[100.381757,16.514291],[100.381478,16.514281],[100.381159,16.514279],[100.380692,16.514309],[100.38055,16.514311],[100.380435,16.514312],[100.380347,16.514299],[100.380253,16.514266],[100.380202,16.514232],[100.380169,16.514189],[100.380145,16.514122],[100.38014,16.514047],[100.380156,16.513973],[100.380215,16.513867],[100.380347,16.513636],[100.380371,16.513559],[100.380389,16.513445],[100.380397,16.513289],[100.380381,16.513114],[100.380322,16.512833],[100.380199,16.512412],[100.380129,16.512252],[100.37999,16.512028],[100.379899,16.511882],[100.379815,16.511722],[100.379687,16.511437],[100.379569,16.511141],[100.37952,16.511018],[100.379493,16.5109],[100.379472,16.510755],[100.379472,16.510655],[100.379483,16.510576],[100.379515,16.510509],[100.379542,16.510416],[100.379542,16.510275],[100.37951,16.509964],[100.37948,16.509866],[100.379402,16.509717],[100.379225,16.509477],[100.379105,16.509328],[100.378995,16.509169],[100.378922,16.509045],[100.378866,16.508927],[100.378831,16.508811],[100.378812,16.508672],[100.378801,16.508433],[100.378815,16.508125],[100.37885,16.50787],[100.378898,16.507713],[100.378952,16.507536],[100.37897,16.507392],[100.378965,16.507184],[100.378933,16.506934],[100.378823,16.506427],[100.378751,16.506121],[100.378713,16.505913],[100.378702,16.505741],[100.378702,16.505568],[100.378724,16.50544],[100.378791,16.505242],[100.378893,16.505013],[100.378917,16.50492],[100.378919,16.504825],[100.378885,16.504733],[100.378767,16.504548],[100.378657,16.504334],[100.378568,16.504133],[100.378518,16.503892],[100.378502,16.503702],[100.378461,16.503477],[100.378439,16.503189],[100.378432,16.502987],[100.37845,16.502818],[100.378486,16.502684],[100.378568,16.502535],[100.378695,16.502354],[100.378781,16.502236],[100.378829,16.502154],[100.378885,16.502036],[100.37892,16.501861],[100.378938,16.501589],[100.378985,16.501434],[100.37914,16.501105],[100.379201,16.500905],[100.379271,16.500663],[100.379312,16.500426],[100.379335,16.500205],[100.379317,16.500035],[100.379269,16.499798],[100.379248,16.499603],[100.379282,16.499413],[100.379421,16.499058],[100.379593,16.498765],[100.379816,16.49842],[100.379936,16.498194],[100.379988,16.498039],[100.380047,16.497828],[100.380043,16.497618],[100.380041,16.497437],[100.38007,16.497268],[100.380181,16.496985],[100.380315,16.496692],[100.380481,16.496455],[100.380682,16.496173],[100.380837,16.495874],[100.380991,16.49558],[100.381035,16.495459],[100.381055,16.495344],[100.381041,16.495201],[100.380975,16.495071],[100.380919,16.494948],[100.380883,16.494815],[100.380906,16.494682],[100.381012,16.494485],[100.381152,16.49412],[100.381372,16.493703],[100.38157,16.493389],[100.381658,16.493195],[100.381699,16.492957],[100.381785,16.492772],[100.381903,16.492582],[100.381999,16.492448],[100.382082,16.492269],[100.382119,16.492022],[100.382171,16.491826],[100.382264,16.491595],[100.382377,16.491394],[100.38249,16.49124],[100.382666,16.491075],[100.382826,16.49091],[100.382965,16.490709],[100.383051,16.490504],[100.383153,16.490133],[100.383251,16.489882],[100.383369,16.489661],[100.383535,16.48944],[100.383641,16.489264],[100.383711,16.489068],[100.383818,16.488894],[100.384029,16.488658],[100.384188,16.488467],[100.384269,16.488307],[100.384333,16.488076],[100.384392,16.487906],[100.38448,16.487783],[100.384612,16.487628],[100.384751,16.487424],[100.384816,16.487248],[100.384971,16.486846],[100.3851,16.486543],[100.385263,16.486271],[100.385359,16.486076],[100.385402,16.485865],[100.38552,16.485618],[100.385724,16.485294],[100.386001,16.484784],[100.386169,16.484558],[100.38657,16.484218],[100.38679,16.484058],[100.386926,16.483915],[100.387119,16.483663],[100.387337,16.483477],[100.387489,16.483354],[100.3876,16.483204],[100.387713,16.482963],[100.387793,16.482798],[100.387886,16.482701],[100.388219,16.482434],[100.388453,16.482165],[100.3887,16.48198],[100.388948,16.481801],[100.389023,16.481698],[100.389075,16.481564],[100.389064,16.481368],[100.389043,16.481147],[100.389075,16.480972],[100.389154,16.4808],[100.389254,16.480638],[100.389451,16.480427],[100.389742,16.480181],[100.38988,16.480005],[100.389989,16.479754],[100.390134,16.479378],[100.390214,16.479177],[100.390295,16.479044],[100.39045,16.478915],[100.390915,16.478523],[100.391207,16.478185],[100.391425,16.477911],[100.391612,16.477695],[100.391807,16.477501],[100.391961,16.477392],[100.392231,16.477218],[100.392575,16.477027],[100.392907,16.476873],[100.393222,16.47679],[100.393565,16.476738],[100.393774,16.476707],[100.393942,16.476641],[100.394087,16.476544],[100.394246,16.476358],[100.394541,16.475812],[100.394797,16.475346],[100.395024,16.474912],[100.395062,16.474758],[100.395053,16.474635],[100.394954,16.474434],[100.394466,16.473693],[100.393942,16.47286],[100.39378,16.472572],[100.393656,16.472314],[100.393535,16.47214],[100.393447,16.471995],[100.393363,16.47178],[100.393286,16.471486],[100.393202,16.471075],[100.393111,16.470484],[100.393023,16.470041],[100.392929,16.469614],[100.392805,16.469172],[100.392698,16.468786],[100.392591,16.46855],[100.392465,16.468394],[100.39224,16.468199],[100.392068,16.467957],[100.391781,16.46749],[100.39143,16.466872],[100.391076,16.466198],[100.390965,16.465988],[100.390829,16.465642],[100.390593,16.464968],[100.390439,16.464516],[100.390391,16.464336],[100.390311,16.464202],[100.39019,16.464091],[100.390019,16.464032],[100.389882,16.464022],[100.389667,16.464084],[100.389426,16.464228],[100.389268,16.464402],[100.389107,16.464696],[100.388989,16.464958],[100.388941,16.465159],[100.388984,16.465436],[100.389016,16.465735],[100.389011,16.466188],[100.389011,16.466496],[100.389075,16.466903],[100.389241,16.467407],[100.38941,16.467814],[100.389613,16.468184],[100.389703,16.46841],[100.38973,16.468631],[100.389703,16.468924],[100.389554,16.469743],[100.389467,16.470082],[100.389375,16.47019],[100.38927,16.470237],[100.389163,16.470216],[100.38907,16.470118],[100.388675,16.469784],[100.388594,16.469743],[100.388512,16.469742],[100.388437,16.469778],[100.38834,16.469876],[100.388165,16.470304],[100.388085,16.47035],[100.387938,16.47036],[100.387704,16.470329],[100.387527,16.470355],[100.387285,16.470463],[100.387049,16.470612],[100.386867,16.470674],[100.386609,16.47069],[100.386094,16.470674],[100.385223,16.470632],[100.384644,16.470617],[100.384418,16.470566],[100.384107,16.470308],[100.383882,16.470175],[100.383732,16.470103],[100.38356,16.470092],[100.383152,16.470164],[100.38253,16.470205],[100.382283,16.470205],[100.382037,16.470133],[100.381736,16.469938],[100.381361,16.46967],[100.38106,16.469516],[100.38076,16.469434],[100.380309,16.46931],[100.379473,16.469228],[100.377938,16.469228],[100.376769,16.469207],[100.375288,16.469228],[100.374173,16.469125],[100.373507,16.469105],[100.37251,16.469269],[100.371748,16.469413],[100.371286,16.469568],[100.370664,16.469691],[100.370299,16.46967],[100.369795,16.469465],[100.369452,16.469207],[100.369344,16.46893],[100.369291,16.468498],[100.369398,16.467993],[100.369634,16.467675],[100.37001,16.467417],[100.370436,16.467289],[100.371168,16.467253],[100.372574,16.467335],[100.373497,16.467294],[100.374248,16.46716],[100.374698,16.467037],[100.374953,16.466878],[100.375159,16.466502],[100.375235,16.466213],[100.375235,16.465977],[100.375128,16.465627],[100.375031,16.465329],[100.374986,16.465034],[100.375018,16.464623],[100.374956,16.464475],[100.374859,16.464382],[100.374645,16.464372],[100.374441,16.464423],[100.374217,16.464422],[100.373787,16.46432],[100.373454,16.464135],[100.373218,16.46397],[100.373022,16.46386],[100.372832,16.463857],[100.372563,16.463847],[100.372188,16.463909],[100.371737,16.464012],[100.371297,16.464063],[100.370772,16.464063],[100.370246,16.464043],[100.369967,16.464073],[100.369645,16.464166],[100.369431,16.464279],[100.369163,16.464454],[100.368905,16.464567],[100.368594,16.464598],[100.367886,16.464732],[100.367682,16.464814],[100.367499,16.464917],[100.367328,16.464958],[100.367135,16.464917],[100.366834,16.464804],[100.366641,16.464732],[100.366459,16.464763],[100.366191,16.464866],[100.365944,16.464896],[100.365547,16.464917],[100.365289,16.464989],[100.364721,16.465349],[100.36441,16.465493],[100.36398,16.465596],[100.363573,16.465668],[100.363326,16.465678],[100.363058,16.465658],[100.3628,16.465545],[100.362232,16.465298],[100.361888,16.465102],[100.361631,16.464896],[100.361277,16.464721],[100.361062,16.464578],[100.360848,16.464341],[100.360644,16.46395],[100.360376,16.463487],[100.360182,16.463034],[100.360127,16.462781],[100.360062,16.4624],[100.359979,16.462201],[100.359743,16.461913],[100.359657,16.461727],[100.359603,16.461583],[100.35959,16.461289],[100.359644,16.461042],[100.359893,16.460575],[100.36017,16.460096],[100.360236,16.459814],[100.360242,16.459584],[100.360188,16.459368],[100.360187,16.459048],[100.360266,16.45882],[100.360343,16.458507],[100.360294,16.458282],[100.360193,16.458054],[100.359861,16.457797],[100.359603,16.457694],[100.359281,16.457694],[100.35897,16.457766],[100.358434,16.458023],[100.357393,16.458785],[100.356711,16.458999],[100.356215,16.458918],[100.355655,16.458623],[100.355178,16.458452],[100.354776,16.458381],[100.354522,16.45811],[100.354431,16.45718],[100.354421,16.455478],[100.354263,16.455029],[100.353038,16.454205],[100.352142,16.453569],[100.351973,16.453345],[100.351992,16.45287],[100.35217,16.45235],[100.352029,16.452036],[100.351936,16.451678],[100.351992,16.451373],[100.352655,16.450907],[100.353478,16.449572],[100.354178,16.449169],[100.355038,16.448963],[100.356486,16.449097],[100.357103,16.449294],[100.357757,16.449966],[100.358093,16.45011],[100.358467,16.450235],[100.358626,16.450119],[100.358663,16.449473],[100.35886,16.448712],[100.35914,16.448183],[100.359149,16.447887],[100.358981,16.447708],[100.358598,16.447717],[100.35829,16.447717],[100.357897,16.44769],[100.35772,16.447547],[100.357458,16.446498],[100.357458,16.446176],[100.357692,16.445799],[100.357748,16.445539],[100.357748,16.445315],[100.357741,16.444983]]}},{"type":"Feature","properties":{"osm_id":292980952,"waterway":"canal","name":null,"intermittent":null},"geometry":{"type":"LineString","coordinates":[[100.308475,16.597079],[100.308098,16.597742],[100.307621,16.598852],[100.307467,16.599488],[100.307365,16.600059],[100.307365,16.600663],[100.307467,16.601887],[100.30768,16.603846],[100.307646,16.604229],[100.307501,16.604548],[100.307271,16.604719],[100.30705,16.604776],[100.30604,16.604655],[100.305519,16.604507],[100.304594,16.60391],[100.30425,16.603565],[100.3038,16.603005],[100.303137,16.602245],[100.302577,16.601751],[100.30174,16.601155],[100.30142,16.60062],[100.30112,16.59951],[100.301227,16.598708],[100.301742,16.597844],[100.302212,16.597371],[100.302579,16.597289],[100.303266,16.597474],[100.304615,16.597366],[100.305807,16.597156],[100.306405,16.596947],[100.30703,16.596618],[100.307378,16.596349],[100.307591,16.596082],[100.30779,16.595833],[100.308098,16.594818],[100.308145,16.594351],[100.307984,16.593673],[100.307492,16.592164],[100.307298,16.591284],[100.306966,16.590097],[100.306788,16.589693],[100.306072,16.588491],[100.305829,16.588031],[100.305637,16.587578],[100.305409,16.587117],[100.305245,16.586887],[100.305063,16.586713],[100.304821,16.586556],[100.30448,16.586355],[100.303946,16.58622],[100.303511,16.586187],[100.302693,16.586345],[100.302044,16.586561],[100.301664,16.586566],[100.30135,16.586525]]}},{"type":"Feature","properties":{"osm_id":396885599,"waterway":"river","name":null,"intermittent":null},"geometry":{"type":"LineString","coordinates":[[100.349774,16.647926],[100.349464,16.647479],[100.3491,16.646852],[100.348928,16.64642],[100.348874,16.645998],[100.34897,16.645592],[100.349164,16.64533],[100.349518,16.645104],[100.350633,16.644667],[100.351094,16.644441],[100.351503,16.644313],[100.352136,16.644343],[100.352907,16.64441],[100.353702,16.644549],[100.354474,16.644852],[100.355172,16.645279],[100.355891,16.64604],[100.356417,16.6468],[100.356921,16.647561],[100.357232,16.647951],[100.357575,16.648198],[100.357854,16.64828],[100.358175,16.648316],[100.358711,16.648306],[100.358981,16.648177],[100.359163,16.647951],[100.359334,16.647556],[100.359399,16.64678],[100.359387,16.644256],[100.359292,16.643809],[100.359142,16.643439],[100.358874,16.64311],[100.358144,16.642483],[100.357769,16.642103],[100.356352,16.640838],[100.35558,16.640221],[100.354507,16.639461],[100.353573,16.638844],[100.352629,16.638381],[100.351449,16.637867],[100.350033,16.637281],[100.349529,16.637014],[100.349293,16.63687],[100.349175,16.636541],[100.349196,16.636192],[100.349475,16.635842],[100.349794,16.63561],[100.350144,16.635428],[100.350603,16.635241],[100.351003,16.635151],[100.351836,16.635034],[100.353009,16.63496],[100.353387,16.6349],[100.353844,16.634782],[100.354739,16.634477],[100.355698,16.634105],[100.3563,16.633975],[100.356821,16.633918],[100.357261,16.633918],[100.357778,16.633966],[100.358593,16.634131],[100.360086,16.634547],[100.360526,16.634681],[100.360804,16.634717],[100.361049,16.634689],[100.361244,16.634573],[100.361513,16.634197],[100.361651,16.633894],[100.361598,16.633606],[100.361358,16.633174],[100.361018,16.632476],[100.360848,16.631885],[100.360654,16.630713],[100.360547,16.629705],[100.360526,16.62877],[100.360698,16.62767],[100.360816,16.626539],[100.360805,16.626128],[100.360708,16.62585],[100.360504,16.625727],[100.360268,16.625727],[100.359399,16.625881],[100.358444,16.626107],[100.358058,16.626086],[100.357586,16.625901],[100.356867,16.625501],[100.356095,16.624935],[100.355204,16.62402],[100.354389,16.623023],[100.353487,16.621764],[100.352726,16.620905],[100.3522,16.62037],[100.350923,16.619456],[100.349946,16.618916],[100.349507,16.618551],[100.349336,16.618284],[100.349314,16.617924],[100.34942,16.617631],[100.349689,16.617456],[100.350246,16.617405],[100.35103,16.617384],[100.351706,16.61724],[100.352242,16.616932],[100.35264,16.616567],[100.352972,16.616037],[100.353122,16.615585],[100.353101,16.61486],[100.352983,16.613678],[100.352801,16.612917],[100.352694,16.612475],[100.35264,16.612084],[100.352715,16.611694],[100.352887,16.611467],[100.353209,16.611313],[100.353627,16.611406],[100.353971,16.611724],[100.354549,16.612285],[100.354999,16.612552],[100.355591,16.612763],[100.356341,16.612819],[100.357371,16.612763],[100.358155,16.61267],[100.35868,16.612701],[100.359571,16.612886],[100.360472,16.613236],[100.361448,16.613667],[100.361995,16.613817],[100.3628,16.613873],[100.363809,16.613791],[100.364903,16.613626],[100.365299,16.61357],[100.365514,16.613662],[100.365697,16.613894],[100.365762,16.614161],[100.365676,16.614439],[100.365418,16.61486],[100.364914,16.615415],[100.364442,16.615755],[100.36353,16.616238],[100.361674,16.617338],[100.360086,16.61852],[100.359099,16.619363],[100.35808,16.620329],[100.357532,16.621039],[100.357296,16.621614],[100.357264,16.622098],[100.357393,16.622581],[100.357683,16.622879],[100.35809,16.623033],[100.358529,16.623079],[100.359549,16.623044],[100.360106,16.622987],[100.360353,16.622905],[100.360536,16.622725],[100.360814,16.622236],[100.361052,16.621944],[100.361512,16.621702],[100.362392,16.621363],[100.363186,16.620921],[100.363625,16.620725],[100.364108,16.620612],[100.364667,16.620576],[100.365515,16.620689],[100.366952,16.621101],[100.367961,16.621316],[100.368506,16.62127]]}},{"type":"Feature","properties":{"osm_id":396890255,"waterway":"river","name":null,"intermittent":null},"geometry":{"type":"LineString","coordinates":[[100.300362,16.573565],[100.29938,16.572697],[100.29891,16.572424],[100.298424,16.572153],[100.297746,16.571803],[100.297423,16.571678],[100.297163,16.571505],[100.296912,16.57142],[100.296666,16.571389],[100.296402,16.571406],[100.29612,16.571472],[100.295857,16.571569],[100.295515,16.57172],[100.295214,16.571837],[100.294832,16.571944],[100.294398,16.572036],[100.293978,16.572068],[100.293554,16.572063],[100.293005,16.572034],[100.292148,16.571954],[100.29147,16.57182],[100.291032,16.571789],[100.290391,16.571789],[100.289941,16.571814],[100.289654,16.571809],[100.289402,16.571777],[100.28902,16.571682],[100.288661,16.571549],[100.28838,16.571337],[100.288063,16.570977],[100.287699,16.570185],[100.287452,16.569239],[100.287269,16.568066],[100.286937,16.566719],[100.286347,16.564899],[100.286247,16.564745],[100.286093,16.564654],[100.285895,16.564589],[100.285603,16.564564],[100.285423,16.56458],[100.285209,16.564696],[100.28502,16.564909],[100.284814,16.565342],[100.284531,16.565716],[100.284222,16.566094],[100.283604,16.566843],[100.283277,16.567188],[100.282805,16.5676],[100.281947,16.568225],[100.281432,16.568645],[100.280857,16.569122],[100.280445,16.569377],[100.279879,16.569665],[100.279149,16.570002],[100.278462,16.570257],[100.27811,16.570339],[100.277753,16.57038]]}},{"type":"Feature","properties":{"osm_id":396890263,"waterway":"river","name":null,"intermittent":null},"geometry":{"type":"LineString","coordinates":[[100.300578,16.573743],[100.300362,16.573565]]}},{"type":"Feature","properties":{"osm_id":397793640,"waterway":"river","name":null,"intermittent":null},"geometry":{"type":"LineString","coordinates":[[100.30135,16.586525],[100.300943,16.586316],[100.300637,16.586009],[100.300455,16.585649],[100.300402,16.585334],[100.300502,16.584406],[100.30082,16.581558],[100.301914,16.576519],[100.301945,16.576009],[100.301892,16.575615],[100.301629,16.575177],[100.301163,16.574525],[100.300578,16.573743]]}},{"type":"Feature","properties":{"osm_id":400414173,"waterway":"river","name":null,"intermittent":null},"geometry":{"type":"LineString","coordinates":[[100.505403,16.633424],[100.505463,16.63316],[100.505452,16.633076],[100.505409,16.632991],[100.505323,16.632939],[100.505173,16.632916],[100.504966,16.632991],[100.50477,16.633036],[100.50458,16.633119],[100.504381,16.633298],[100.504129,16.633668],[100.504021,16.633848],[100.503796,16.634162],[100.503498,16.634622],[100.503345,16.635005],[100.503217,16.63512],[100.503123,16.635131],[100.503011,16.63508],[100.502804,16.635036],[100.50264,16.634958],[100.502526,16.634849],[100.502468,16.63474],[100.502442,16.63456],[100.502349,16.634147],[100.502213,16.633779],[100.502096,16.633454],[100.502039,16.633244],[100.501969,16.633129],[100.501879,16.633055],[100.50172,16.632995],[100.501572,16.632974],[100.501281,16.632981],[100.500961,16.633057],[100.500581,16.633145],[100.500281,16.633176],[100.50006,16.633175],[100.499919,16.633148],[100.499838,16.633109],[100.49975,16.63305],[100.499617,16.632967],[100.499475,16.63292],[100.499304,16.632826],[100.499206,16.632752],[100.49911,16.63263],[100.499065,16.63254],[100.499043,16.632471],[100.499038,16.632317],[100.499047,16.632024],[100.499098,16.631845],[100.499225,16.631497],[100.499378,16.631147],[100.499438,16.630935],[100.499448,16.630754],[100.499421,16.630615],[100.499366,16.630537],[100.499267,16.63049],[100.499153,16.630502],[100.498968,16.630584],[100.498599,16.630711],[100.498375,16.630754],[100.498167,16.630752],[100.497941,16.630697],[100.497691,16.630554],[100.497411,16.630344],[100.497131,16.630109],[100.496855,16.629839],[100.496686,16.629675],[100.496302,16.629279],[100.496021,16.629069],[100.495705,16.628817],[100.49526,16.628457],[100.495055,16.628261],[100.494844,16.628013],[100.494605,16.627774],[100.494355,16.627577],[100.493964,16.627301],[100.493805,16.627148],[100.49351,16.626822],[100.493301,16.62658],[100.493063,16.626396],[100.492687,16.626155],[100.492272,16.625874],[100.492044,16.625695],[100.49191,16.625625],[100.491778,16.625574],[100.491627,16.625542],[100.491274,16.625515],[100.490987,16.625468],[100.490678,16.625378],[100.490463,16.625259],[100.49028,16.625128],[100.490224,16.625041],[100.490189,16.624737],[100.490134,16.624525],[100.49009,16.624411],[100.490085,16.624288],[100.490101,16.624159],[100.49011,16.623767],[100.490094,16.62361],[100.490048,16.623492],[100.489967,16.623422],[100.489728,16.62328],[100.489377,16.623105],[100.489115,16.623011],[100.488849,16.62297],[100.488513,16.622913],[100.4882,16.622898],[100.487765,16.622949],[100.487319,16.623046],[100.486906,16.623193],[100.486411,16.623371],[100.486069,16.623463],[100.48586,16.623501],[100.485687,16.623494],[100.485467,16.623438],[100.485164,16.623366],[100.484763,16.62332],[100.483361,16.623171],[100.482959,16.623099],[100.482014,16.622923],[100.481365,16.622794],[100.480925,16.622711],[100.48065,16.622635],[100.480464,16.622566],[100.480225,16.622484],[100.479841,16.622391],[100.479542,16.622361],[100.479292,16.622296],[100.479136,16.622173],[100.479007,16.622016],[100.478952,16.621837],[100.478904,16.62159],[100.478884,16.621257],[100.478853,16.621104],[100.478795,16.620949],[100.478667,16.620785],[100.478562,16.620659],[100.47846,16.620553],[100.478281,16.620431],[100.478066,16.620335],[100.477938,16.62032],[100.477831,16.620344],[100.477647,16.620443],[100.477315,16.620785],[100.477025,16.621044],[100.476679,16.621355],[100.476274,16.621705],[100.476038,16.621879],[100.475791,16.621975],[100.475488,16.622018],[100.475148,16.622068],[100.474974,16.622089],[100.474727,16.622076],[100.474569,16.622037],[100.474136,16.621987],[100.473724,16.621989],[100.473538,16.621941],[100.473418,16.621888],[100.473349,16.621824],[100.473341,16.621719],[100.473373,16.621554],[100.47338,16.621401],[100.473337,16.621286],[100.473292,16.621084],[100.47327,16.620931],[100.473246,16.620749],[100.473185,16.620637],[100.47307,16.620439],[100.472967,16.620342],[100.472812,16.620266],[100.472615,16.620183],[100.47246,16.620093],[100.47232,16.619962],[100.472192,16.61981],[100.472126,16.61967],[100.472053,16.619444],[100.471941,16.619254],[100.471793,16.619151],[100.471505,16.618996],[100.471224,16.618796],[100.470969,16.618628],[100.47079,16.618465],[100.470634,16.618331],[100.470452,16.618205],[100.470229,16.618118],[100.470031,16.61803],[100.469926,16.617959],[100.469788,16.617814],[100.469644,16.61767],[100.469497,16.617452],[100.469297,16.617042],[100.469175,16.61681],[100.469054,16.616683],[100.468876,16.616533],[100.468504,16.616331],[100.468316,16.616197],[100.468214,16.616068],[100.468099,16.615837],[100.468043,16.615627],[100.467978,16.615511],[100.467879,16.615426],[100.467715,16.615359],[100.467396,16.615331],[100.466969,16.615338],[100.466667,16.615381],[100.466304,16.615416],[100.465959,16.615429],[100.465624,16.615422],[100.465414,16.615444],[100.465248,16.615489],[100.464996,16.61565],[100.464704,16.615848],[100.464451,16.615981],[100.464207,16.616127],[100.464038,16.616282],[100.463861,16.616413],[100.463714,16.616488],[100.463609,16.616503],[100.463517,16.61649],[100.463381,16.616436],[100.463178,16.616321],[100.462976,16.616115],[100.462783,16.615868],[100.46263,16.615608],[100.46252,16.615334],[100.462416,16.615008],[100.462236,16.614589],[100.462142,16.614378],[100.462048,16.614062],[100.461989,16.613801],[100.461944,16.613563],[100.461863,16.61334],[100.461782,16.613246],[100.461689,16.613188],[100.461582,16.61316],[100.461442,16.613188],[100.461297,16.613249],[100.461095,16.613447],[100.460916,16.613714],[100.460779,16.613894],[100.460554,16.61411],[100.460352,16.614241],[100.460152,16.614352],[100.459978,16.614376],[100.459828,16.614347],[100.459618,16.61426],[100.45939,16.614255],[100.459152,16.61428],[100.458825,16.614388],[100.458645,16.614419],[100.458424,16.614421],[100.45821,16.614383],[100.457945,16.614273],[100.457749,16.614247],[100.457185,16.614269],[100.456758,16.614313],[100.456662,16.614305],[100.456469,16.61427],[100.456338,16.614224],[100.456243,16.614151],[100.456191,16.614047],[100.456155,16.613896],[100.456134,16.613405],[100.45605,16.613035],[100.455912,16.612674],[100.455764,16.612242],[100.455649,16.611921],[100.455543,16.611642],[100.455428,16.611475],[100.455302,16.611339],[100.455181,16.611241],[100.455013,16.611142],[100.454765,16.611082],[100.454305,16.611044],[100.45387,16.61098],[100.453609,16.610936],[100.453419,16.610866],[100.453226,16.610738],[100.453094,16.610594],[100.452955,16.610329],[100.452743,16.609846],[100.452642,16.609641],[100.45258,16.609522],[100.452457,16.609368],[100.452261,16.609171],[100.451981,16.609016],[100.451394,16.608823],[100.450967,16.608656],[100.450369,16.608435],[100.449946,16.608248],[100.449353,16.608049],[100.448852,16.607862],[100.448599,16.607712],[100.448428,16.607551],[100.448148,16.607175],[100.447929,16.606842],[100.447786,16.606533],[100.447716,16.606373],[100.447631,16.606232],[100.447529,16.606119],[100.447396,16.605996],[100.447236,16.605913],[100.447116,16.605849],[100.446979,16.605808],[100.446746,16.605787],[100.446083,16.605826],[100.44574,16.605828],[100.445488,16.605805],[100.445255,16.605755],[100.444994,16.605674],[100.444793,16.60561],[100.444644,16.605518],[100.44446,16.60533],[100.444289,16.605132],[100.44416,16.60497],[100.443884,16.6047],[100.443686,16.604457],[100.443481,16.604225],[100.443268,16.603976],[100.443024,16.603755],[100.442734,16.603534],[100.442503,16.603331],[100.442371,16.603226],[100.442271,16.60311],[100.44219,16.602948],[100.44209,16.602732],[100.442065,16.602363],[100.44214,16.602009],[100.442199,16.601618],[100.442338,16.601279],[100.442472,16.60097],[100.442537,16.600631],[100.442483,16.599721],[100.44236,16.598935],[100.442289,16.598275],[100.442151,16.597644],[100.442119,16.597259],[100.442156,16.596966],[100.44225,16.596724],[100.442353,16.596398],[100.442366,16.596223],[100.442355,16.595899],[100.442294,16.59556],[100.442229,16.595275],[100.442227,16.595077],[100.442273,16.594812],[100.44231,16.594619],[100.442321,16.594475],[100.442289,16.594282],[100.442218,16.594043],[100.442094,16.593619],[100.441912,16.593182],[100.441862,16.593046],[100.441829,16.592889],[100.441817,16.592722],[100.441854,16.592591],[100.44194,16.592313],[100.441968,16.59213],[100.441966,16.591915],[100.441932,16.591781],[100.441885,16.591668],[100.441832,16.591598],[100.441749,16.591545],[100.441628,16.591485],[100.4415,16.591455],[100.441376,16.591467],[100.441199,16.591503],[100.441022,16.591621],[100.440693,16.591843],[100.440275,16.592087],[100.439848,16.592342],[100.43953,16.592529],[100.439085,16.592835],[100.438806,16.592966],[100.438447,16.593076],[100.438155,16.593195],[100.437935,16.593313],[100.437747,16.593465],[100.437575,16.593619],[100.437444,16.593796],[100.437187,16.594262],[100.437031,16.594439],[100.436798,16.594552],[100.436583,16.594598],[100.436398,16.594612],[100.436127,16.594694],[100.435858,16.594858],[100.435413,16.595192],[100.434968,16.595549],[100.434558,16.595894],[100.434316,16.596009],[100.433995,16.596182],[100.433689,16.596325],[100.433597,16.596392],[100.43353,16.596485],[100.433486,16.596658],[100.433493,16.596984],[100.433496,16.597269],[100.433455,16.597415],[100.433404,16.597482],[100.433279,16.597547],[100.433148,16.59756],[100.432967,16.597567],[100.43261,16.597503],[100.432138,16.597379],[100.431706,16.597176],[100.431436,16.597074],[100.431218,16.597022],[100.430892,16.597007],[100.430519,16.596966],[100.430237,16.596871],[100.430011,16.596719],[100.429807,16.5965],[100.429644,16.596243],[100.429502,16.596027],[100.42933,16.595752],[100.429145,16.595531],[100.428722,16.59518],[100.4283,16.594894],[100.427552,16.594583],[100.427013,16.594432],[100.426638,16.594277],[100.42627,16.594056],[100.426064,16.593946],[100.425838,16.593881],[100.425455,16.59382],[100.425176,16.593804],[100.424904,16.593747],[100.424739,16.593687],[100.424546,16.593559],[100.424354,16.593386],[100.424153,16.593166],[100.423969,16.592889],[100.423795,16.592555],[100.423609,16.592174],[100.423515,16.591953],[100.423462,16.591805],[100.42341,16.591627],[100.423395,16.591388],[100.423375,16.591204],[100.423378,16.591095],[100.423398,16.590961],[100.423442,16.590817],[100.423481,16.590632],[100.423485,16.590501],[100.423461,16.590416],[100.423402,16.590321],[100.423107,16.589989],[100.422777,16.589601],[100.422609,16.589357],[100.422445,16.589105],[100.422321,16.588845],[100.42216,16.588462],[100.422081,16.588203],[100.421939,16.587735],[100.421861,16.587486],[100.421785,16.587329],[100.421594,16.587097],[100.421477,16.586913],[100.42138,16.586694],[100.421356,16.586565],[100.421386,16.586412],[100.421477,16.58627],[100.421743,16.586057],[100.422107,16.585714],[100.422209,16.585566],[100.422257,16.585455],[100.422255,16.585347],[100.422201,16.58518],[100.422126,16.585031],[100.422021,16.584923],[100.42185,16.584779],[100.421695,16.584707],[100.42153,16.584637],[100.421267,16.584591],[100.420911,16.584566],[100.420418,16.584563],[100.419946,16.584574],[100.419568,16.584563],[100.419372,16.584535],[100.419261,16.584504],[100.419138,16.584432],[100.419041,16.584326],[100.418963,16.584213],[100.418931,16.584054],[100.418929,16.583795],[100.418967,16.583476],[100.419073,16.582776],[100.419121,16.582385],[100.419207,16.582134],[100.419229,16.581923],[100.419207,16.581794],[100.419173,16.581676],[100.419087,16.581555],[100.418923,16.581401],[100.418709,16.581101],[100.418483,16.580771],[100.418436,16.580633],[100.418441,16.580466],[100.418472,16.580275],[100.41854,16.580142],[100.418724,16.579866],[100.418907,16.579604],[100.41895,16.579501],[100.418931,16.579401],[100.41887,16.579314],[100.418784,16.579229],[100.418657,16.579172],[100.418354,16.579116],[100.418102,16.579069],[100.41798,16.579021],[100.417913,16.578967],[100.417888,16.578892],[100.41791,16.578789],[100.41795,16.578679],[100.418086,16.578524],[100.418285,16.578347],[100.418704,16.578119],[100.4191,16.577887],[100.419256,16.577733],[100.419438,16.577383],[100.419567,16.57691],[100.419567,16.576401],[100.419556,16.575943],[100.419642,16.575608]]}},{"type":"Feature","properties":{"osm_id":400418632,"waterway":"dam","name":null,"intermittent":null},"geometry":{"type":"LineString","coordinates":[[100.4233,16.591706],[100.423556,16.591667],[100.423567,16.591734],[100.423311,16.591773],[100.4233,16.591706]]}},{"type":"Feature","properties":{"osm_id":405640857,"waterway":"canal","name":null,"intermittent":null},"geometry":{"type":"LineString","coordinates":[[100.309178,16.595845],[100.309994,16.594396],[100.310884,16.592976],[100.311297,16.592236],[100.311549,16.591783],[100.311833,16.591609],[100.312102,16.591583],[100.312387,16.591619],[100.31266,16.591738],[100.313019,16.592005],[100.313341,16.592339],[100.313818,16.59293],[100.314553,16.593871],[100.314933,16.594359],[100.315342,16.594807],[100.316136,16.595537],[100.317107,16.596421],[100.318104,16.597269],[100.318683,16.597809],[100.319232,16.598431],[100.31966,16.598945],[100.320349,16.599722],[100.320642,16.599937],[100.321317,16.600343],[100.321667,16.600498],[100.321934,16.600595],[100.322327,16.600668],[100.322885,16.600662],[100.323373,16.600585],[100.323963,16.600359],[100.32475,16.59989],[100.32554,16.599331],[100.326178,16.598796],[100.326838,16.598251],[100.327224,16.598066],[100.327433,16.597968],[100.327728,16.597948],[100.328001,16.597953],[100.32811,16.597989],[100.328206,16.598107],[100.32833,16.598534],[100.328339,16.598842],[100.328382,16.599068],[100.328543,16.599361],[100.328624,16.599736],[100.328731,16.599952],[100.328758,16.600168],[100.328727,16.600606],[100.328752,16.601258],[100.32886,16.601834],[100.328886,16.602045],[100.328902,16.602317],[100.328983,16.602718],[100.329058,16.603083],[100.329187,16.603427],[100.329267,16.603787],[100.329385,16.603977],[100.329482,16.604157],[100.329589,16.604466],[100.329675,16.60461],[100.329928,16.60495],[100.330159,16.605207],[100.330341,16.605284],[100.33056,16.605304],[100.330952,16.605345],[100.331312,16.605446]]}},{"type":"Feature","properties":{"osm_id":407600006,"waterway":"canal","name":null,"intermittent":null},"geometry":{"type":"LineString","coordinates":[[100.339701,16.58006],[100.339581,16.580199],[100.339421,16.580301],[100.339259,16.580382],[100.339067,16.580467],[100.338926,16.580559],[100.338685,16.580732],[100.338579,16.580817],[100.338494,16.580925],[100.338409,16.581095],[100.338264,16.581254],[100.337949,16.581668],[100.337804,16.581905],[100.33773,16.582089],[100.337616,16.582299],[100.337379,16.582635],[100.337121,16.582923],[100.336855,16.583143],[100.336668,16.583263],[100.336489,16.58336],[100.336285,16.583461],[100.336087,16.583548],[100.335939,16.583618],[100.335831,16.583691],[100.335757,16.583773],[100.335682,16.583907],[100.335619,16.584061],[100.335605,16.58423],[100.335616,16.584357],[100.335643,16.58448],[100.335694,16.584596],[100.33578,16.584719],[100.335953,16.584903],[100.336069,16.585011],[100.336276,16.585177],[100.336531,16.585374],[100.336761,16.585557],[100.336987,16.585771],[100.337205,16.585997],[100.337574,16.586329],[100.337688,16.586449],[100.337775,16.586593],[100.33786,16.58678],[100.337939,16.587088],[100.338006,16.587332],[100.338073,16.587519],[100.338145,16.587657],[100.338294,16.587847]]}},{"type":"Feature","properties":{"osm_id":407602581,"waterway":"river","name":null,"intermittent":null},"geometry":{"type":"LineString","coordinates":[[100.369265,16.598344],[100.369268,16.598116],[100.36925,16.597873],[100.369219,16.59769],[100.369189,16.597585],[100.369124,16.597468],[100.369038,16.597301],[100.368916,16.597207],[100.368762,16.597106],[100.368615,16.597024],[100.368477,16.596876],[100.36818,16.596673],[100.368018,16.596619],[100.367936,16.596631],[100.367851,16.596708],[100.367798,16.596798],[100.367725,16.596833],[100.367648,16.596837],[100.36753,16.596802],[100.367164,16.59672],[100.366908,16.59665],[100.366802,16.596654],[100.366709,16.596701],[100.366603,16.596786],[100.366452,16.596853],[100.366314,16.596864],[100.36607,16.596822],[100.365989,16.596841],[100.36592,16.596888],[100.365855,16.596993],[100.36579,16.597036],[100.36568,16.597059],[100.365412,16.597044],[100.36516,16.597102],[100.364761,16.597258],[100.364554,16.597336],[100.364383,16.597468],[100.364229,16.597644],[100.364074,16.59776],[100.363916,16.597811],[100.36357,16.597858],[100.363407,16.597862],[100.363298,16.597835],[100.363164,16.597749],[100.363017,16.597745],[100.362863,16.597776],[100.362607,16.597831],[100.362363,16.597819],[100.362241,16.597788],[100.362163,16.597733],[100.362042,16.597605],[100.361911,16.597414],[100.361855,16.597277],[100.36183,16.596985],[100.361867,16.596829],[100.361915,16.596751],[100.362025,16.596681],[100.362103,16.596631],[100.362163,16.59651],[100.362216,16.596311],[100.362334,16.596144],[100.362533,16.595999],[100.362842,16.595793],[100.36307,16.595586],[100.363196,16.595372],[100.363269,16.595064],[100.363302,16.594679],[100.363265,16.594367],[100.363168,16.594098],[100.362993,16.593841],[100.36279,16.593716],[100.362529,16.59365],[100.362269,16.593646],[100.362046,16.593705],[100.361871,16.593814],[100.361696,16.594012],[100.361582,16.594266],[100.361501,16.594531],[100.36144,16.594854],[100.361342,16.595084],[100.361196,16.595244],[100.361025,16.595361],[100.360562,16.595544],[100.360232,16.595622],[100.359875,16.595703],[100.359574,16.595824],[100.359371,16.595997],[100.359043,16.596416],[100.358506,16.596926],[100.358105,16.597079],[100.35776,16.597085],[100.357353,16.596926],[100.356628,16.596404],[100.356288,16.596306],[100.355966,16.596382],[100.355665,16.59661],[100.355241,16.597017],[100.353962,16.597535],[100.353555,16.597744],[100.35327,16.597969],[100.352964,16.598125],[100.352666,16.598204],[100.352211,16.598232],[100.351946,16.598201],[100.351741,16.598073],[100.3515,16.597843],[100.351422,16.597477],[100.351484,16.596866],[100.351435,16.5966],[100.351314,16.596354],[100.349978,16.594667]]}},{"type":"Feature","properties":{"osm_id":407670822,"waterway":"river","name":null,"intermittent":null},"geometry":{"type":"LineString","coordinates":[[100.286247,16.564745],[100.286788,16.564572],[100.287174,16.564383],[100.28756,16.564317],[100.28799,16.56426],[100.288299,16.564136],[100.288548,16.563955],[100.288702,16.563717],[100.288848,16.563379],[100.288934,16.563014],[100.289071,16.561574],[100.289148,16.560944],[100.289363,16.560077],[100.289499,16.559339],[100.289608,16.558492],[100.289641,16.557855],[100.289694,16.557495],[100.289812,16.557104],[100.290124,16.556693],[100.290445,16.556405],[100.290574,16.556168],[100.290585,16.555921],[100.290467,16.555675],[100.290241,16.555366],[100.289812,16.555058],[100.289566,16.554842],[100.289405,16.554667],[100.28933,16.55443],[100.28934,16.553803],[100.289394,16.553268],[100.289358,16.552934],[100.28923,16.552616],[100.288924,16.5522],[100.28846,16.551839],[100.288203,16.551602],[100.288117,16.551355],[100.287956,16.551098],[100.287752,16.551006],[100.287527,16.550954],[100.287366,16.550841],[100.287274,16.550617],[100.287312,16.550389],[100.287431,16.550255],[100.287603,16.550211],[100.287897,16.55025],[100.288074,16.550162],[100.288214,16.550018],[100.288321,16.549864],[100.288528,16.549778],[100.288894,16.549816],[100.289208,16.549967],[100.289372,16.549998],[100.289654,16.549953],[100.290066,16.549969],[100.290307,16.55001],[100.290453,16.550127],[100.290515,16.550333],[100.2906,16.550621],[100.290773,16.550743],[100.291157,16.550844],[100.291816,16.551089],[100.29199,16.551104],[100.292108,16.551057],[100.292521,16.550794],[100.292655,16.550743],[100.292816,16.550734],[100.292961,16.550815],[100.293288,16.551165],[100.293508,16.551278],[100.293889,16.551428],[100.294254,16.55153],[100.294549,16.551514],[100.295616,16.551504],[100.296297,16.551442],[100.296641,16.551484],[100.296796,16.551474],[100.296909,16.551433],[100.296989,16.551293],[100.29714,16.551052],[100.297311,16.550877],[100.297488,16.550759],[100.297703,16.550703],[100.297977,16.550589],[100.298234,16.550404],[100.298486,16.550249],[100.298733,16.550039],[100.298808,16.54992],[100.298851,16.549751],[100.298808,16.549576],[100.298749,16.549272],[100.298749,16.549113],[100.298824,16.548908],[100.299044,16.548394],[100.299253,16.547971],[100.299441,16.54775],[100.299661,16.547617],[100.299892,16.547596],[100.300128,16.547617],[100.300417,16.5477],[100.300798,16.547936],[100.301104,16.548245],[100.301479,16.54863],[100.301657,16.548924],[100.301791,16.549622],[100.301909,16.550003],[100.302053,16.550178],[100.302225,16.550271],[100.302386,16.550301],[100.302708,16.550266],[100.303008,16.550162],[100.303368,16.549951],[100.303539,16.549818],[100.3037,16.549627],[100.30391,16.549314],[100.304178,16.548784],[100.304366,16.548317],[100.304707,16.547598],[100.30495,16.547287],[100.305165,16.547159],[100.305514,16.547],[100.305979,16.54683],[100.306547,16.546714],[100.307306,16.546637],[100.30789,16.546666],[100.308371,16.546769],[100.308739,16.54703],[100.308991,16.547408],[100.309098,16.54769],[100.309142,16.547931],[100.309174,16.54822],[100.309124,16.548702],[100.309076,16.549519],[100.308898,16.55065],[100.308807,16.551669],[100.308834,16.552538],[100.308925,16.552743],[100.309065,16.552857],[100.309328,16.552939],[100.309837,16.553048],[100.310095,16.553017],[100.310717,16.552892],[100.3112,16.552666],[100.3116,16.55236],[100.311868,16.552081],[100.312053,16.551752],[100.312375,16.551086],[100.31256,16.550744],[100.312747,16.5505],[100.312967,16.550363],[100.313228,16.550268],[100.313472,16.550224],[100.31381,16.550224],[100.31433,16.550275],[100.315253,16.550433],[100.315851,16.550649],[100.316243,16.550815],[100.316604,16.551029],[100.316905,16.551262],[100.317111,16.551561],[100.317283,16.55199],[100.317474,16.552743],[100.317651,16.553201],[100.317828,16.553571],[100.317871,16.553831],[100.317844,16.554081],[100.317734,16.554408],[100.317519,16.554696],[100.317299,16.555003],[100.317173,16.555232],[100.317007,16.555662],[100.316988,16.556032],[100.317074,16.556438],[100.317213,16.556873],[100.31739,16.557351],[100.317578,16.557834],[100.317715,16.558127],[100.317895,16.558399],[100.318195,16.55869],[100.318421,16.559054],[100.318516,16.559351],[100.318546,16.559603],[100.318519,16.559737],[100.318418,16.559876],[100.318276,16.559914],[100.318077,16.559916],[100.317651,16.559852],[100.317361,16.55985],[100.31702,16.559896],[100.316492,16.560002],[100.315953,16.560185],[100.315411,16.560365],[100.314933,16.560477],[100.314236,16.560545],[100.313654,16.560662],[100.313308,16.560768],[100.312731,16.560929],[100.312396,16.561103],[100.312042,16.561328],[100.311624,16.561634],[100.311296,16.561964],[100.311012,16.562362],[100.310768,16.562601],[100.310567,16.562778],[100.310178,16.563066],[100.309685,16.563333],[100.309129,16.563596],[100.308571,16.563887],[100.308115,16.56413],[100.307882,16.564346],[100.307777,16.564544],[100.307716,16.564766],[100.307692,16.564927],[100.307726,16.565061],[100.307812,16.565346],[100.30789,16.565493],[100.308158,16.565711],[100.308507,16.565868],[100.308799,16.565966],[100.30907,16.56602],[100.309341,16.566041],[100.309644,16.566008],[100.310312,16.565882],[100.310864,16.565797],[100.311422,16.565738],[100.311747,16.565617],[100.311978,16.565465],[100.31223,16.565228],[100.312546,16.565013],[100.31278,16.564905],[100.312967,16.564873],[100.313139,16.564897],[100.313292,16.564974],[100.313402,16.565082],[100.313456,16.565229],[100.313504,16.565521],[100.313464,16.565794],[100.313362,16.56621],[100.313233,16.56645],[100.312847,16.567123],[100.312627,16.567455],[100.312453,16.56776],[100.312332,16.568058],[100.312192,16.568483],[100.312018,16.568825],[100.31176,16.569232],[100.311583,16.569395],[100.311345,16.569537],[100.310867,16.569804],[100.310377,16.57012],[100.309993,16.570409],[100.309588,16.570763],[100.309306,16.571023],[100.309094,16.571218],[100.309006,16.571323],[100.308974,16.571455],[100.308963,16.571573],[100.308992,16.571874],[100.30906,16.572108],[100.30918,16.572354],[100.309322,16.572599],[100.309494,16.572833],[100.30977,16.573108],[100.310162,16.573475],[100.310658,16.573877],[100.310975,16.574134],[100.311292,16.574302],[100.3117,16.574379],[100.312254,16.574452],[100.31323,16.574593],[100.313617,16.574601],[100.313895,16.574571],[100.314164,16.574589],[100.314429,16.574665],[100.314872,16.574843],[100.315194,16.574917],[100.315513,16.574959],[100.31584,16.574952],[100.316087,16.574918],[100.316505,16.574784],[100.317262,16.574591],[100.31805,16.574367],[100.318793,16.574133],[100.319083,16.574101],[100.319517,16.574096],[100.319939,16.574159],[100.320582,16.574327],[100.321054,16.574465],[100.3214,16.574641],[100.321848,16.574935],[100.32235,16.575301],[100.322671,16.575556],[100.32287,16.57582],[100.323206,16.576403],[100.323656,16.577128],[100.324045,16.577749],[100.324227,16.578005],[100.324477,16.57825],[100.324844,16.578558],[100.325115,16.578749],[100.325496,16.578898],[100.326113,16.579093],[100.327164,16.579421],[100.327594,16.579511],[100.327939,16.579543],[100.32894,16.579515],[100.329112,16.579484],[100.329267,16.579409],[100.329436,16.579254],[100.329704,16.579044],[100.330037,16.578831],[100.330345,16.578661],[100.33049,16.578612],[100.330595,16.578612],[100.330646,16.578633],[100.330708,16.578704],[100.330902,16.578947],[100.331069,16.579469]]}},{"type":"Feature","properties":{"osm_id":407690522,"waterway":"drain","name":null,"intermittent":null},"geometry":{"type":"LineString","coordinates":[[100.335875,16.576811],[100.335646,16.577013],[100.335463,16.577167],[100.335289,16.577288],[100.335167,16.577362],[100.335032,16.577418],[100.334904,16.577456],[100.334708,16.577512],[100.334525,16.577539],[100.334328,16.57756],[100.334148,16.57757],[100.33403,16.577601],[100.333963,16.577638],[100.333884,16.57771],[100.333755,16.577858],[100.333367,16.578292],[100.33329,16.578374],[100.333204,16.578446],[100.333079,16.57853],[100.332918,16.578631],[100.332535,16.578869],[100.332401,16.578913],[100.332273,16.578934],[100.332127,16.578913],[100.331922,16.578828],[100.331543,16.578703],[100.331216,16.578625]]}},{"type":"Feature","properties":{"osm_id":407690523,"waterway":"drain","name":null,"intermittent":null},"geometry":{"type":"LineString","coordinates":[[100.338849,16.596767],[100.338731,16.596644],[100.338671,16.596492],[100.338697,16.596352],[100.338697,16.596212],[100.338628,16.59613],[100.338495,16.59608],[100.338028,16.595954],[100.337857,16.595823],[100.337736,16.595694],[100.337727,16.595591],[100.337745,16.59551],[100.337839,16.595385],[100.337968,16.595181],[100.338109,16.594937],[100.33832,16.594535],[100.338401,16.594332],[100.338453,16.594124],[100.338535,16.59384],[100.338594,16.593637],[100.338684,16.593456],[100.33877,16.593292],[100.338813,16.593168],[100.338814,16.593087],[100.338774,16.593008],[100.338677,16.592882],[100.338538,16.592683],[100.338444,16.592449],[100.338367,16.592243],[100.338295,16.591965],[100.338268,16.591758],[100.338208,16.591573],[100.338097,16.591348],[100.337963,16.5911],[100.337903,16.590902],[100.33786,16.590692],[100.337851,16.590433],[100.33786,16.590092],[100.337894,16.589771],[100.337942,16.589516],[100.338059,16.589127],[100.33813,16.588879],[100.338161,16.588677],[100.338183,16.588465],[100.338226,16.588296],[100.338273,16.588173],[100.338328,16.588089],[100.338397,16.588048],[100.338569,16.588008],[100.33904,16.587908],[100.339127,16.587885],[100.339213,16.587844],[100.339572,16.58767],[100.339895,16.587494],[100.340067,16.587391],[100.340191,16.587342],[100.340315,16.587328],[100.340469,16.587316],[100.340667,16.587291],[100.34122,16.587184],[100.34137,16.587172],[100.341474,16.587192],[100.341564,16.587234],[100.341619,16.587316],[100.341671,16.587456],[100.341804,16.588036],[100.341847,16.588192],[100.341907,16.588324],[100.341994,16.588428],[100.342212,16.588591],[100.342316,16.588637],[100.342379,16.588644],[100.342469,16.588632],[100.342555,16.588583],[100.342684,16.588513],[100.342748,16.588488],[100.342812,16.588488],[100.342891,16.588543],[100.343006,16.588714],[100.343191,16.589115],[100.343323,16.589463],[100.343696,16.590063],[100.343855,16.590326],[100.34392,16.590401],[100.344011,16.590426],[100.344096,16.590421],[100.344323,16.590363],[100.34444,16.590307],[100.344628,16.590145],[100.344847,16.589956],[100.344981,16.589818],[100.345148,16.589715],[100.345302,16.58966],[100.345486,16.589652],[100.345602,16.589685],[100.345752,16.589767],[100.345835,16.589871],[100.345872,16.590014],[100.345852,16.590163],[100.345864,16.590294],[100.34592,16.590425],[100.345962,16.59052],[100.345967,16.590623],[100.345937,16.590816],[100.345945,16.590968],[100.346001,16.591124],[100.346057,16.591178],[100.346173,16.591219],[100.34623,16.59129],[100.346267,16.591396],[100.346301,16.591527],[100.346289,16.591762],[100.346289,16.591955],[100.346327,16.592153],[100.346349,16.592272],[100.346349,16.592342],[100.34631,16.592436],[100.3462,16.592623],[100.346097,16.592812],[100.346048,16.592971],[100.346027,16.593103]]}},{"type":"Feature","properties":{"osm_id":407690524,"waterway":"drain","name":null,"intermittent":null},"geometry":{"type":"LineString","coordinates":[[100.335519,16.575865],[100.33553,16.576058],[100.335551,16.576194],[100.335588,16.576303],[100.335671,16.576457],[100.335779,16.576646],[100.335875,16.576811],[100.335976,16.576936],[100.33609,16.577105],[100.336154,16.577235],[100.33621,16.577307],[100.336285,16.577352],[100.336377,16.577383],[100.33651,16.577407],[100.336792,16.577442],[100.336985,16.577453],[100.337126,16.577484],[100.337274,16.577545],[100.337476,16.577582],[100.337656,16.577605],[100.33777,16.577644],[100.337957,16.577757],[100.33809,16.577819],[100.338285,16.577922],[100.338369,16.577988],[100.338522,16.578198],[100.338702,16.57838],[100.338857,16.578643],[100.339131,16.57912],[100.33944,16.579597],[100.339612,16.58],[100.339701,16.58006],[100.339955,16.580123],[100.340144,16.580132],[100.340488,16.580041],[100.340874,16.579819],[100.34101,16.579678],[100.34114,16.5794],[100.341311,16.578559],[100.341482,16.577984],[100.341577,16.57763],[100.341654,16.577013],[100.341662,16.57661],[100.341654,16.576379],[100.34144,16.575829],[100.34126,16.575402],[100.34119,16.575088],[100.341216,16.574783],[100.341268,16.57443],[100.341431,16.574158],[100.34174,16.573837],[100.341959,16.573701],[100.342264,16.573608],[100.343129,16.573502]]}},{"type":"Feature","properties":{"osm_id":407692780,"waterway":"drain","name":null,"intermittent":null},"geometry":{"type":"LineString","coordinates":[[100.383071,16.57788],[100.383088,16.577572],[100.383131,16.57741],[100.383213,16.577284],[100.383368,16.57712],[100.383561,16.57693],[100.383715,16.576807],[100.383872,16.576793],[100.384044,16.576802],[100.384187,16.576805],[100.384308,16.576764],[100.384426,16.576646],[100.384463,16.576533],[100.384497,16.57643],[100.384496,16.576194],[100.38447,16.576013],[100.384389,16.57589],[100.38427,16.57578],[100.384058,16.575585],[100.383904,16.575371],[100.383827,16.575226],[100.383751,16.574982],[100.383698,16.574549],[100.383699,16.574414],[100.383776,16.57413],[100.383844,16.573866],[100.383878,16.57357],[100.383927,16.573203],[100.383958,16.573083],[100.384026,16.572978],[100.384153,16.572845],[100.38424,16.572712],[100.384307,16.572575],[100.384337,16.572443],[100.384329,16.572291],[100.384299,16.572143],[100.384192,16.571856],[100.384025,16.571539],[100.383883,16.571272],[100.383621,16.57088],[100.383483,16.57067],[100.383415,16.570522],[100.383393,16.570329],[100.383376,16.570102],[100.383415,16.569794],[100.383428,16.569629],[100.383415,16.569485],[100.383299,16.569086],[100.383256,16.568868],[100.383277,16.568671],[100.383359,16.568482],[100.383496,16.568334],[100.383707,16.568148],[100.383991,16.567965],[100.384519,16.567673],[100.384931,16.567471],[100.38517,16.567359],[100.385276,16.56728],[100.385346,16.567169],[100.385386,16.567054],[100.385406,16.566902],[100.385407,16.56678],[100.385342,16.566668],[100.38526,16.566606],[100.385075,16.566565],[100.384725,16.566492],[100.384608,16.566437],[100.384561,16.566372],[100.38453,16.566289],[100.384539,16.566191],[100.384625,16.565857],[100.384711,16.565607],[100.384702,16.565504],[100.384646,16.565442],[100.384561,16.565442],[100.384467,16.565484],[100.384171,16.565661],[100.383999,16.565756],[100.383848,16.565812],[100.383694,16.565833],[100.383578,16.565825],[100.383484,16.565793],[100.383174,16.565598],[100.382698,16.565339],[100.382634,16.565265],[100.382608,16.565183],[100.382629,16.565096],[100.382724,16.564891],[100.382801,16.564747],[100.382823,16.564648],[100.382797,16.56443],[100.382768,16.564283],[100.382792,16.564159],[100.382858,16.56409],[100.382957,16.564041],[100.383084,16.564027],[100.383313,16.564069],[100.383497,16.564131],[100.383626,16.564139],[100.383728,16.564093],[100.3838,16.564011],[100.383848,16.563842],[100.383865,16.563661],[100.383818,16.563081],[100.383835,16.562957],[100.383882,16.562785],[100.383968,16.5626],[100.384101,16.562365],[100.384174,16.562225],[100.384175,16.562095],[100.384124,16.561996],[100.383974,16.561869],[100.383818,16.561826],[100.383668,16.561834],[100.383509,16.561892],[100.383381,16.561959],[100.383128,16.562161],[100.382981,16.562283],[100.382849,16.562342],[100.382725,16.562362],[100.38257,16.562354],[100.38242,16.562305],[100.38214,16.562143],[100.382003,16.562102],[100.381797,16.562114],[100.381552,16.562155],[100.381277,16.562258],[100.381106,16.562344],[100.381007,16.562452],[100.380865,16.562628],[100.38078,16.562711],[100.380651,16.562731],[100.380575,16.562712],[100.380488,16.562608],[100.380449,16.562476],[100.380445,16.562238],[100.380436,16.56188],[100.380402,16.561658],[100.380333,16.561464],[100.380162,16.561197],[100.379879,16.560876],[100.379836,16.560818],[100.379819,16.560729],[100.379845,16.560643],[100.379964,16.560448],[100.380236,16.560046],[100.38027,16.559964],[100.380279,16.559902],[100.380247,16.559848],[100.380167,16.559804],[100.380042,16.559782],[100.379797,16.559757]]}},{"type":"Feature","properties":{"osm_id":411376555,"waterway":"river","name":null,"intermittent":null},"geometry":{"type":"LineString","coordinates":[[100.392722,16.661977],[100.390727,16.662362],[100.387176,16.662969],[100.385406,16.663349],[100.38502,16.663421],[100.384665,16.663354],[100.38444,16.663205],[100.384117,16.66282],[100.383688,16.662614],[100.382937,16.662275],[100.382584,16.662074],[100.382112,16.661602],[100.381822,16.661401],[100.381489,16.661257],[100.381167,16.660815],[100.380599,16.659885],[100.380347,16.659319],[100.380063,16.658683],[100.379516,16.657953],[100.379043,16.65694],[100.378765,16.655599],[100.378475,16.654612],[100.378319,16.653944],[100.378086,16.653571],[100.376553,16.652546],[100.376321,16.652281],[100.376353,16.651917],[100.377065,16.651031],[100.377191,16.65067],[100.377102,16.650202],[100.376873,16.649584],[100.376638,16.648765],[100.376583,16.64756],[100.376842,16.645735],[100.377046,16.645252],[100.377305,16.644807],[100.377315,16.644566],[100.377424,16.644282],[100.377552,16.643456],[100.377618,16.642423],[100.377844,16.641677],[100.377675,16.64089],[100.377248,16.640318],[100.376733,16.63993],[100.376165,16.639813],[100.375733,16.639762],[100.375549,16.639662],[100.375436,16.639454],[100.375467,16.639008],[100.37522,16.638549],[100.374948,16.638135],[100.374461,16.637798],[100.374237,16.637536],[100.374237,16.637242],[100.374374,16.636683],[100.374315,16.635668],[100.373915,16.634928],[100.373644,16.634441],[100.373311,16.634287],[100.37308,16.634369],[100.373027,16.63476],[100.372818,16.63498],[100.372486,16.635052],[100.372245,16.634928],[100.372133,16.634627],[100.372175,16.634276],[100.372585,16.633115],[100.372634,16.632808],[100.372493,16.632522],[100.372185,16.632382],[100.371912,16.63242],[100.371661,16.63256],[100.371484,16.632391],[100.371546,16.632124],[100.372046,16.631615],[100.372155,16.631335],[100.372053,16.630446],[100.372212,16.629695],[100.372468,16.628831],[100.372438,16.628167],[100.372115,16.627429],[100.371652,16.627095],[100.371014,16.627016],[100.370674,16.626682],[100.370627,16.625913],[100.370316,16.625264],[100.370239,16.624492],[100.370016,16.624116],[100.369386,16.623956],[100.369146,16.623784],[100.369019,16.622511],[100.369007,16.622161],[100.368729,16.621851],[100.368567,16.621569],[100.368506,16.62127],[100.368568,16.620939],[100.368954,16.62033],[100.368841,16.619271],[100.369107,16.61854],[100.370269,16.616535],[100.370514,16.615792],[100.370523,16.614744],[100.370412,16.613703],[100.370124,16.61257],[100.369743,16.611102],[100.36963,16.609989],[100.369784,16.60858],[100.370159,16.606588],[100.370186,16.605471],[100.370037,16.604562],[100.369645,16.603614],[100.369245,16.602192],[100.369085,16.601044],[100.369146,16.599726],[100.369265,16.598344]]}},{"type":"Feature","properties":{"osm_id":425115478,"waterway":"canal","name":null,"intermittent":null},"geometry":{"type":"LineString","coordinates":[[100.296233,16.632974],[100.29686,16.633643],[100.297719,16.634701],[100.298126,16.63538],[100.298416,16.636007],[100.298502,16.63648],[100.298481,16.636932],[100.298298,16.637333],[100.298126,16.637498],[100.298013,16.637562],[100.297874,16.637582],[100.297659,16.637552],[100.297397,16.637446],[100.297064,16.637282],[100.296758,16.637253],[100.296404,16.637305],[100.296125,16.637449],[100.295846,16.637716],[100.295717,16.638086],[100.295734,16.638454],[100.29582,16.638741],[100.296013,16.639091],[100.296378,16.63942],[100.296844,16.639669],[100.297123,16.640069],[100.297238,16.640268],[100.297441,16.640383],[100.297708,16.640479],[100.29811,16.640522],[100.298481,16.640438],[100.299236,16.640091],[100.300144,16.639523],[100.300798,16.63906],[100.30135,16.638703],[100.301742,16.638474],[100.302289,16.638227],[100.302836,16.638012],[100.303249,16.637767],[100.303523,16.637456],[100.303657,16.637151],[100.303673,16.636922],[100.303609,16.636727],[100.3035,16.636307],[100.30319,16.635791],[100.3029,16.635386],[100.302515,16.63501],[100.30216,16.634506]]}},{"type":"Feature","properties":{"osm_id":788382173,"waterway":"canal","name":null,"intermittent":null},"geometry":{"type":"LineString","coordinates":[[100.368915,16.67209],[100.36846,16.672224],[100.367987,16.672234],[100.367832,16.672255],[100.367703,16.672389],[100.367682,16.672553],[100.367719,16.672892],[100.367907,16.67317],[100.368213,16.673314],[100.368508,16.673314],[100.368765,16.673262],[100.369071,16.673021],[100.369221,16.672939],[100.369382,16.672939],[100.369715,16.673041],[100.370021,16.673298],[100.370214,16.673591],[100.370339,16.674086]]}},{"type":"Feature","properties":{"osm_id":788392759,"waterway":"canal","name":null,"intermittent":null},"geometry":{"type":"LineString","coordinates":[[100.375052,16.669948],[100.375186,16.669839],[100.376082,16.669752],[100.37707,16.669511],[100.377408,16.6693],[100.377858,16.668807],[100.377896,16.668694]]}},{"type":"Feature","properties":{"osm_id":788392761,"waterway":"canal","name":null,"intermittent":null},"geometry":{"type":"LineString","coordinates":[[100.378057,16.668575],[100.378674,16.668452],[100.379736,16.66799],[100.381125,16.667209],[100.382261,16.666524],[100.382529,16.666442],[100.38283,16.666411],[100.383876,16.666581],[100.384177,16.666576],[100.384725,16.66633],[100.385716,16.666298],[100.386291,16.666525],[100.386451,16.666735],[100.386419,16.666961],[100.386151,16.667635],[100.386044,16.668093],[100.385937,16.668653],[100.385728,16.668982],[100.385502,16.669023],[100.385331,16.668966],[100.385245,16.668833],[100.385121,16.668791],[100.384585,16.668796],[100.38436,16.668683],[100.384172,16.668637],[100.384065,16.66873],[100.384101,16.66896],[100.384027,16.66911],[100.38377,16.669408],[100.383673,16.669722],[100.383791,16.670004],[100.38379,16.670193],[100.383736,16.670461],[100.38377,16.670559],[100.384139,16.670743],[100.384183,16.670811],[100.384096,16.671031],[100.384172,16.671124],[100.384423,16.671268],[100.384483,16.671571],[100.38444,16.671649],[100.384301,16.6717],[100.384215,16.671818],[100.384215,16.672044]]}},{"type":"Feature","properties":{"osm_id":788392764,"waterway":"canal","name":null,"intermittent":null},"geometry":{"type":"LineString","coordinates":[[100.369152,16.672008],[100.370659,16.671556],[100.370997,16.67134],[100.372074,16.671052]]}},{"type":"Feature","properties":{"osm_id":788392765,"waterway":"canal","name":null,"intermittent":null},"geometry":{"type":"LineString","coordinates":[[100.377896,16.668694],[100.378057,16.668575]]}},{"type":"Feature","properties":{"osm_id":788392767,"waterway":"canal","name":null,"intermittent":null},"geometry":{"type":"LineString","coordinates":[[100.372074,16.671052],[100.372279,16.671052]]}},{"type":"Feature","properties":{"osm_id":788392770,"waterway":"canal","name":null,"intermittent":null},"geometry":{"type":"LineString","coordinates":[[100.372279,16.671052],[100.372445,16.671063],[100.372612,16.671155],[100.373304,16.671633],[100.373545,16.67171],[100.37377,16.671638],[100.374151,16.671376],[100.374232,16.671263],[100.374484,16.670693],[100.375014,16.670096]]}},{"type":"Feature","properties":{"osm_id":788392771,"waterway":"canal","name":null,"intermittent":null},"geometry":{"type":"LineString","coordinates":[[100.375014,16.670096],[100.375052,16.669948]]}},{"type":"Feature","properties":{"osm_id":788400365,"waterway":"canal","name":null,"intermittent":null},"geometry":{"type":"LineString","coordinates":[[100.364592,16.661273],[100.364903,16.662049],[100.365118,16.662342],[100.365316,16.662491],[100.365515,16.662733],[100.365617,16.663015],[100.365751,16.663709],[100.365702,16.663868],[100.365536,16.664022],[100.365086,16.664115],[100.364898,16.664084],[100.364742,16.66393],[100.364624,16.663848],[100.364399,16.663806],[100.363954,16.66392],[100.363519,16.664074],[100.363251,16.664269],[100.363085,16.664536],[100.36302,16.664865],[100.363128,16.665461],[100.363074,16.665708],[100.363165,16.665996],[100.363133,16.666268],[100.362918,16.666854],[100.362736,16.667111],[100.362264,16.66743],[100.362028,16.667476],[100.361706,16.667424],[100.36154,16.66743],[100.361395,16.667527],[100.361384,16.667769],[100.361288,16.668144],[100.361073,16.668406],[100.360746,16.668571],[100.360333,16.66872],[100.360204,16.668827],[100.36015,16.668976],[100.359925,16.66948],[100.35971,16.669855],[100.35963,16.670169],[100.359673,16.670585],[100.359582,16.670693],[100.359142,16.670647],[100.35904,16.670739],[100.358879,16.671217],[100.358723,16.671366],[100.358439,16.671392],[100.357924,16.671392],[100.357364,16.671456],[100.35705,16.671541],[100.356465,16.671942],[100.355612,16.672563],[100.355054,16.673257],[100.354968,16.673504],[100.354936,16.67372],[100.354968,16.674049]]}},{"type":"Feature","properties":{"osm_id":788400370,"waterway":"canal","name":null,"intermittent":null},"geometry":{"type":"LineString","coordinates":[[100.372267,16.663785],[100.371925,16.663853]]}},{"type":"Feature","properties":{"osm_id":788400371,"waterway":"canal","name":null,"intermittent":null},"geometry":{"type":"LineString","coordinates":[[100.372267,16.663785],[100.372789,16.663385],[100.372869,16.663344],[100.373046,16.663447],[100.37317,16.663447],[100.373958,16.663252],[100.374613,16.663072],[100.374801,16.662948],[100.374999,16.662799],[100.37524,16.662789],[100.375594,16.662789],[100.37619,16.662614],[100.376394,16.662455],[100.376968,16.661838],[100.377247,16.661263],[100.377445,16.66099]]}},{"type":"Feature","properties":{"osm_id":788400372,"waterway":"canal","name":null,"intermittent":null},"geometry":{"type":"LineString","coordinates":[[100.377445,16.66099],[100.377628,16.660733]]}},{"type":"Feature","properties":{"osm_id":788400374,"waterway":"canal","name":null,"intermittent":null},"geometry":{"type":"LineString","coordinates":[[100.377628,16.660733],[100.377751,16.660487],[100.377686,16.660255],[100.377633,16.660117],[100.37745,16.659942],[100.37737,16.65968],[100.37737,16.659351],[100.377461,16.659248],[100.377558,16.659233],[100.377949,16.659382],[100.378035,16.659366],[100.378207,16.659212],[100.378314,16.659197],[100.379071,16.65949],[100.379929,16.659397],[100.380143,16.659407],[100.380347,16.659319]]}},{"type":"Feature","properties":{"osm_id":788400375,"waterway":"canal","name":null,"intermittent":null},"geometry":{"type":"LineString","coordinates":[[100.365316,16.662491],[100.365509,16.66226],[100.365718,16.662095],[100.365853,16.661849],[100.365965,16.661345],[100.365965,16.660898],[100.366051,16.660718],[100.36618,16.660672],[100.366389,16.660651],[100.367677,16.661263],[100.368369,16.661895],[100.36846,16.662039],[100.368479,16.66218],[100.368361,16.662498],[100.36839,16.662624],[100.368492,16.662733],[100.368964,16.662825],[100.369093,16.662933],[100.369232,16.6632],[100.369474,16.663359],[100.369693,16.663359],[100.370369,16.662845],[100.370504,16.66282],[100.370793,16.662928],[100.370899,16.663074],[100.370976,16.663401],[100.371088,16.66355],[100.371475,16.663858],[100.37165,16.663891],[100.371925,16.663853]]}},{"type":"Feature","properties":{"osm_id":788400378,"waterway":"canal","name":null,"intermittent":null},"geometry":{"type":"LineString","coordinates":[[100.372242,16.66411],[100.372267,16.663785]]}},{"type":"Feature","properties":{"osm_id":788400383,"waterway":"drain","name":null,"intermittent":null},"geometry":{"type":"LineString","coordinates":[[100.384215,16.672044],[100.384268,16.672232]]}},{"type":"Feature","properties":{"osm_id":788400389,"waterway":"drain","name":null,"intermittent":null},"geometry":{"type":"LineString","coordinates":[[100.384268,16.672232],[100.384292,16.672416],[100.384491,16.672627],[100.38454,16.672766],[100.384523,16.673192],[100.384405,16.673952],[100.384421,16.674276],[100.384553,16.675546],[100.384508,16.675709],[100.384148,16.675857],[100.384053,16.676237],[100.383906,16.676431],[100.38385,16.676754],[100.38376,16.676889],[100.383336,16.677195],[100.383141,16.677272],[100.383092,16.677329],[100.383005,16.677565],[100.382742,16.677745],[100.382707,16.67784],[100.382747,16.678166],[100.382516,16.678492],[100.382466,16.678642],[100.38249,16.678913],[100.382393,16.679268],[100.382682,16.679396],[100.382774,16.67955],[100.38277,16.679885],[100.383117,16.680549],[100.3832,16.680609],[100.383655,16.680724],[100.383737,16.680814],[100.383735,16.680912],[100.383552,16.681297],[100.383483,16.681625],[100.383352,16.681985],[100.383083,16.682413],[100.382879,16.682591],[100.382604,16.682722],[100.381899,16.682904],[100.381477,16.683228],[100.381045,16.683397],[100.380942,16.683522],[100.380843,16.683845],[100.380711,16.684112],[100.380424,16.684338],[100.379759,16.685111],[100.379704,16.685192],[100.379685,16.685276],[100.379683,16.685369],[100.379702,16.685434],[100.379901,16.685789],[100.37996,16.685948],[100.380165,16.686742],[100.380236,16.687139]]}},{"type":"Feature","properties":{"osm_id":813690251,"waterway":"canal","name":null,"intermittent":null},"geometry":{"type":"LineString","coordinates":[[100.30109,16.685755],[100.301066,16.684453],[100.301132,16.684056],[100.301254,16.683597],[100.301444,16.683179],[100.301927,16.682293],[100.302486,16.681531],[100.302612,16.68129],[100.302673,16.680991],[100.302696,16.680668],[100.302752,16.680299],[100.303153,16.679516],[100.303264,16.679188],[100.303274,16.678994],[100.303291,16.678542],[100.303361,16.678288],[100.303584,16.677903],[100.303657,16.677677],[100.303675,16.677461],[100.303572,16.677083],[100.303572,16.676794],[100.30369,16.676274],[100.303648,16.676004],[100.303464,16.675438],[100.303397,16.67531],[100.303243,16.67525],[100.302459,16.675084],[100.302294,16.674997],[100.302238,16.674821],[100.302322,16.674178],[100.30213,16.673625],[100.30185,16.673268],[100.301739,16.673233],[100.301473,16.673183],[100.30128,16.673078],[100.301151,16.672894],[100.300686,16.672352],[100.300218,16.672124],[100.299811,16.671785],[100.299528,16.671539],[100.299395,16.671206],[100.299318,16.670875],[100.299141,16.66958],[100.298904,16.668749],[100.298851,16.668234],[100.298825,16.668138],[100.298723,16.668037],[100.298428,16.667708],[100.298355,16.667467],[100.29813,16.666524],[100.298108,16.665894],[100.298051,16.665245],[100.298117,16.665003],[100.298321,16.664873],[100.298428,16.66478],[100.298458,16.664668],[100.298468,16.664552],[100.298425,16.66407],[100.298373,16.663869],[100.297758,16.662768],[100.297433,16.662324],[100.297284,16.66217],[100.297168,16.662005],[100.297164,16.661861],[100.297315,16.661737],[100.297404,16.66162],[100.297391,16.661225],[100.297318,16.661093],[100.297162,16.660996],[100.296866,16.660799],[100.296712,16.660612],[100.296655,16.660365],[100.296728,16.660004],[100.296809,16.659897],[100.296977,16.659449],[100.297153,16.659306],[100.297274,16.659034],[100.297268,16.658715],[100.297292,16.658427],[100.297419,16.658297],[100.297503,16.658253],[100.297721,16.658248],[100.297873,16.658175],[100.297915,16.658021],[100.297923,16.657721],[100.297815,16.657283],[100.297628,16.656981],[100.296996,16.656447],[100.296939,16.656303],[100.296989,16.655958],[100.296936,16.65577],[100.296809,16.655649],[100.296759,16.655526],[100.296797,16.655422],[100.297108,16.655342],[100.297315,16.655106],[100.297365,16.654813],[100.297238,16.654237],[100.297118,16.653261],[100.296933,16.65271],[100.296639,16.652233],[100.296492,16.651974],[100.296468,16.651673],[100.296551,16.651293],[100.296608,16.651206],[100.296721,16.651101],[100.296808,16.650893],[100.29676,16.650799],[100.296643,16.650667],[100.296022,16.650319],[100.295682,16.650064],[100.295296,16.649892],[100.295095,16.649716],[100.295036,16.649546],[100.295008,16.649287],[100.295124,16.648715],[100.295178,16.648437],[100.295142,16.648161],[100.294985,16.647406],[100.294404,16.645892],[100.294325,16.645688],[100.294231,16.645488],[100.294093,16.645148],[100.294028,16.644853],[100.293998,16.644601],[100.294116,16.643918],[100.294178,16.643778],[100.29435,16.643548],[100.294586,16.643445],[100.294932,16.643368],[100.295512,16.643367],[100.295898,16.643277],[100.296211,16.643072],[100.296333,16.642778],[100.296351,16.642428],[100.296271,16.641488],[100.296305,16.641076],[100.296447,16.640785],[100.296694,16.640549],[100.296979,16.640409],[100.297238,16.640268]]}},{"type":"Feature","properties":{"osm_id":1313420636,"waterway":"drain","name":null,"intermittent":null},"geometry":{"type":"LineString","coordinates":[[100.335511,16.575322],[100.335517,16.57577]]}},{"type":"Feature","properties":{"osm_id":1313420637,"waterway":"drain","name":null,"intermittent":null},"geometry":{"type":"LineString","coordinates":[[100.335517,16.57577],[100.335519,16.575865]]}},{"type":"Feature","properties":{"osm_id":1313420638,"waterway":"river","name":null,"intermittent":null},"geometry":{"type":"LineString","coordinates":[[100.33118,16.579734],[100.331222,16.579835],[100.331598,16.580388],[100.331681,16.580678],[100.3317,16.581066],[100.331687,16.581683],[100.331628,16.582102],[100.331553,16.582408],[100.331461,16.582664],[100.331324,16.582972],[100.331276,16.583231],[100.331182,16.583527],[100.330914,16.584038],[100.330684,16.584401],[100.330552,16.584537],[100.330391,16.584611],[100.330244,16.584634],[100.330067,16.584632],[100.329758,16.584632],[100.329306,16.584669],[100.329044,16.584654],[100.328774,16.584618],[100.328621,16.584589],[100.328326,16.584473],[100.328003,16.58427],[100.327749,16.584042],[100.327513,16.583844],[100.327129,16.583514],[100.326944,16.583308],[100.326748,16.583126],[100.326542,16.582972],[100.326387,16.582879],[100.326175,16.582807],[100.325998,16.582784],[100.32585,16.582802],[100.325703,16.582841],[100.325567,16.582956],[100.325472,16.583069]]}},{"type":"Feature","properties":{"osm_id":1313420639,"waterway":"river","name":null,"intermittent":null},"geometry":{"type":"LineString","coordinates":[[100.331069,16.579469],[100.33118,16.579734]]}},{"type":"Feature","properties":{"osm_id":1313420640,"waterway":"drain","name":null,"intermittent":null},"geometry":{"type":"LineString","coordinates":[[100.331037,16.578583],[100.330978,16.578569],[100.330595,16.578612]]}},{"type":"Feature","properties":{"osm_id":1313420641,"waterway":"drain","name":null,"intermittent":null},"geometry":{"type":"LineString","coordinates":[[100.331216,16.578625],[100.331037,16.578583]]}},{"type":"Feature","properties":{"osm_id":1313420643,"waterway":"river","name":null,"intermittent":null},"geometry":{"type":"LineString","coordinates":[[100.325416,16.583136],[100.325284,16.583376],[100.325214,16.583737],[100.325193,16.58427],[100.325193,16.584848],[100.325244,16.585172],[100.325381,16.585784],[100.325518,16.586205],[100.325724,16.586753],[100.325965,16.587167],[100.326413,16.587815],[100.326816,16.588434],[100.327057,16.588758],[100.327974,16.589619],[100.328963,16.59038],[100.329917,16.591064],[100.33056,16.591501]]}},{"type":"Feature","properties":{"osm_id":1313420644,"waterway":"river","name":null,"intermittent":null},"geometry":{"type":"LineString","coordinates":[[100.325472,16.583069],[100.325416,16.583136]]}},{"type":"Feature","properties":{"osm_id":1318758706,"waterway":"canal","name":null,"intermittent":null},"geometry":{"type":"LineString","coordinates":[[100.307591,16.596082],[100.307876,16.596381],[100.308083,16.596525],[100.308287,16.596568],[100.308773,16.596556]]}},{"type":"Feature","properties":{"osm_id":1318758707,"waterway":"canal","name":null,"intermittent":null},"geometry":{"type":"LineString","coordinates":[[100.302562,16.625239],[100.302659,16.625086],[100.302914,16.624597],[100.303085,16.624124],[100.30317,16.623732],[100.30317,16.623218],[100.30311,16.622753],[100.303,16.62232],[100.302795,16.621953],[100.302514,16.62161],[100.302182,16.621366],[100.301825,16.62117],[100.301663,16.620982],[100.301629,16.620648],[100.301714,16.62037],[100.301893,16.620158],[100.302225,16.620036],[100.302548,16.620028],[100.302821,16.620101],[100.303596,16.620354],[100.303936,16.620427],[100.304303,16.620452],[100.304728,16.620411],[100.305026,16.62028],[100.305248,16.620036],[100.305341,16.619734],[100.305324,16.619203],[100.305205,16.618363],[100.305231,16.618167],[100.30541,16.618045],[100.305639,16.618037],[100.305955,16.618167],[100.30644,16.618608],[100.306789,16.619155],[100.306994,16.61966],[100.307215,16.62024],[100.307513,16.621137],[100.307615,16.621276],[100.307794,16.621382],[100.308058,16.621447],[100.308288,16.62139],[100.308458,16.621251],[100.308594,16.621056],[100.308671,16.620835],[100.308688,16.620558],[100.308518,16.620044],[100.308186,16.619269],[100.307973,16.618575],[100.307922,16.618281],[100.307998,16.617898],[100.308134,16.617596],[100.308398,16.617229],[100.308918,16.616723],[100.309437,16.616274],[100.310298,16.615703],[100.311336,16.615083],[100.312162,16.614634],[100.312878,16.614152],[100.313224,16.613793],[100.313272,16.61368],[100.31324,16.61354],[100.313033,16.613224],[100.312366,16.612578],[100.312142,16.612254],[100.31187,16.611725],[100.311545,16.611343],[100.31091,16.610439],[100.310471,16.609913],[100.309988,16.609516],[100.30915,16.608775],[100.308987,16.608666],[100.30876,16.608596],[100.30854,16.608577],[100.308369,16.608612],[100.306796,16.609274],[100.306564,16.60934],[100.306353,16.609336],[100.306182,16.609239],[100.30602,16.608955],[100.305922,16.608592],[100.30595,16.608351],[100.306011,16.608137],[100.306109,16.607946],[100.30628,16.607731],[100.306699,16.607287],[100.306979,16.606937],[100.307081,16.606695],[100.307146,16.606352],[100.307146,16.606079],[100.307135,16.605932]]}},{"type":"Feature","properties":{"osm_id":1318758708,"waterway":"canal","name":null,"intermittent":null},"geometry":{"type":"LineString","coordinates":[[100.307127,16.605823],[100.30705,16.604776]]}},{"type":"Feature","properties":{"osm_id":1318758709,"waterway":"stream","name":null,"intermittent":null},"geometry":{"type":"LineString","coordinates":[[100.307135,16.605932],[100.307127,16.605823]]}},{"type":"Feature","properties":{"osm_id":1318758712,"waterway":"canal","name":null,"intermittent":null},"geometry":{"type":"LineString","coordinates":[[100.30216,16.634506],[100.301986,16.634119],[100.301876,16.633776],[100.301765,16.633376],[100.301646,16.632756],[100.301586,16.63203],[100.301569,16.630243],[100.301518,16.629395],[100.301399,16.628187],[100.301407,16.627853],[100.30145,16.627534],[100.301543,16.627184],[100.301663,16.626857],[100.301816,16.626506],[100.302395,16.625503],[100.302502,16.625335]]}},{"type":"Feature","properties":{"osm_id":1318758713,"waterway":"stream","name":null,"intermittent":null},"geometry":{"type":"LineString","coordinates":[[100.302502,16.625335],[100.302562,16.625239]]}},{"type":"Feature","properties":{"osm_id":1318758714,"waterway":"canal","name":null,"intermittent":null},"geometry":{"type":"LineString","coordinates":[[100.309178,16.595845],[100.308773,16.596556],[100.30852,16.597]]}},{"type":"Feature","properties":{"osm_id":1318758715,"waterway":"canal","name":null,"intermittent":null},"geometry":{"type":"LineString","coordinates":[[100.30852,16.597],[100.308475,16.597079]]}},{"type":"Feature","properties":{"osm_id":1319139050,"waterway":"river","name":null,"intermittent":null},"geometry":{"type":"LineString","coordinates":[[100.348392,16.65786],[100.348991,16.658688],[100.349454,16.659546],[100.349969,16.66043],[100.350484,16.661026],[100.350848,16.661334],[100.35117,16.661519],[100.352104,16.661797],[100.352496,16.661885],[100.352812,16.661931],[100.353194,16.661942],[100.353541,16.661931],[100.353918,16.66188],[100.354271,16.661765],[100.354517,16.66164],[100.35471,16.661483],[100.355097,16.661005],[100.357413,16.658109],[100.357546,16.657908],[100.35759,16.657763],[100.357628,16.657557],[100.357635,16.657283],[100.357618,16.6571],[100.357572,16.656936],[100.357489,16.656802],[100.357382,16.656709],[100.357202,16.656618],[100.356928,16.656531],[100.356503,16.656442],[100.355703,16.656219],[100.35544,16.656113],[100.355286,16.656038],[100.355076,16.65591],[100.353885,16.654931],[100.353531,16.654437],[100.353309,16.654055],[100.353155,16.653708],[100.352941,16.652998],[100.352662,16.652155],[100.352404,16.651662],[100.351771,16.650583],[100.350752,16.649308],[100.350097,16.648393],[100.349847,16.648031]]}},{"type":"Feature","properties":{"osm_id":1319139051,"waterway":"river","name":null,"intermittent":null},"geometry":{"type":"LineString","coordinates":[[100.349847,16.648031],[100.349774,16.647926]]}}]}