{
"type": "FeatureCollection",
"name": "edges_schematic",
"crs": { "type": "name", "properties": { "name": "urn:ogc:def:crs:EPSG::32647" } },
"features": [
{ "type": "Feature", "properties": { "edge_id": 0, "u": 0, "v": 4, "length_m": 17211.433761407257, "source": "osm", "waterway_tag": "river", "waterway_size": "main", "name": "แคววังทอง" }, "geometry": { "type": "LineString", "coordinates": [ [ 643201.903802764136344, 1839035.514930098783225 ], [ 643201.903802764136344, 1831360.074550590943545 ] ] } },
{ "type": "Feature", "properties": { "edge_id": 1, "u": 2, "v": 3, "length_m": 12884.813044396213, "source": "osm", "waterway_tag": "river", "waterway_size": "main", "name": "แคววังทอง" }, "geometry": { "type": "LineString", "coordinates": [ [ 644736.991878665634431, 1822149.546095181256533 ], [ 644736.991878665634431, 1831360.074550590943545 ] ] } },
{ "type": "Feature", "properties": { "edge_id": 2, "u": 3, "v": 4, "length_m": 2610.9855765403572, "source": "osm", "waterway_tag": "river", "waterway_size": "main", "name": "แคววังทอง" }, "geometry": { "type": "LineString", "coordinates": [ [ 644736.991878665634431, 1831360.074550590943545 ], [ 643201.903802764136344, 1831360.074550590943545 ] ] } },
{ "type": "Feature", "properties": { "edge_id": 3, "u": 3, "v": 10, "length_m": 5987.0597680003375, "source": "osm", "waterway_tag": "river", "waterway_size": "main", "name": null }, "geometry": { "type": "LineString", "coordinates": [ [ 644736.991878665634431, 1831360.074550590943545 ], [ 644736.991878665634431, 1834430.250702393939719 ] ] } },
{ "type": "Feature", "properties": { "edge_id": 4, "u": 4, "v": 28, "length_m": 3864.3966575264544, "source": "osm", "waterway_tag": "canal", "waterway_size": "branch", "name": null }, "geometry": { "type": "LineString", "coordinates": [ [ 643201.903802764136344, 1831360.074550590943545 ], [ 640131.72765096090734, 1831360.074550590943545 ] ] } },
{ "type": "Feature", "properties": { "edge_id": 5, "u": 6, "v": 7, "length_m": 1804.6783810733882, "source": "osm", "waterway_tag": "canal", "waterway_size": "branch", "name": null }, "geometry": { "type": "LineString", "coordinates": [ [ 640131.72765096090734, 1832895.162626492325217 ], [ 640131.72765096090734, 1831360.074550590943545 ], [ 638596.639575059292838, 1831360.074550590943545 ] ] } },
{ "type": "Feature", "properties": { "edge_id": 6, "u": 6, "v": 28, "length_m": 966.14770303305477, "source": "osm", "waterway_tag": "canal", "waterway_size": "branch", "name": null }, "geometry": { "type": "LineString", "coordinates": [ [ 640131.72765096090734, 1832895.162626492325217 ], [ 640131.72765096090734, 1831360.074550590943545 ] ] } },
{ "type": "Feature", "properties": { "edge_id": 7, "u": 6, "v": 6, "length_m": 9.9729247919050046, "source": "osm", "waterway_tag": "canal", "waterway_size": "branch", "name": null }, "geometry": { "type": "LineString", "coordinates": [ [ 640131.72765096090734, 1832895.162626492325217 ], [ 640131.72765096090734, 1832895.162626492325217 ] ] } },
{ "type": "Feature", "properties": { "edge_id": 8, "u": 6, "v": 6, "length_m": 12.090725724972945, "source": "osm", "waterway_tag": "stream", "waterway_size": "branch", "name": null }, "geometry": { "type": "LineString", "coordinates": [ [ 640131.72765096090734, 1832895.162626492325217 ], [ 640131.72765096090734, 1832895.162626492325217 ] ] } },
{ "type": "Feature", "properties": { "edge_id": 9, "u": 6, "v": 6, "length_m": 12.401560578790964, "source": "osm", "waterway_tag": "stream", "waterway_size": "branch", "name": null }, "geometry": { "type": "LineString", "coordinates": [ [ 640131.72765096090734, 1832895.162626492325217 ], [ 640131.72765096090734, 1832895.162626492325217 ] ] } },
{ "type": "Feature", "properties": { "edge_id": 10, "u": 6, "v": 31, "length_m": 5577.5673247517816, "source": "osm", "waterway_tag": "canal", "waterway_size": "branch", "name": null }, "geometry": { "type": "LineString", "coordinates": [ [ 640131.72765096090734, 1832895.162626492325217 ], [ 640131.72765096090734, 1835965.338778295554221 ] ] } },
{ "type": "Feature", "properties": { "edge_id": 11, "u": 7, "v": 8, "length_m": 1535.0880759015849, "source": "osm", "waterway_tag": "canal", "waterway_size": "branch", "name": null }, "geometry": { "type": "LineString", "coordinates": [ [ 638596.639575059292838, 1831360.074550590943545 ], [ 638596.639575059292838, 1829824.986474689329043 ] ] } },
{ "type": "Feature", "properties": { "edge_id": 12, "u": 7, "v": 28, "length_m": 146.31803785061112, "source": "osm", "waterway_tag": "canal", "waterway_size": "branch", "name": null }, "geometry": { "type": "LineString", "coordinates": [ [ 638596.639575059292838, 1831360.074550590943545 ], [ 640131.72765096090734, 1831360.074550590943545 ] ] } },
{ "type": "Feature", "properties": { "edge_id": 13, "u": 10, "v": 20, "length_m": 5247.2380607603436, "source": "osm", "waterway_tag": "river", "waterway_size": "main", "name": null }, "geometry": { "type": "LineString", "coordinates": [ [ 644736.991878665634431, 1834430.250702393939719 ], [ 644736.991878665634431, 1839035.514930098783225 ] ] } },
{ "type": "Feature", "properties": { "edge_id": 14, "u": 10, "v": 32, "length_m": 15476.262293833686, "source": "osm", "waterway_tag": "river", "waterway_size": "main", "name": null }, "geometry": { "type": "LineString", "coordinates": [ [ 644736.991878665634431, 1834430.250702393939719 ], [ 644736.991878665634431, 1839035.514930098783225 ] ] } },
{ "type": "Feature", "properties": { "edge_id": 15, "u": 10, "v": 10, "length_m": 13.986263083615254, "source": "osm", "waterway_tag": "river", "waterway_size": "main", "name": null }, "geometry": { "type": "LineString", "coordinates": [ [ 644736.991878665634431, 1834430.250702393939719 ], [ 644736.991878665634431, 1834430.250702393939719 ] ] } },
{ "type": "Feature", "properties": { "edge_id": 20, "u": 19, "v": 20, "length_m": 1539.7071314867287, "source": "osm", "waterway_tag": "river", "waterway_size": "main", "name": null }, "geometry": { "type": "LineString", "coordinates": [ [ 646272.079954567248933, 1839035.514930098783225 ], [ 644736.991878665634431, 1839035.514930098783225 ] ] } },
{ "type": "Feature", "properties": { "edge_id": 21, "u": 20, "v": 24, "length_m": 1192.5069864742909, "source": "osm", "waterway_tag": "canal", "waterway_size": "branch", "name": null }, "geometry": { "type": "LineString", "coordinates": [ [ 644736.991878665634431, 1839035.514930098783225 ], [ 643201.903802764136344, 1839035.514930098783225 ] ] } },
{ "type": "Feature", "properties": { "edge_id": 22, "u": 20, "v": 20, "length_m": 34.491601617486467, "source": "osm", "waterway_tag": "canal", "waterway_size": "branch", "name": null }, "geometry": { "type": "LineString", "coordinates": [ [ 644736.991878665634431, 1839035.514930098783225 ], [ 644736.991878665634431, 1839035.514930098783225 ] ] } },
{ "type": "Feature", "properties": { "edge_id": 23, "u": 21, "v": 22, "length_m": 158.55243315367665, "source": "osm", "waterway_tag": "canal", "waterway_size": "branch", "name": null }, "geometry": { "type": "LineString", "coordinates": [ [ 641666.815726862521842, 1837500.426854197168723 ], [ 641666.815726862521842, 1839035.514930098783225 ] ] } },
{ "type": "Feature", "properties": { "edge_id": 24, "u": 22, "v": 23, "length_m": 2080.27204556881, "source": "osm", "waterway_tag": "canal", "waterway_size": "branch", "name": null }, "geometry": { "type": "LineString", "coordinates": [ [ 641666.815726862521842, 1839035.514930098783225 ], [ 641666.815726862521842, 1840570.603006000397727 ] ] } },
{ "type": "Feature", "properties": { "edge_id": 25, "u": 22, "v": 24, "length_m": 1128.4534498122084, "source": "osm", "waterway_tag": "canal", "waterway_size": "branch", "name": null }, "geometry": { "type": "LineString", "coordinates": [ [ 641666.815726862521842, 1839035.514930098783225 ], [ 643201.903802764136344, 1839035.514930098783225 ] ] } },
{ "type": "Feature", "properties": { "edge_id": 26, "u": 24, "v": 27, "length_m": 36.060193248786085, "source": "osm", "waterway_tag": "canal", "waterway_size": "branch", "name": null }, "geometry": { "type": "LineString", "coordinates": [ [ 643201.903802764136344, 1839035.514930098783225 ], [ 643201.903802764136344, 1840570.603006000397727 ] ] } }
]
}
