{
"type": "FeatureCollection",
"name": "edges_schematic",
"crs": { "type": "name", "properties": { "name": "urn:ogc:def:crs:EPSG::32647" } },
"features": [
{ "type": "Feature", "properties": { "edge_id": 0, "u": 0, "v": 4, "length_m": 17211.433761407257, "source": "osm", "waterway_tag": "river", "waterway_size": "main", "name": "แคววังทอง" }, "geometry": { "type": "LineString", "coordinates": [ [ 644322.991365812602453, 1838127.038452469976619 ], [ 644322.991365812602453, 1830098.091519562760368 ] ] } },
{ "type": "Feature", "properties": { "edge_id": 1, "u": 2, "v": 3, "length_m": 12884.813044396213, "source": "osm", "waterway_tag": "river", "waterway_size": "main", "name": "แคววังทอง" }, "geometry": { "type": "LineString", "coordinates": [ [ 646330.228099039406516, 1821567.335403348552063 ], [ 646330.228099039406516, 1830098.091519562760368 ] ] } },
{ "type": "Feature", "properties": { "edge_id": 2, "u": 3, "v": 4, "length_m": 2610.9855765403572, "source": "osm", "waterway_tag": "river", "waterway_size": "main", "name": "แคววังทอง" }, "geometry": { "type": "LineString", "coordinates": [ [ 646330.228099039406516, 1830098.091519562760368 ], [ 644322.991365812602453, 1830098.091519562760368 ] ] } },
{ "type": "Feature", "properties": { "edge_id": 3, "u": 3, "v": 27, "length_m": 198.9739540209184, "source": "osm", "waterway_tag": "river", "waterway_size": "main", "name": null }, "geometry": { "type": "LineString", "coordinates": [ [ 646330.228099039406516, 1830098.091519562760368 ], [ 646330.228099039406516, 1830599.900702869286761 ] ] } },
{ "type": "Feature", "properties": { "edge_id": 4, "u": 4, "v": 48, "length_m": 3864.3966575264544, "source": "osm", "waterway_tag": "canal", "waterway_size": "branch", "name": null }, "geometry": { "type": "LineString", "coordinates": [ [ 644322.991365812602453, 1830098.091519562760368 ], [ 641813.945449279039167, 1830098.091519562760368 ] ] } },
{ "type": "Feature", "properties": { "edge_id": 5, "u": 6, "v": 7, "length_m": 1804.6783810733882, "source": "osm", "waterway_tag": "canal", "waterway_size": "branch", "name": null }, "geometry": { "type": "LineString", "coordinates": [ [ 641813.945449279039167, 1831101.709886176045984 ], [ 641813.945449279039167, 1830098.091519562760368 ], [ 641312.136265972279944, 1830098.091519562760368 ] ] } },
{ "type": "Feature", "properties": { "edge_id": 6, "u": 6, "v": 48, "length_m": 966.14770303305477, "source": "osm", "waterway_tag": "canal", "waterway_size": "branch", "name": null }, "geometry": { "type": "LineString", "coordinates": [ [ 641813.945449279039167, 1831101.709886176045984 ], [ 641813.945449279039167, 1830098.091519562760368 ] ] } },
{ "type": "Feature", "properties": { "edge_id": 7, "u": 6, "v": 6, "length_m": 9.9729247919050046, "source": "osm", "waterway_tag": "canal", "waterway_size": "branch", "name": null }, "geometry": { "type": "LineString", "coordinates": [ [ 641813.945449279039167, 1831101.709886176045984 ], [ 641813.945449279039167, 1831101.709886176045984 ] ] } },
{ "type": "Feature", "properties": { "edge_id": 8, "u": 6, "v": 6, "length_m": 12.090725724972945, "source": "osm", "waterway_tag": "stream", "waterway_size": "branch", "name": null }, "geometry": { "type": "LineString", "coordinates": [ [ 641813.945449279039167, 1831101.709886176045984 ], [ 641813.945449279039167, 1831101.709886176045984 ] ] } },
{ "type": "Feature", "properties": { "edge_id": 9, "u": 6, "v": 6, "length_m": 12.401560578790964, "source": "osm", "waterway_tag": "stream", "waterway_size": "branch", "name": null }, "geometry": { "type": "LineString", "coordinates": [ [ 641813.945449279039167, 1831101.709886176045984 ], [ 641813.945449279039167, 1831101.709886176045984 ] ] } },
{ "type": "Feature", "properties": { "edge_id": 10, "u": 6, "v": 51, "length_m": 5577.5673247517816, "source": "osm", "waterway_tag": "canal", "waterway_size": "branch", "name": null }, "geometry": { "type": "LineString", "coordinates": [ [ 641813.945449279039167, 1831101.709886176045984 ], [ 641813.945449279039167, 1834614.374169323127717 ] ] } },
{ "type": "Feature", "properties": { "edge_id": 11, "u": 7, "v": 7, "length_m": 11.450683827448991, "source": "osm", "waterway_tag": "canal", "waterway_size": "branch", "name": null }, "geometry": { "type": "LineString", "coordinates": [ [ 641312.136265972279944, 1830098.091519562760368 ], [ 641312.136265972279944, 1830098.091519562760368 ] ] } },
{ "type": "Feature", "properties": { "edge_id": 12, "u": 7, "v": 7, "length_m": 3.2248582623123041, "source": "osm", "waterway_tag": "canal", "waterway_size": "branch", "name": null }, "geometry": { "type": "LineString", "coordinates": [ [ 641312.136265972279944, 1830098.091519562760368 ], [ 641312.136265972279944, 1830098.091519562760368 ] ] } },
{ "type": "Feature", "properties": { "edge_id": 13, "u": 7, "v": 7, "length_m": 7.2580367020266046, "source": "mitrearth_supplement", "waterway_tag": "minor_stream", "waterway_size": "branch", "name": "คลองบางกระท" }, "geometry": { "type": "LineString", "coordinates": [ [ 641312.136265972279944, 1830098.091519562760368 ], [ 641312.136265972279944, 1830098.091519562760368 ] ] } },
{ "type": "Feature", "properties": { "edge_id": 14, "u": 7, "v": 7, "length_m": 12.412915754886654, "source": "mitrearth_supplement", "waterway_tag": "minor_stream", "waterway_size": "branch", "name": "คลองบางกระท" }, "geometry": { "type": "LineString", "coordinates": [ [ 641312.136265972279944, 1830098.091519562760368 ], [ 641312.136265972279944, 1830098.091519562760368 ] ] } },
{ "type": "Feature", "properties": { "edge_id": 15, "u": 7, "v": 7, "length_m": 12.535538520059278, "source": "osm", "waterway_tag": "canal", "waterway_size": "branch", "name": null }, "geometry": { "type": "LineString", "coordinates": [ [ 641312.136265972279944, 1830098.091519562760368 ], [ 641312.136265972279944, 1830098.091519562760368 ] ] } },
{ "type": "Feature", "properties": { "edge_id": 16, "u": 7, "v": 7, "length_m": 12.640703027264411, "source": "mitrearth_supplement", "waterway_tag": "minor_stream", "waterway_size": "branch", "name": "คลองบางกระท" }, "geometry": { "type": "LineString", "coordinates": [ [ 641312.136265972279944, 1830098.091519562760368 ], [ 641312.136265972279944, 1830098.091519562760368 ] ] } },
{ "type": "Feature", "properties": { "edge_id": 17, "u": 7, "v": 48, "length_m": 143.09317958829882, "source": "osm", "waterway_tag": "canal", "waterway_size": "branch", "name": null }, "geometry": { "type": "LineString", "coordinates": [ [ 641312.136265972279944, 1830098.091519562760368 ], [ 641813.945449279039167, 1830098.091519562760368 ] ] } },
{ "type": "Feature", "properties": { "edge_id": 18, "u": 7, "v": 12, "length_m": 1477.2734384287871, "source": "osm", "waterway_tag": "canal", "waterway_size": "branch", "name": null }, "geometry": { "type": "LineString", "coordinates": [ [ 641312.136265972279944, 1830098.091519562760368 ], [ 641312.136265972279944, 1829094.473152949241921 ] ] } },
{ "type": "Feature", "properties": { "edge_id": 19, "u": 12, "v": 12, "length_m": 33.828415125289283, "source": "osm", "waterway_tag": "canal", "waterway_size": "branch", "name": null }, "geometry": { "type": "LineString", "coordinates": [ [ 641312.136265972279944, 1829094.473152949241921 ], [ 641312.136265972279944, 1829094.473152949241921 ] ] } },
{ "type": "Feature", "properties": { "edge_id": 20, "u": 12, "v": 106, "length_m": 918.37272984976607, "source": "mitrearth_supplement", "waterway_tag": "minor_stream", "waterway_size": "branch", "name": "คลองบางกระท" }, "geometry": { "type": "LineString", "coordinates": [ [ 641312.136265972279944, 1829094.473152949241921 ], [ 641312.136265972279944, 1828090.854786335723475 ] ] } },
{ "type": "Feature", "properties": { "edge_id": 21, "u": 14, "v": 52, "length_m": 4390.8064549801911, "source": "osm", "waterway_tag": "river", "waterway_size": "main", "name": null }, "geometry": { "type": "LineString", "coordinates": [ [ 647333.846465652808547, 1835116.183352629654109 ], [ 646330.228099039406516, 1835116.183352629654109 ] ] } },
{ "type": "Feature", "properties": { "edge_id": 22, "u": 14, "v": 14, "length_m": 13.986263083615254, "source": "osm", "waterway_tag": "river", "waterway_size": "main", "name": null }, "geometry": { "type": "LineString", "coordinates": [ [ 647333.846465652808547, 1835116.183352629654109 ], [ 647333.846465652808547, 1835116.183352629654109 ] ] } },
{ "type": "Feature", "properties": { "edge_id": 23, "u": 14, "v": 18, "length_m": 8038.7818498417855, "source": "osm", "waterway_tag": "river", "waterway_size": "main", "name": null }, "geometry": { "type": "LineString", "coordinates": [ [ 647333.846465652808547, 1835116.183352629654109 ], [ 647333.846465652808547, 1832607.137436096090823 ], [ 647835.65564895956777, 1832607.137436096090823 ] ] } },
{ "type": "Feature", "properties": { "edge_id": 24, "u": 14, "v": 37, "length_m": 13262.331422308092, "source": "mitrearth_supplement", "waterway_tag": "major_river", "waterway_size": "main", "name": null }, "geometry": { "type": "LineString", "coordinates": [ [ 647333.846465652808547, 1835116.183352629654109 ], [ 648839.274015572969802, 1835116.183352629654109 ] ] } },
{ "type": "Feature", "properties": { "edge_id": 25, "u": 18, "v": 19, "length_m": 3046.6739890117165, "source": "osm", "waterway_tag": "river", "waterway_size": "main", "name": null }, "geometry": { "type": "LineString", "coordinates": [ [ 647835.65564895956777, 1832607.137436096090823 ], [ 647835.65564895956777, 1833108.946619402850047 ], [ 648337.464832266210578, 1833108.946619402850047 ] ] } },
{ "type": "Feature", "properties": { "edge_id": 26, "u": 18, "v": 25, "length_m": 6857.6400599960134, "source": "mitrearth_supplement", "waterway_tag": "major_river", "waterway_size": "main", "name": null }, "geometry": { "type": "LineString", "coordinates": [ [ 647835.65564895956777, 1832607.137436096090823 ], [ 647835.65564895956777, 1830599.900702869286761 ] ] } },
{ "type": "Feature", "properties": { "edge_id": 27, "u": 19, "v": 39, "length_m": 2003.7621869307052, "source": "osm", "waterway_tag": "river", "waterway_size": "main", "name": null }, "geometry": { "type": "LineString", "coordinates": [ [ 648337.464832266210578, 1833108.946619402850047 ], [ 648337.464832266210578, 1834614.374169323127717 ] ] } },
{ "type": "Feature", "properties": { "edge_id": 28, "u": 19, "v": 24, "length_m": 3006.8650442439198, "source": "osm", "waterway_tag": "river", "waterway_size": "main", "name": null }, "geometry": { "type": "LineString", "coordinates": [ [ 648337.464832266210578, 1833108.946619402850047 ], [ 648337.464832266210578, 1830599.900702869286761 ] ] } },
{ "type": "Feature", "properties": { "edge_id": 35, "u": 24, "v": 24, "length_m": 15.162044614231885, "source": "osm", "waterway_tag": "river", "waterway_size": "main", "name": null }, "geometry": { "type": "LineString", "coordinates": [ [ 648337.464832266210578, 1830599.900702869286761 ], [ 648337.464832266210578, 1830599.900702869286761 ] ] } },
{ "type": "Feature", "properties": { "edge_id": 36, "u": 24, "v": 24, "length_m": 14.873693743409138, "source": "mitrearth_supplement", "waterway_tag": "major_river", "waterway_size": "main", "name": null }, "geometry": { "type": "LineString", "coordinates": [ [ 648337.464832266210578, 1830599.900702869286761 ], [ 648337.464832266210578, 1830599.900702869286761 ] ] } },
{ "type": "Feature", "properties": { "edge_id": 37, "u": 24, "v": 25, "length_m": 845.65968195535493, "source": "osm", "waterway_tag": "river", "waterway_size": "main", "name": null }, "geometry": { "type": "LineString", "coordinates": [ [ 648337.464832266210578, 1830599.900702869286761 ], [ 647835.65564895956777, 1830599.900702869286761 ] ] } },
{ "type": "Feature", "properties": { "edge_id": 38, "u": 24, "v": 55, "length_m": 1344.617728230088, "source": "mitrearth_supplement", "waterway_tag": "major_river", "waterway_size": "main", "name": null }, "geometry": { "type": "LineString", "coordinates": [ [ 648337.464832266210578, 1830599.900702869286761 ], [ 648337.464832266210578, 1830599.900702869286761 ] ] } },
{ "type": "Feature", "properties": { "edge_id": 39, "u": 24, "v": 39, "length_m": 6862.7987592373211, "source": "mitrearth_supplement", "waterway_tag": "major_river", "waterway_size": "main", "name": null }, "geometry": { "type": "LineString", "coordinates": [ [ 648337.464832266210578, 1830599.900702869286761 ], [ 648337.464832266210578, 1834614.374169323127717 ] ] } },
{ "type": "Feature", "properties": { "edge_id": 40, "u": 25, "v": 27, "length_m": 1920.3990431659122, "source": "osm", "waterway_tag": "river", "waterway_size": "main", "name": null }, "geometry": { "type": "LineString", "coordinates": [ [ 647835.65564895956777, 1830599.900702869286761 ], [ 646330.228099039406516, 1830599.900702869286761 ] ] } },
{ "type": "Feature", "properties": { "edge_id": 41, "u": 27, "v": 55, "length_m": 2570.6848787500662, "source": "mitrearth_supplement", "waterway_tag": "major_river", "waterway_size": "main", "name": null }, "geometry": { "type": "LineString", "coordinates": [ [ 646330.228099039406516, 1830599.900702869286761 ], [ 648337.464832266210578, 1830599.900702869286761 ] ] } },
{ "type": "Feature", "properties": { "edge_id": 42, "u": 27, "v": 27, "length_m": 2.0326669270240716, "source": "mitrearth_supplement", "waterway_tag": "major_river", "waterway_size": "main", "name": null }, "geometry": { "type": "LineString", "coordinates": [ [ 646330.228099039406516, 1830599.900702869286761 ], [ 646330.228099039406516, 1830599.900702869286761 ] ] } },
{ "type": "Feature", "properties": { "edge_id": 44, "u": 32, "v": 33, "length_m": 1539.7071314867287, "source": "osm", "waterway_tag": "river", "waterway_size": "main", "name": null }, "geometry": { "type": "LineString", "coordinates": [ [ 650344.701565493014641, 1837625.229269163217396 ], [ 648839.274015572969802, 1837625.229269163217396 ] ] } },
{ "type": "Feature", "properties": { "edge_id": 45, "u": 33, "v": 34, "length_m": 487.13092908519758, "source": "osm", "waterway_tag": "river", "waterway_size": "main", "name": null }, "geometry": { "type": "LineString", "coordinates": [ [ 648839.274015572969802, 1837625.229269163217396 ], [ 648839.274015572969802, 1837123.420085856458172 ] ] } },
{ "type": "Feature", "properties": { "edge_id": 46, "u": 33, "v": 44, "length_m": 1192.5069864742909, "source": "osm", "waterway_tag": "canal", "waterway_size": "branch", "name": null }, "geometry": { "type": "LineString", "coordinates": [ [ 648839.274015572969802, 1837625.229269163217396 ], [ 647835.65564895956777, 1837625.229269163217396 ] ] } },
{ "type": "Feature", "properties": { "edge_id": 47, "u": 33, "v": 33, "length_m": 34.491601617486467, "source": "osm", "waterway_tag": "canal", "waterway_size": "branch", "name": null }, "geometry": { "type": "LineString", "coordinates": [ [ 648839.274015572969802, 1837625.229269163217396 ], [ 648839.274015572969802, 1837625.229269163217396 ] ] } },
{ "type": "Feature", "properties": { "edge_id": 48, "u": 34, "v": 38, "length_m": 2812.2417595198194, "source": "mitrearth_supplement", "waterway_tag": "major_river", "waterway_size": "main", "name": null }, "geometry": { "type": "LineString", "coordinates": [ [ 648839.274015572969802, 1837123.420085856458172 ], [ 648839.274015572969802, 1834614.374169323127717 ] ] } },
{ "type": "Feature", "properties": { "edge_id": 49, "u": 34, "v": 34, "length_m": 33.992017401035326, "source": "osm", "waterway_tag": "river", "waterway_size": "main", "name": null }, "geometry": { "type": "LineString", "coordinates": [ [ 648839.274015572969802, 1837123.420085856458172 ], [ 648839.274015572969802, 1837123.420085856458172 ] ] } },
{ "type": "Feature", "properties": { "edge_id": 50, "u": 34, "v": 34, "length_m": 34.161994122354706, "source": "mitrearth_supplement", "waterway_tag": "major_river", "waterway_size": "main", "name": null }, "geometry": { "type": "LineString", "coordinates": [ [ 648839.274015572969802, 1837123.420085856458172 ], [ 648839.274015572969802, 1837123.420085856458172 ] ] } },
{ "type": "Feature", "properties": { "edge_id": 51, "u": 34, "v": 37, "length_m": 2392.8334112450439, "source": "osm", "waterway_tag": "river", "waterway_size": "main", "name": null }, "geometry": { "type": "LineString", "coordinates": [ [ 648839.274015572969802, 1837123.420085856458172 ], [ 648839.274015572969802, 1835116.183352629654109 ] ] } },
{ "type": "Feature", "properties": { "edge_id": 52, "u": 37, "v": 37, "length_m": 16.511438480449804, "source": "osm", "waterway_tag": "river", "waterway_size": "main", "name": null }, "geometry": { "type": "LineString", "coordinates": [ [ 648839.274015572969802, 1835116.183352629654109 ], [ 648839.274015572969802, 1835116.183352629654109 ] ] } },
{ "type": "Feature", "properties": { "edge_id": 53, "u": 37, "v": 37, "length_m": 17.436159329504445, "source": "mitrearth_supplement", "waterway_tag": "major_river", "waterway_size": "main", "name": null }, "geometry": { "type": "LineString", "coordinates": [ [ 648839.274015572969802, 1835116.183352629654109 ], [ 648839.274015572969802, 1835116.183352629654109 ] ] } },
{ "type": "Feature", "properties": { "edge_id": 54, "u": 37, "v": 37, "length_m": 22.871367155886638, "source": "osm", "waterway_tag": "river", "waterway_size": "main", "name": null }, "geometry": { "type": "LineString", "coordinates": [ [ 648839.274015572969802, 1835116.183352629654109 ], [ 648839.274015572969802, 1835116.183352629654109 ] ] } },
{ "type": "Feature", "properties": { "edge_id": 55, "u": 37, "v": 37, "length_m": 25.954813918103344, "source": "mitrearth_supplement", "waterway_tag": "major_river", "waterway_size": "main", "name": null }, "geometry": { "type": "LineString", "coordinates": [ [ 648839.274015572969802, 1835116.183352629654109 ], [ 648839.274015572969802, 1835116.183352629654109 ] ] } },
{ "type": "Feature", "properties": { "edge_id": 56, "u": 37, "v": 38, "length_m": 248.99584456304177, "source": "osm", "waterway_tag": "river", "waterway_size": "main", "name": null }, "geometry": { "type": "LineString", "coordinates": [ [ 648839.274015572969802, 1835116.183352629654109 ], [ 648839.274015572969802, 1834614.374169323127717 ] ] } },
{ "type": "Feature", "properties": { "edge_id": 57, "u": 38, "v": 39, "length_m": 41.140865898984266, "source": "osm", "waterway_tag": "river", "waterway_size": "main", "name": null }, "geometry": { "type": "LineString", "coordinates": [ [ 648839.274015572969802, 1834614.374169323127717 ], [ 648337.464832266210578, 1834614.374169323127717 ] ] } },
{ "type": "Feature", "properties": { "edge_id": 58, "u": 40, "v": 40, "length_m": 20.299857393344759, "source": "osm", "waterway_tag": "canal", "waterway_size": "branch", "name": null }, "geometry": { "type": "LineString", "coordinates": [ [ 647333.846465652808547, 1837625.229269163217396 ], [ 647333.846465652808547, 1837625.229269163217396 ] ] } },
{ "type": "Feature", "properties": { "edge_id": 59, "u": 40, "v": 63, "length_m": 1509.35452162874, "source": "mitrearth_supplement", "waterway_tag": "minor_stream", "waterway_size": "branch", "name": null }, "geometry": { "type": "LineString", "coordinates": [ [ 647333.846465652808547, 1837625.229269163217396 ], [ 646330.228099039406516, 1837625.229269163217396 ] ] } },
{ "type": "Feature", "properties": { "edge_id": 60, "u": 40, "v": 42, "length_m": 138.25257576033189, "source": "osm", "waterway_tag": "canal", "waterway_size": "branch", "name": null }, "geometry": { "type": "LineString", "coordinates": [ [ 647333.846465652808547, 1837625.229269163217396 ], [ 647333.846465652808547, 1838127.038452469976619 ] ] } },
{ "type": "Feature", "properties": { "edge_id": 61, "u": 42, "v": 43, "length_m": 2080.27204556881, "source": "osm", "waterway_tag": "canal", "waterway_size": "branch", "name": null }, "geometry": { "type": "LineString", "coordinates": [ [ 647333.846465652808547, 1838127.038452469976619 ], [ 647333.846465652808547, 1839632.466002390021458 ] ] } },
{ "type": "Feature", "properties": { "edge_id": 62, "u": 42, "v": 47, "length_m": 281.55743565010988, "source": "osm", "waterway_tag": "canal", "waterway_size": "branch", "name": null }, "geometry": { "type": "LineString", "coordinates": [ [ 647333.846465652808547, 1838127.038452469976619 ], [ 647333.846465652808547, 1837625.229269163217396 ] ] } },
{ "type": "Feature", "properties": { "edge_id": 63, "u": 44, "v": 44, "length_m": 36.060193248786085, "source": "osm", "waterway_tag": "canal", "waterway_size": "branch", "name": null }, "geometry": { "type": "LineString", "coordinates": [ [ 647835.65564895956777, 1837625.229269163217396 ], [ 647835.65564895956777, 1837625.229269163217396 ] ] } },
{ "type": "Feature", "properties": { "edge_id": 64, "u": 44, "v": 61, "length_m": 715.76876842321292, "source": "mitrearth_supplement", "waterway_tag": "minor_stream", "waterway_size": "branch", "name": "คลองเป็ด" }, "geometry": { "type": "LineString", "coordinates": [ [ 647835.65564895956777, 1837625.229269163217396 ], [ 647333.846465652808547, 1837625.229269163217396 ] ] } },
{ "type": "Feature", "properties": { "edge_id": 65, "u": 44, "v": 47, "length_m": 846.8960141620986, "source": "osm", "waterway_tag": "canal", "waterway_size": "branch", "name": null }, "geometry": { "type": "LineString", "coordinates": [ [ 647835.65564895956777, 1837625.229269163217396 ], [ 647333.846465652808547, 1837625.229269163217396 ] ] } },
{ "type": "Feature", "properties": { "edge_id": 66, "u": 47, "v": 47, "length_m": 0.34949049631799739, "source": "mitrearth_supplement", "waterway_tag": "minor_stream", "waterway_size": "branch", "name": null }, "geometry": { "type": "LineString", "coordinates": [ [ 647333.846465652808547, 1837625.229269163217396 ], [ 647333.846465652808547, 1837625.229269163217396 ] ] } },
{ "type": "Feature", "properties": { "edge_id": 67, "u": 47, "v": 64, "length_m": 1309.5794602453359, "source": "mitrearth_supplement", "waterway_tag": "minor_stream", "waterway_size": "branch", "name": null }, "geometry": { "type": "LineString", "coordinates": [ [ 647333.846465652808547, 1837625.229269163217396 ], [ 647333.846465652808547, 1836621.61090254993178 ] ] } },
{ "type": "Feature", "properties": { "edge_id": 68, "u": 55, "v": 56, "length_m": 568.54678301432511, "source": "mitrearth_supplement", "waterway_tag": "major_river", "waterway_size": "main", "name": null }, "geometry": { "type": "LineString", "coordinates": [ [ 648337.464832266210578, 1830599.900702869286761 ], [ 648839.274015572969802, 1830599.900702869286761 ] ] } },
{ "type": "Feature", "properties": { "edge_id": 69, "u": 56, "v": 57, "length_m": 1379.9681713206401, "source": "mitrearth_supplement", "waterway_tag": "major_river", "waterway_size": "main", "name": null }, "geometry": { "type": "LineString", "coordinates": [ [ 648839.274015572969802, 1830599.900702869286761 ], [ 648839.274015572969802, 1829596.282336256001145 ] ] } },
{ "type": "Feature", "properties": { "edge_id": 70, "u": 56, "v": 56, "length_m": 9.4066553428111891e-06, "source": "mitrearth_supplement", "waterway_tag": "minor_stream", "waterway_size": "branch", "name": null }, "geometry": { "type": "LineString", "coordinates": [ [ 648839.274015572969802, 1830599.900702869286761 ], [ 648839.274015572969802, 1830599.900702869286761 ] ] } },
{ "type": "Feature", "properties": { "edge_id": 71, "u": 56, "v": 96, "length_m": 285.18487652900427, "source": "mitrearth_supplement", "waterway_tag": "minor_stream", "waterway_size": "branch", "name": null }, "geometry": { "type": "LineString", "coordinates": [ [ 648839.274015572969802, 1830599.900702869286761 ], [ 649341.08319887961261, 1830599.900702869286761 ] ] } },
{ "type": "Feature", "properties": { "edge_id": 72, "u": 57, "v": 58, "length_m": 334.39927076115958, "source": "mitrearth_supplement", "waterway_tag": "major_river", "waterway_size": "main", "name": null }, "geometry": { "type": "LineString", "coordinates": [ [ 648839.274015572969802, 1829596.282336256001145 ], [ 648839.274015572969802, 1829094.473152949241921 ] ] } },
{ "type": "Feature", "properties": { "edge_id": 73, "u": 57, "v": 57, "length_m": 4.69266327282018e-05, "source": "mitrearth_supplement", "waterway_tag": "minor_stream", "waterway_size": "branch", "name": null }, "geometry": { "type": "LineString", "coordinates": [ [ 648839.274015572969802, 1829596.282336256001145 ], [ 648839.274015572969802, 1829596.282336256001145 ] ] } },
{ "type": "Feature", "properties": { "edge_id": 74, "u": 57, "v": 103, "length_m": 1904.2163873708282, "source": "mitrearth_supplement", "waterway_tag": "minor_stream", "waterway_size": "branch", "name": null }, "geometry": { "type": "LineString", "coordinates": [ [ 648839.274015572969802, 1829596.282336256001145 ], [ 647333.846465652808547, 1829596.282336256001145 ] ] } },
{ "type": "Feature", "properties": { "edge_id": 75, "u": 58, "v": 58, "length_m": 1.0737364958294191e-05, "source": "mitrearth_supplement", "waterway_tag": "major_river", "waterway_size": "main", "name": null }, "geometry": { "type": "LineString", "coordinates": [ [ 648839.274015572969802, 1829094.473152949241921 ], [ 648839.274015572969802, 1829094.473152949241921 ] ] } },
{ "type": "Feature", "properties": { "edge_id": 76, "u": 58, "v": 58, "length_m": 7.3106379444397114e-05, "source": "mitrearth_supplement", "waterway_tag": "minor_stream", "waterway_size": "branch", "name": "คลองยาง" }, "geometry": { "type": "LineString", "coordinates": [ [ 648839.274015572969802, 1829094.473152949241921 ], [ 648839.274015572969802, 1829094.473152949241921 ] ] } },
{ "type": "Feature", "properties": { "edge_id": 77, "u": 58, "v": 59, "length_m": 10044.909042867359, "source": "mitrearth_supplement", "waterway_tag": "major_river", "waterway_size": "main", "name": null }, "geometry": { "type": "LineString", "coordinates": [ [ 648839.274015572969802, 1829094.473152949241921 ], [ 648839.274015572969802, 1826083.618053108919412 ] ] } },
{ "type": "Feature", "properties": { "edge_id": 78, "u": 58, "v": 105, "length_m": 1924.8309880921829, "source": "mitrearth_supplement", "waterway_tag": "minor_stream", "waterway_size": "branch", "name": "คลองยาง" }, "geometry": { "type": "LineString", "coordinates": [ [ 648839.274015572969802, 1829094.473152949241921 ], [ 647333.846465652808547, 1829094.473152949241921 ] ] } },
{ "type": "Feature", "properties": { "edge_id": 79, "u": 60, "v": 61, "length_m": 775.60294733080627, "source": "mitrearth_supplement", "waterway_tag": "minor_stream", "waterway_size": "branch", "name": null }, "geometry": { "type": "LineString", "coordinates": [ [ 647835.65564895956777, 1837625.229269163217396 ], [ 647333.846465652808547, 1837625.229269163217396 ] ] } },
{ "type": "Feature", "properties": { "edge_id": 80, "u": 61, "v": 62, "length_m": 516.48743752821758, "source": "mitrearth_supplement", "waterway_tag": "minor_stream", "waterway_size": "branch", "name": "คลองเป็ด" }, "geometry": { "type": "LineString", "coordinates": [ [ 647333.846465652808547, 1837625.229269163217396 ], [ 647333.846465652808547, 1837123.420085856458172 ] ] } }
]
}
