{
"type": "FeatureCollection",
"name": "nodes_schematic",
"crs": { "type": "name", "properties": { "name": "urn:ogc:def:crs:EPSG::32647" } },
"features": [
{ "type": "Feature", "properties": { "node_id": 0, "degree": 1, "schematic_x": 644322.9913658126, "schematic_y": 1838127.03845247 }, "geometry": { "type": "Point", "coordinates": [ 644322.991365812602453, 1838127.038452469976619 ] } },
{ "type": "Feature", "properties": { "node_id": 2, "degree": 1, "schematic_x": 646330.22809903941, "schematic_y": 1821567.3354033486 }, "geometry": { "type": "Point", "coordinates": [ 646330.228099039406516, 1821567.335403348552063 ] } },
{ "type": "Feature", "properties": { "node_id": 3, "degree": 3, "schematic_x": 646330.22809903941, "schematic_y": 1830098.0915195628 }, "geometry": { "type": "Point", "coordinates": [ 646330.228099039406516, 1830098.091519562760368 ] } },
{ "type": "Feature", "properties": { "node_id": 4, "degree": 3, "schematic_x": 644322.9913658126, "schematic_y": 1830098.0915195628 }, "geometry": { "type": "Point", "coordinates": [ 644322.991365812602453, 1830098.091519562760368 ] } },
{ "type": "Feature", "properties": { "node_id": 6, "degree": 9, "schematic_x": 641813.94544927904, "schematic_y": 1831101.709886176 }, "geometry": { "type": "Point", "coordinates": [ 641813.945449279039167, 1831101.709886176045984 ] } },
{ "type": "Feature", "properties": { "node_id": 7, "degree": 15, "schematic_x": 641312.13626597228, "schematic_y": 1830098.0915195628 }, "geometry": { "type": "Point", "coordinates": [ 641312.136265972279944, 1830098.091519562760368 ] } },
{ "type": "Feature", "properties": { "node_id": 12, "degree": 4, "schematic_x": 641312.13626597228, "schematic_y": 1829094.4731529492 }, "geometry": { "type": "Point", "coordinates": [ 641312.136265972279944, 1829094.473152949241921 ] } },
{ "type": "Feature", "properties": { "node_id": 14, "degree": 5, "schematic_x": 647333.84646565281, "schematic_y": 1835116.1833526297 }, "geometry": { "type": "Point", "coordinates": [ 647333.846465652808547, 1835116.183352629654109 ] } },
{ "type": "Feature", "properties": { "node_id": 18, "degree": 3, "schematic_x": 647835.65564895957, "schematic_y": 1832607.1374360961 }, "geometry": { "type": "Point", "coordinates": [ 647835.65564895956777, 1832607.137436096090823 ] } },
{ "type": "Feature", "properties": { "node_id": 19, "degree": 3, "schematic_x": 648337.46483226621, "schematic_y": 1833108.9466194029 }, "geometry": { "type": "Point", "coordinates": [ 648337.464832266210578, 1833108.946619402850047 ] } },
{ "type": "Feature", "properties": { "node_id": 24, "degree": 8, "schematic_x": 648337.46483226621, "schematic_y": 1830599.9007028693 }, "geometry": { "type": "Point", "coordinates": [ 648337.464832266210578, 1830599.900702869286761 ] } },
{ "type": "Feature", "properties": { "node_id": 25, "degree": 3, "schematic_x": 647835.65564895957, "schematic_y": 1830599.9007028693 }, "geometry": { "type": "Point", "coordinates": [ 647835.65564895956777, 1830599.900702869286761 ] } },
{ "type": "Feature", "properties": { "node_id": 27, "degree": 5, "schematic_x": 646330.22809903941, "schematic_y": 1830599.9007028693 }, "geometry": { "type": "Point", "coordinates": [ 646330.228099039406516, 1830599.900702869286761 ] } },
{ "type": "Feature", "properties": { "node_id": 32, "degree": 1, "schematic_x": 650344.70156549301, "schematic_y": 1837625.2292691632 }, "geometry": { "type": "Point", "coordinates": [ 650344.701565493014641, 1837625.229269163217396 ] } },
{ "type": "Feature", "properties": { "node_id": 33, "degree": 5, "schematic_x": 648839.27401557297, "schematic_y": 1837625.2292691632 }, "geometry": { "type": "Point", "coordinates": [ 648839.274015572969802, 1837625.229269163217396 ] } },
{ "type": "Feature", "properties": { "node_id": 34, "degree": 7, "schematic_x": 648839.27401557297, "schematic_y": 1837123.4200858565 }, "geometry": { "type": "Point", "coordinates": [ 648839.274015572969802, 1837123.420085856458172 ] } },
{ "type": "Feature", "properties": { "node_id": 37, "degree": 11, "schematic_x": 648839.27401557297, "schematic_y": 1835116.1833526297 }, "geometry": { "type": "Point", "coordinates": [ 648839.274015572969802, 1835116.183352629654109 ] } },
{ "type": "Feature", "properties": { "node_id": 38, "degree": 3, "schematic_x": 648839.27401557297, "schematic_y": 1834614.3741693231 }, "geometry": { "type": "Point", "coordinates": [ 648839.274015572969802, 1834614.374169323127717 ] } },
{ "type": "Feature", "properties": { "node_id": 39, "degree": 3, "schematic_x": 648337.46483226621, "schematic_y": 1834614.3741693231 }, "geometry": { "type": "Point", "coordinates": [ 648337.464832266210578, 1834614.374169323127717 ] } },
{ "type": "Feature", "properties": { "node_id": 40, "degree": 4, "schematic_x": 647333.84646565281, "schematic_y": 1837625.2292691632 }, "geometry": { "type": "Point", "coordinates": [ 647333.846465652808547, 1837625.229269163217396 ] } },
{ "type": "Feature", "properties": { "node_id": 42, "degree": 3, "schematic_x": 647333.84646565281, "schematic_y": 1838127.03845247 }, "geometry": { "type": "Point", "coordinates": [ 647333.846465652808547, 1838127.038452469976619 ] } },
{ "type": "Feature", "properties": { "node_id": 43, "degree": 1, "schematic_x": 647333.84646565281, "schematic_y": 1839632.46600239 }, "geometry": { "type": "Point", "coordinates": [ 647333.846465652808547, 1839632.466002390021458 ] } },
{ "type": "Feature", "properties": { "node_id": 44, "degree": 5, "schematic_x": 647835.65564895957, "schematic_y": 1837625.2292691632 }, "geometry": { "type": "Point", "coordinates": [ 647835.65564895956777, 1837625.229269163217396 ] } },
{ "type": "Feature", "properties": { "node_id": 47, "degree": 5, "schematic_x": 647333.84646565281, "schematic_y": 1837625.2292691632 }, "geometry": { "type": "Point", "coordinates": [ 647333.846465652808547, 1837625.229269163217396 ] } },
{ "type": "Feature", "properties": { "node_id": 48, "degree": 3, "schematic_x": 641813.94544927904, "schematic_y": 1830098.0915195628 }, "geometry": { "type": "Point", "coordinates": [ 641813.945449279039167, 1830098.091519562760368 ] } },
{ "type": "Feature", "properties": { "node_id": 51, "degree": 1, "schematic_x": 641813.94544927904, "schematic_y": 1834614.3741693231 }, "geometry": { "type": "Point", "coordinates": [ 641813.945449279039167, 1834614.374169323127717 ] } },
{ "type": "Feature", "properties": { "node_id": 52, "degree": 1, "schematic_x": 646330.22809903941, "schematic_y": 1835116.1833526297 }, "geometry": { "type": "Point", "coordinates": [ 646330.228099039406516, 1835116.183352629654109 ] } },
{ "type": "Feature", "properties": { "node_id": 55, "degree": 3, "schematic_x": 648337.46483226621, "schematic_y": 1830599.9007028693 }, "geometry": { "type": "Point", "coordinates": [ 648337.464832266210578, 1830599.900702869286761 ] } },
{ "type": "Feature", "properties": { "node_id": 56, "degree": 5, "schematic_x": 648839.27401557297, "schematic_y": 1830599.9007028693 }, "geometry": { "type": "Point", "coordinates": [ 648839.274015572969802, 1830599.900702869286761 ] } },
{ "type": "Feature", "properties": { "node_id": 57, "degree": 5, "schematic_x": 648839.27401557297, "schematic_y": 1829596.282336256 }, "geometry": { "type": "Point", "coordinates": [ 648839.274015572969802, 1829596.282336256001145 ] } },
{ "type": "Feature", "properties": { "node_id": 58, "degree": 7, "schematic_x": 648839.27401557297, "schematic_y": 1829094.4731529492 }, "geometry": { "type": "Point", "coordinates": [ 648839.274015572969802, 1829094.473152949241921 ] } },
{ "type": "Feature", "properties": { "node_id": 59, "degree": 1, "schematic_x": 648839.27401557297, "schematic_y": 1826083.6180531089 }, "geometry": { "type": "Point", "coordinates": [ 648839.274015572969802, 1826083.618053108919412 ] } },
{ "type": "Feature", "properties": { "node_id": 60, "degree": 1, "schematic_x": 647835.65564895957, "schematic_y": 1837625.2292691632 }, "geometry": { "type": "Point", "coordinates": [ 647835.65564895956777, 1837625.229269163217396 ] } },
{ "type": "Feature", "properties": { "node_id": 61, "degree": 3, "schematic_x": 647333.84646565281, "schematic_y": 1837625.2292691632 }, "geometry": { "type": "Point", "coordinates": [ 647333.846465652808547, 1837625.229269163217396 ] } },
{ "type": "Feature", "properties": { "node_id": 62, "degree": 1, "schematic_x": 647333.84646565281, "schematic_y": 1837123.4200858565 }, "geometry": { "type": "Point", "coordinates": [ 647333.846465652808547, 1837123.420085856458172 ] } },
{ "type": "Feature", "properties": { "node_id": 63, "degree": 1, "schematic_x": 646330.22809903941, "schematic_y": 1837625.2292691632 }, "geometry": { "type": "Point", "coordinates": [ 646330.228099039406516, 1837625.229269163217396 ] } },
{ "type": "Feature", "properties": { "node_id": 64, "degree": 1, "schematic_x": 647333.84646565281, "schematic_y": 1836621.6109025499 }, "geometry": { "type": "Point", "coordinates": [ 647333.846465652808547, 1836621.61090254993178 ] } },
{ "type": "Feature", "properties": { "node_id": 96, "degree": 1, "schematic_x": 649341.08319887961, "schematic_y": 1830599.9007028693 }, "geometry": { "type": "Point", "coordinates": [ 649341.08319887961261, 1830599.900702869286761 ] } },
{ "type": "Feature", "properties": { "node_id": 103, "degree": 1, "schematic_x": 647333.84646565281, "schematic_y": 1829596.282336256 }, "geometry": { "type": "Point", "coordinates": [ 647333.846465652808547, 1829596.282336256001145 ] } },
{ "type": "Feature", "properties": { "node_id": 105, "degree": 1, "schematic_x": 647333.84646565281, "schematic_y": 1829094.4731529492 }, "geometry": { "type": "Point", "coordinates": [ 647333.846465652808547, 1829094.473152949241921 ] } },
{ "type": "Feature", "properties": { "node_id": 106, "degree": 1, "schematic_x": 641312.13626597228, "schematic_y": 1828090.8547863357 }, "geometry": { "type": "Point", "coordinates": [ 641312.136265972279944, 1828090.854786335723475 ] } }
]
}
