{
"type": "FeatureCollection",
"name": "boundary",
"crs": { "type": "name", "properties": { "name": "urn:ogc:def:crs:EPSG::32647" } },
"features": [
{ "type": "Feature", "properties": { "tambon": "นครป่าหมาก", "amphoe": "บางกระทุ่ม", "province": "พิษณุโลก" }, "geometry": { "type": "Polygon", "coordinates": [ [ [ 645117.004750048974529, 1843494.90003538900055 ], [ 645270.629933884600177, 1843292.651296741329134 ], [ 645418.627102974220179, 1843086.400742507306859 ], [ 645675.692997757461853, 1842895.649597605224699 ], [ 645861.692997913807631, 1842841.897636349312961 ], [ 646142.007687970297411, 1842786.650823932373896 ], [ 646417.194317856570706, 1842633.398705832194537 ], [ 646660.259943640441634, 1842490.648702203528956 ], [ 646840.447821901063435, 1842268.649017812917009 ], [ 646993.323403364513069, 1842070.148090555565432 ], [ 647136.507711260113865, 1841949.147897613001987 ], [ 647297.4483431490371, 1841881.895481201587245 ], [ 647502.19979424146004, 1841841.398372719064355 ], [ 647891.763414762332104, 1841796.522656624438241 ], [ 648148.952002766425721, 1841798.02200868842192 ], [ 648390.325959230656736, 1841769.898860229179263 ], [ 648645.016069575329311, 1841719.145349605940282 ], [ 649128.517657810822129, 1841536.647763422690332 ], [ 649380.516712407581508, 1841395.519772119587287 ], [ 649631.01668703649193, 1841212.272549690678716 ], [ 649931.01688227802515, 1841083.645625345408916 ], [ 650289.958765918505378, 1840942.644697284093127 ], [ 650923.833279064740054, 1840655.895478662336245 ], [ 651253.709751066402532, 1840554.896158776246011 ], [ 651531.026254463591613, 1840466.520747551694512 ], [ 651739.648576468345709, 1840328.01834081672132 ], [ 651844.400122254621238, 1840116.893547870218754 ], [ 651861.71410759515129, 1839892.01836067205295 ], [ 651890.025846038945019, 1839634.391478139907122 ], [ 651924.588229949120432, 1839332.265460927970707 ], [ 651988.588577836519107, 1839075.515101605094969 ], [ 652083.591575052938424, 1838897.264904128853232 ], [ 652211.837877293815836, 1838714.640212607337162 ], [ 652462.341915038181469, 1838432.138282993342727 ], [ 652657.779247010708787, 1838211.764713835436851 ], [ 652776.653810714837164, 1838046.765171406324953 ], [ 652886.967702896916308, 1837958.262661691755056 ], [ 652866.278746347757988, 1837946.138411724939942 ], [ 652318.088908536592498, 1837859.888418981339782 ], [ 652192.84106532484293, 1837787.511819920968264 ], [ 652117.716245376854204, 1837598.259586959844455 ], [ 652050.90211817366071, 1837464.63533184514381 ], [ 652062.026991794351488, 1837397.886630743276328 ], [ 652262.404039247543551, 1837178.008764890488237 ], [ 652354.277706312714145, 1837036.135177643503994 ], [ 652493.402930762502365, 1836874.760557619389147 ], [ 652501.717907468788326, 1836788.383893618360162 ], [ 652476.715901037561707, 1836668.759806328685954 ], [ 652446.090049311635084, 1836596.383262805640697 ], [ 652393.218722340883687, 1836535.13554076035507 ], [ 652298.592759841587394, 1836485.131329033290967 ], [ 652039.778102153446525, 1836245.756130362395197 ], [ 651959.090784199885093, 1836192.880617975024506 ], [ 651861.650809549493715, 1836148.381521821022034 ], [ 651728.092169219395146, 1836025.881961307488382 ], [ 651391.338558296556585, 1835806.003677638946101 ], [ 651260.589862095541321, 1835622.379328215494752 ], [ 650883.52352496155072, 1835232.754091522889212 ], [ 650793.026148387929425, 1835227.253121317364275 ], [ 650659.463334639789537, 1835399.752481271279976 ], [ 650734.588180620456114, 1835547.254085352178663 ], [ 650798.588344267336652, 1835605.630504905711859 ], [ 650806.964611519128084, 1835705.880422444082797 ], [ 650754.085112317465246, 1835767.132182465400547 ], [ 650500.836773035582155, 1835864.502437880262733 ], [ 650306.022111144382507, 1835967.50474518770352 ], [ 649994.3360337842023, 1835992.506641347426921 ], [ 649512.894857865641825, 1835973.005200504558161 ], [ 648967.457471221452579, 1835975.753292887005955 ], [ 648819.955904261907563, 1835995.254368380643427 ], [ 648296.76819102303125, 1835989.753149325726554 ], [ 647765.204067753744312, 1835956.378539607161656 ], [ 647715.138562530162744, 1835870.001741512678564 ], [ 647603.763866067281924, 1835786.62731759948656 ], [ 647553.702522860374302, 1835591.751281009288505 ], [ 647570.389779546298087, 1835408.127117649419233 ], [ 647614.954463587026112, 1835327.37419120920822 ], [ 647639.95250145252794, 1835221.627475516637787 ], [ 647592.639601697796024, 1834965.626649223500863 ], [ 647570.390071079134941, 1834898.873928038869053 ], [ 647475.764014910557307, 1834834.873673936119303 ], [ 647420.1402698851889, 1834787.499094114871696 ], [ 647280.953782311175019, 1834536.999231972265989 ], [ 647214.201082021696493, 1834525.874359008856118 ], [ 647108.450159357045777, 1834517.624972740653902 ], [ 647044.44997869990766, 1834486.999040468828753 ], [ 646963.701271627447568, 1834411.747059208806604 ], [ 646830.138477097614668, 1834378.372678648913279 ], [ 646760.575993383652531, 1834322.748765135649592 ], [ 646574.137712842202745, 1834328.372476400574669 ], [ 646391.885700654820539, 1834236.498785483185202 ], [ 646181.698928608093411, 1834097.373531068908051 ], [ 645817.137530020787381, 1833866.370501867262647 ], [ 645541.635643880232237, 1833746.746271688956767 ], [ 645444.261145261814818, 1833741.118298988556489 ], [ 645249.44664617034141, 1833732.745962682645768 ], [ 645129.756915612495504, 1833838.496725837467238 ], [ 645057.445988344261423, 1833844.120502623729408 ], [ 644971.130739626125433, 1833810.746149571379647 ], [ 644818.070945080253296, 1833668.745519175659865 ], [ 644745.755820909282193, 1833668.745478455210105 ], [ 644589.882157991407439, 1833632.618477739859372 ], [ 644467.444073722232133, 1833640.994835118297487 ], [ 644386.756736124167219, 1833618.618219793774188 ], [ 644342.192127594375052, 1833565.742829350288957 ], [ 644281.006004899856634, 1833446.118720716796815 ], [ 644208.62950069271028, 1833409.995967074064538 ], [ 644069.504283302812837, 1833384.870910444995388 ], [ 643916.444584832061082, 1833248.494097894057631 ], [ 643799.503454698482528, 1833190.117649724241346 ], [ 643702.12897125352174, 1833156.743290796410292 ], [ 643593.629739330848679, 1833148.366803939919919 ], [ 643471.130251564551145, 1833162.244078979128972 ], [ 643409.939863263978623, 1833159.491536217043176 ], [ 643262.438419565558434, 1833134.493475707713515 ], [ 643184.503526756539941, 1833226.244119504466653 ], [ 643153.877467777114362, 1833521.243025712436065 ], [ 643112.12679961998947, 1833590.867020321078598 ], [ 642989.688716909615323, 1833596.367869408801198 ], [ 642861.688279862515628, 1833668.744424705859274 ], [ 642794.87824028392788, 1833727.243570609716699 ], [ 642753.1275445506908, 1833846.867621635319665 ], [ 642691.937119415961206, 1833910.86778785684146 ], [ 642566.689206556882709, 1833955.370957578998059 ], [ 642547.188113743788563, 1834013.87012972519733 ], [ 642633.499216543743387, 1834130.745843070792034 ], [ 642775.438254634384066, 1834314.37019593315199 ], [ 642814.374928983044811, 1834397.871478574350476 ], [ 642819.937210744363256, 1834461.871681707212701 ], [ 642769.875618421239778, 1834709.623128162929788 ], [ 642683.560308028012514, 1834787.496423586737365 ], [ 642522.189649899955839, 1834893.247264522826299 ], [ 642305.125525634968653, 1834987.873239964945242 ], [ 642043.496728307334706, 1835146.499390846583992 ], [ 641600.996075235074386, 1835480.500289896735922 ], [ 641370.058605143916793, 1835764.251448648516089 ], [ 641264.307724651880562, 1835861.748794849496335 ], [ 641197.493505839491263, 1835883.998227620730177 ], [ 641075.055534852202982, 1835869.998016797704622 ], [ 640974.867040174198337, 1835842.247475307201967 ], [ 640827.369744818191975, 1835730.872746971901506 ], [ 640588.05625020165462, 1835463.746982236625627 ], [ 640429.430039687547833, 1835316.249535049078986 ], [ 640262.431640895083547, 1835099.246766184223816 ], [ 640224.555853689322248, 1835043.995672938413918 ], [ 640087.118308596778661, 1834895.99433566024527 ], [ 639998.054650917998515, 1834862.619982892181724 ], [ 639895.11766720272135, 1834982.244000674691051 ], [ 639586.179710672120564, 1835536.123062845785171 ], [ 639513.803087351145223, 1835719.747196866897866 ], [ 639491.553446232690476, 1835853.375501907197759 ], [ 639483.238451283425093, 1835981.375896868528798 ], [ 639516.612691275426187, 1836098.247479634359479 ], [ 639508.24035396031104, 1836304.252317773876712 ], [ 639472.051969905034639, 1836437.749614553758875 ], [ 639388.611997711937875, 1836649.251228917622939 ], [ 639369.114884860464372, 1836746.625721959630027 ], [ 639430.362545527983457, 1836799.501219956437126 ], [ 639502.677673411555588, 1836791.251933402847499 ], [ 639613.990950467879884, 1836730.000202775700018 ], [ 639683.614965590415522, 1836730.000240531750023 ], [ 639819.92612795624882, 1836838.503652750048786 ], [ 639920.114543923409656, 1837011.003244809107855 ], [ 640059.305066560045816, 1837208.627736263209954 ], [ 640084.30295459239278, 1837372.877861546352506 ], [ 639947.99168402608484, 1837464.628473244141787 ], [ 639842.240837948978879, 1837500.878128722077236 ], [ 639630.739108344772831, 1837642.755655852612108 ], [ 639572.239790151943453, 1837712.379640958271921 ], [ 639566.677276680013165, 1837890.507092538522556 ], [ 639608.427849859697744, 1837993.382535396143794 ], [ 639569.491139467689209, 1838160.38103406643495 ], [ 639499.924438412883319, 1838135.378918589325622 ], [ 639469.302728167269379, 1837979.505216860445216 ], [ 639396.92627400404308, 1837851.504779225215316 ], [ 639341.30243840161711, 1837784.756041318411008 ], [ 639280.050634420593269, 1837812.506494603818282 ], [ 639288.426897203549743, 1837929.382162995869294 ], [ 639165.9888594110962, 1838040.756743531906977 ], [ 638895.987929511582479, 1838035.128680339083076 ], [ 638912.736427241936326, 1838135.378601397387683 ], [ 639035.174422523123212, 1838288.381143572041765 ], [ 639046.299104325706139, 1838385.882652950938791 ], [ 639024.049478783388622, 1838491.633469952968881 ], [ 638997.675263018812984, 1838555.633654820499942 ], [ 639185.424111851723865, 1838611.25762915215455 ], [ 639742.051758424146101, 1838739.25832839589566 ], [ 640418.303386528394185, 1838842.257016130723059 ], [ 640524.054197283694521, 1838870.007560029625893 ], [ 641829.244403903954662, 1839078.761623612372205 ], [ 642126.995781120844185, 1839151.134212473640218 ], [ 642299.560807926813141, 1839159.510633678874001 ], [ 642502.686113507370465, 1839195.637558112153783 ], [ 643379.314649013453163, 1839490.637060431297868 ], [ 643510.124819123884663, 1839549.136314864037558 ], [ 643702.125331098795868, 1839691.01416232669726 ], [ 643832.939671608619392, 1839802.388881018618122 ], [ 643930.314107678364962, 1839916.389189212117344 ], [ 644030.502475515240803, 1839988.765769772930071 ], [ 644353.313309285207652, 1840094.512678375001997 ], [ 644614.941928135347553, 1840247.642300023697317 ], [ 644773.568112970562652, 1840431.2666585969273 ], [ 644940.505146458512172, 1840573.267292709788308 ], [ 644987.818155962158926, 1840637.267517750384286 ], [ 645018.439806373091415, 1840715.140976415248588 ], [ 645037.940875761210918, 1840876.519787680357695 ], [ 645029.568587571382523, 1840987.894428199157119 ], [ 644951.690951676107943, 1841160.3938190524932 ], [ 644826.438971744733863, 1841152.017422791803256 ], [ 644612.127558321342804, 1840893.26810066215694 ], [ 644486.941221950575709, 1840807.018263160949573 ], [ 644353.31295027595479, 1840737.39007250405848 ], [ 644230.878995833452791, 1840698.391883125528693 ], [ 644055.561533844796941, 1840740.14241466159001 ], [ 643958.191002076840959, 1840798.641641711816192 ], [ 643883.000513727311045, 1840901.644019121071324 ], [ 643899.687610803637654, 1840999.018530279397964 ], [ 643947.000595736084506, 1841107.517892956500873 ], [ 644013.814651311608031, 1841196.643006435129791 ], [ 644130.690248226863332, 1841307.894916399847716 ], [ 644180.813063314883038, 1841377.518960108049214 ], [ 644369.999492561561055, 1841828.268861923599616 ], [ 644456.314699895563535, 1841931.271329107461497 ], [ 644564.81387835519854, 1842028.645891268970445 ], [ 644801.379049453651533, 1842126.147525598295033 ], [ 644896.005110070691444, 1842179.023042316548526 ], [ 644987.817001686431468, 1842696.525594900827855 ], [ 645068.565362324472517, 1843386.777474108617753 ], [ 645117.004750048974529, 1843494.90003538900055 ] ] ] } }
]
}
