{
"type": "FeatureCollection",
"name": "edges",
"crs": { "type": "name", "properties": { "name": "urn:ogc:def:crs:EPSG::32647" } },
"features": [
{ "type": "Feature", "properties": { "edge_id": 0, "u": 0, "v": 4, "length_m": 17211.433761407257, "source": "osm", "waterway_tag": "river", "name": "แคววังทอง" }, "geometry": { "type": "LineString", "coordinates": [ [ 641722.313056932063773, 1844367.096856391755864 ], [ 641735.691658509196714, 1844119.769291414180771 ], [ 641722.515750413993374, 1843968.199764158809558 ], [ 641618.240439595887437, 1843770.878390456549823 ], [ 641606.829023736994714, 1843706.624710950767621 ], [ 641608.413608508999459, 1843612.692260154988617 ], [ 641621.990319592179731, 1843495.713437679456547 ], [ 641641.524789361283183, 1843429.120602627051994 ], [ 641656.123776937718503, 1843399.009891003370285 ], [ 641679.982444095658138, 1843371.837720868876204 ], [ 641719.71697251056321, 1843347.094889944652095 ], [ 641748.950271602137946, 1843329.695872402284294 ], [ 641845.420682225842029, 1843305.884208521572873 ], [ 641972.696408587507904, 1843284.933925998164341 ], [ 642013.308723261463456, 1843272.590419801883399 ], [ 642049.047507964656688, 1843255.345817126333714 ], [ 642071.007393939304166, 1843241.1075955752749 ], [ 642085.201533979736269, 1843223.829996492248029 ], [ 642120.486653588130139, 1843146.720009620767087 ], [ 642133.184449764899909, 1843113.941240046173334 ], [ 642136.002162625896744, 1843091.276483197929338 ], [ 642131.112713061273098, 1843072.765055297641084 ], [ 642102.84491549548693, 1843041.262080776505172 ], [ 642072.574949332978576, 1843006.09429892199114 ], [ 642045.84768997807987, 1842951.475536268670112 ], [ 642037.082712176605128, 1842922.315759887220338 ], [ 642036.573680649627931, 1842886.682599727762863 ], [ 642067.971363973803818, 1842752.782406944315881 ], [ 642074.180543613852933, 1842701.370891267899424 ], [ 642078.702756299171597, 1842631.02673148107715 ], [ 642076.658495091018267, 1842601.690468880347908 ], [ 642065.744006182183512, 1842574.950696292333305 ], [ 642020.778758482891135, 1842504.055333348689601 ], [ 641978.325549798668362, 1842456.302969613578171 ], [ 641934.954031225875951, 1842418.281910430407152 ], [ 641847.678578557563014, 1842358.059691985370591 ], [ 641829.583580855163746, 1842352.406682729022577 ], [ 641809.534862943692133, 1842351.830647581489757 ], [ 641793.612667604233138, 1842356.261397184571251 ], [ 641777.846373776090331, 1842369.323995637940243 ], [ 641709.299147690064274, 1842444.000239716144279 ], [ 641642.900984399369918, 1842532.411710394313559 ], [ 641495.943812391255051, 1842705.710918137105182 ], [ 641468.506921688560396, 1842725.556580259930342 ], [ 641370.385666648158804, 1842772.817206034203991 ], [ 641287.851697322446853, 1842801.813534818356857 ], [ 641251.559540802845731, 1842805.998918482568115 ], [ 641201.200642613344826, 1842808.320706131635234 ], [ 641168.486804362386465, 1842803.677860662573949 ], [ 641097.712744527379982, 1842780.304231374990195 ], [ 641059.173100737389177, 1842769.537169099319726 ], [ 641000.435999406618066, 1842764.611649092053995 ], [ 640936.830584756913595, 1842770.055277837906033 ], [ 640822.953141355188563, 1842796.964961613761261 ], [ 640783.237100094556808, 1842818.943299887469038 ], [ 640755.448952271137387, 1842843.656134481774643 ], [ 640617.458184503833763, 1843049.661943270126358 ], [ 640576.717998769134283, 1843097.636805252404884 ], [ 640531.439351681270637, 1843138.389483272330835 ], [ 640486.986269964836538, 1843167.197401482844725 ], [ 640437.891647756099701, 1843188.229241926688701 ], [ 640387.592412542551756, 1843197.856217208318412 ], [ 640339.372858906630427, 1843199.419504915596917 ], [ 640272.694080579793081, 1843185.923472812166438 ], [ 640227.129629883915186, 1843173.009258589008823 ], [ 640192.499827304272912, 1843151.647011732216924 ], [ 640162.8393533998169, 1843120.690917836036533 ], [ 640142.85913859331049, 1843077.405686152400449 ], [ 640105.880792721640319, 1843007.673815652728081 ], [ 640070.944033500272781, 1842968.052427947288379 ], [ 640044.115499467705376, 1842944.307450477266684 ], [ 639990.87954891868867, 1842913.860570836579427 ], [ 639935.793448278564028, 1842872.779229510808364 ], [ 639915.490925651276484, 1842845.979091143701226 ], [ 639904.234383738832548, 1842822.225946330698207 ], [ 639900.265947156818584, 1842793.098792714299634 ], [ 639907.360552252037451, 1842768.47031266358681 ], [ 639922.305501707014628, 1842750.311123507330194 ], [ 639956.197302005253732, 1842738.030231266049668 ], [ 640012.163143429905176, 1842726.447699869982898 ], [ 640073.333343488862738, 1842718.219045385951176 ], [ 640145.402831605519168, 1842706.964038694510236 ], [ 640202.690264840610325, 1842689.083599009783939 ], [ 640256.900817540939897, 1842668.748735019704327 ], [ 640293.126006909180433, 1842642.320426137885079 ], [ 640324.147010528715327, 1842612.5383751464542 ], [ 640348.931512679555453, 1842574.195176950888708 ], [ 640364.832282344577834, 1842540.551456649554893 ], [ 640374.391296538058668, 1842498.124558256473392 ], [ 640376.484370650490746, 1842455.648475936148316 ], [ 640357.912391575635411, 1842279.480886176461354 ], [ 640354.729860754217952, 1842082.501733852084726 ], [ 640353.688954857294448, 1842046.201463406672701 ], [ 640351.449570182827301, 1842029.921070292126387 ], [ 640345.034167869482189, 1841999.892498813569546 ], [ 640320.48607319558505, 1841937.434562339214608 ], [ 640312.779337899759412, 1841925.322908940957859 ], [ 640295.591558013344184, 1841911.378441671840847 ], [ 640278.04663986095693, 1841903.074820887530223 ], [ 640256.97175257652998, 1841896.297095713904127 ], [ 640238.85056049504783, 1841894.518102411180735 ], [ 640215.163421023869887, 1841895.690075365127996 ], [ 640203.003513651085086, 1841895.720737954135984 ], [ 640187.781046604039147, 1841891.083940784214064 ], [ 640170.349284348310903, 1841881.785302603850141 ], [ 640149.051129344967194, 1841860.289696939988062 ], [ 640047.613639287301339, 1841730.383193504530936 ], [ 639998.686861430178396, 1841676.728281752206385 ], [ 639973.758231883868575, 1841655.762295802123845 ], [ 639938.494362879777327, 1841633.068740204907954 ], [ 639893.834833550732583, 1841611.752047046553344 ], [ 639862.76393182342872, 1841600.261836120625958 ], [ 639828.898771092994139, 1841591.962206803495064 ], [ 639795.455878246109933, 1841584.32930466439575 ], [ 639745.928928514942527, 1841573.271507803816348 ], [ 639716.771277589024976, 1841562.789915336994454 ], [ 639700.216274491162039, 1841549.845986984670162 ], [ 639686.039693591883406, 1841532.049042468192056 ], [ 639679.752391325891949, 1841514.857048270758241 ], [ 639677.312857311568223, 1841496.47311207652092 ], [ 639677.073856512899511, 1841451.54751765076071 ], [ 639678.083511457894929, 1841395.1224731199909 ], [ 639701.638248912990093, 1841251.431392795871943 ], [ 639749.60438240878284, 1841061.316517657833174 ], [ 639849.287570556160063, 1840955.303076436044648 ], [ 639901.419594800216146, 1840878.411052998853847 ], [ 639969.808384157717228, 1840681.238215222721919 ], [ 640000.991281360969879, 1840627.113534836098552 ], [ 640030.992904044454917, 1840590.463894565822557 ], [ 640062.503805833403021, 1840567.655497707193717 ], [ 640099.276142955524847, 1840555.836087324656546 ], [ 640135.561529138940386, 1840553.197522650239989 ], [ 640166.229037087410688, 1840561.365845652064309 ], [ 640191.571715774829499, 1840584.437027948908508 ], [ 640211.911703084362671, 1840622.081220533698797 ], [ 640234.218798933550715, 1840701.23229858581908 ], [ 640248.377375768730417, 1840721.795730010839179 ], [ 640272.859169031842612, 1840745.967878781026229 ], [ 640364.416482407017611, 1840837.967558823758736 ], [ 640408.520259535056539, 1840879.087921326747164 ], [ 640476.43292866460979, 1840981.665634059812874 ], [ 640559.351469301851466, 1841008.436188217252493 ], [ 640643.838156069861725, 1841007.665405894163996 ], [ 640713.260265935445204, 1840978.247670830925927 ], [ 640753.931386900832877, 1840941.337424643337727 ], [ 640760.076122266240418, 1840883.06505467905663 ], [ 640700.441640930017456, 1840625.298085772898048 ], [ 640692.820687353378162, 1840600.13011875981465 ], [ 640689.221530600218102, 1840563.591665072366595 ], [ 640719.488975040614605, 1840308.962870398536325 ], [ 640721.506672663846985, 1840277.994001116370782 ], [ 640718.707531383261085, 1840249.538326112087816 ], [ 640715.220937052858062, 1840228.27040946460329 ], [ 640707.800748899229802, 1840204.98484075604938 ], [ 640690.523873435799032, 1840172.007675050292164 ], [ 640570.312891522306018, 1840008.669674400938675 ], [ 640526.30319288733881, 1839969.209506969200447 ], [ 640476.813131097122096, 1839935.799143477110192 ], [ 640217.43089758430142, 1839830.967009738786146 ], [ 640174.194352218764834, 1839803.573625208809972 ], [ 640115.902814066037536, 1839762.028894823975861 ], [ 639824.720384582527913, 1839446.647101144306362 ], [ 639808.129487004829571, 1839422.637988006230444 ], [ 639798.274668660596944, 1839379.973129883641377 ], [ 639805.273273042985238, 1839337.529305038042367 ], [ 639820.764375015744008, 1839301.448165253968909 ], [ 639852.786861354135908, 1839265.917931521311402 ], [ 639891.524031322798692, 1839231.316940588178113 ], [ 639977.770633331732824, 1839174.676133182132617 ], [ 640026.476680582854897, 1839132.837810927303508 ], [ 640141.225224637426436, 1838992.179711092496291 ], [ 640280.092005033628084, 1838623.077048821607605 ], [ 640332.028705902048387, 1838560.67956026038155 ], [ 640394.841618323465809, 1838499.128225268330425 ], [ 640494.737269735545851, 1838427.86242697830312 ], [ 640605.586073373560794, 1838345.825411606114358 ], [ 640673.335281882667914, 1838280.102572243195027 ], [ 640923.128441818407737, 1838143.214748323662207 ], [ 641118.934105016058311, 1838088.407578590558842 ], [ 641280.507132461993024, 1838031.826587163377553 ], [ 641371.217346251360141, 1837979.093068336835131 ], [ 641404.668820369173773, 1837921.776103969430551 ], [ 641397.610596183105372, 1837859.875656026182696 ], [ 641358.155551755917259, 1837760.360924407606944 ], [ 641295.693437540438026, 1837671.316608633613214 ], [ 641272.171698022517376, 1837582.197990036802366 ], [ 641297.528320130892098, 1837490.636298092780635 ], [ 641354.923157932818867, 1837426.506574736908078 ], [ 641416.066217084415257, 1837408.653751395875588 ], [ 641574.00637244025711, 1837418.219613255932927 ], [ 641771.784243991831318, 1837308.658709052018821 ], [ 641805.838189118541777, 1837257.321372997947037 ], [ 641794.206057659699582, 1837161.309967358596623 ], [ 641750.021447563776746, 1837083.229400086449459 ], [ 641685.567518646130338, 1837020.94829220790416 ], [ 641592.419604336493649, 1837022.21211118856445 ], [ 641435.733700583921745, 1837096.749120774678886 ], [ 641315.066048428881913, 1837113.32311151153408 ], [ 641249.211521878954954, 1837101.380147562595084 ], [ 641135.1080280484166, 1837044.85854578926228 ], [ 641042.796859508380294, 1837000.2103364050854 ], [ 640935.685547886416316, 1836967.193912882823497 ], [ 640866.154598141554743, 1836930.220961320446804 ], [ 640833.183468261035159, 1836898.468358103418723 ], [ 640813.069264009012841, 1836826.081180057954043 ], [ 640788.873299661208875, 1836725.451325290137902 ], [ 640827.180053440504707, 1836643.711743141058832 ], [ 640925.530124245327897, 1836436.115850502625108 ], [ 641006.080394320655614, 1836371.695132950553671 ], [ 641064.245339435641654, 1836352.825607768259943 ], [ 641111.179805576102808, 1836354.352443303912878 ], [ 641270.250740765943192, 1836420.02266574697569 ], [ 641323.667322575696744, 1836441.620550229679793 ], [ 641385.645973052247427, 1836443.02614441793412 ], [ 641465.844171638833359, 1836432.04894085158594 ], [ 641539.386846556095406, 1836427.224407140864059 ], [ 641586.017989351414144, 1836426.20532812946476 ], [ 641651.239531962783076, 1836437.370419803541154 ], [ 641735.647125580115244, 1836451.318504441529512 ], [ 641831.414386441814713, 1836473.751735870260745 ], [ 641873.847250309539959, 1836478.348630602937192 ], [ 641909.702951695304364, 1836477.258768130792305 ], [ 641944.557898340979591, 1836466.203752246452495 ], [ 641968.347525103832595, 1836450.538634835043922 ], [ 641985.635132919996977, 1836433.945157640380785 ], [ 642013.09382588241715, 1836379.908623954514042 ] ] } },
{ "type": "Feature", "properties": { "edge_id": 1, "u": 2, "v": 3, "length_m": 12884.813044396213, "source": "osm", "waterway_tag": "river", "name": "แคววังทอง" }, "geometry": { "type": "LineString", "coordinates": [ [ 641545.788049227325246, 1826744.053323180181906 ], [ 641728.124479176942259, 1826837.536283670226112 ], [ 641749.250005542649888, 1826838.892696535680443 ], [ 641767.636895951582119, 1826834.698585198959336 ], [ 641824.665944492910057, 1826797.785717053106055 ], [ 641896.077476700651459, 1826765.061937425518408 ], [ 641947.440550507162698, 1826745.705293918261304 ], [ 641975.429398037376814, 1826742.238640495808795 ], [ 642016.894033963792026, 1826750.921857080189511 ], [ 642061.985464263008907, 1826776.11594825820066 ], [ 642128.261458136490546, 1826842.169330917764455 ], [ 642177.008462493075058, 1826895.60358789563179 ], [ 642213.701393782976083, 1826964.006631825584918 ], [ 642255.363892377354205, 1827023.369347323663533 ], [ 642289.724668933544308, 1827057.013037397060543 ], [ 642340.496237036422826, 1827078.593944316031411 ], [ 642410.936094900360331, 1827095.879262781469151 ], [ 642443.678224625764415, 1827116.013200024375692 ], [ 642448.608940008911304, 1827128.991929594194517 ], [ 642447.43455660471227, 1827145.139057022985071 ], [ 642416.069336018757895, 1827191.072312988573685 ], [ 642393.897239681566134, 1827234.964150518877432 ], [ 642353.031787779415026, 1827264.900944697204977 ], [ 642288.709150999202393, 1827307.185968983452767 ], [ 642242.164452770724893, 1827340.515507652191445 ], [ 642211.929494603769854, 1827377.051240600645542 ], [ 642200.842784809530713, 1827423.340233747847378 ], [ 642198.521912239142694, 1827483.739773419452831 ], [ 642202.867610004497692, 1827520.614974486874416 ], [ 642228.98728786164429, 1827557.523614702746272 ], [ 642281.27587893686723, 1827591.617977461311966 ], [ 642320.160848671104759, 1827618.874060818692669 ], [ 642395.764351416495629, 1827678.130063782446086 ], [ 642425.214162333635613, 1827711.741553466068581 ], [ 642429.365732796490192, 1827745.628003751393408 ], [ 642424.594441288500093, 1827773.037609370658174 ], [ 642386.082904106355272, 1827850.569421677151695 ], [ 642352.235780133167282, 1827916.845876369858161 ], [ 642295.62147993023973, 1828004.216397833544761 ], [ 642275.091325129847974, 1828058.188332175835967 ], [ 642274.177657323540188, 1828099.454763095127419 ], [ 642293.759586302214302, 1828140.303679256699979 ], [ 642321.604985510697588, 1828174.347053953679278 ], [ 642381.40832227258943, 1828201.631289337063208 ], [ 642411.929782251711003, 1828234.475384924793616 ], [ 642419.533178818761371, 1828262.852230192394927 ], [ 642410.808613984845579, 1828290.899534052470699 ], [ 642391.613724811468273, 1828320.537189335562289 ], [ 642359.525350206997246, 1828346.991205682046711 ], [ 642341.632572578731924, 1828373.428672245703638 ], [ 642298.719695738400333, 1828390.516434747260064 ], [ 642262.857502865954302, 1828406.655119794653729 ], [ 642237.326441030949354, 1828442.226034015417099 ], [ 642225.505385490949266, 1828486.629103255691007 ], [ 642230.511316898860969, 1828536.565447833854705 ], [ 642250.317298310110345, 1828575.756098010344431 ], [ 642274.36468962719664, 1828603.024653778411448 ], [ 642314.891984660644084, 1828655.962616913253441 ], [ 642343.102710447623394, 1828731.391678815940395 ], [ 642367.730011930456385, 1828767.737525907112285 ], [ 642413.814938838477246, 1828803.34048705548048 ], [ 642472.384389539714903, 1828839.358331125229597 ], [ 642516.397382111637853, 1828849.387585026444867 ], [ 642531.703421092359349, 1828858.894436791073531 ], [ 642548.417672311188653, 1828881.356730452971533 ], [ 642553.261384155484848, 1828923.435989917023107 ], [ 642547.635753080947325, 1828966.994858856778592 ], [ 642524.892100123804994, 1829000.702882119221613 ], [ 642493.374085359391756, 1829021.73856708756648 ], [ 642436.129248960642144, 1829059.643765864195302 ], [ 642384.568539212807082, 1829077.337800397071987 ], [ 642345.049410961102694, 1829097.878029149025679 ], [ 642321.553279321291484, 1829132.466447282582521 ], [ 642318.100749697070569, 1829170.2859345683828 ], [ 642320.493464574916288, 1829227.950555164599791 ], [ 642306.33086299081333, 1829287.49714790773578 ], [ 642286.178250992903486, 1829332.951470903819427 ], [ 642269.389436469646171, 1829353.97440222883597 ], [ 642236.253024023957551, 1829377.765938096679747 ], [ 642178.116241910262033, 1829421.640921036247164 ], [ 642144.729232663172297, 1829451.074081330094486 ], [ 642116.514052253682166, 1829473.127963138278574 ], [ 642098.429993709782138, 1829512.510358350351453 ], [ 642102.196334579959512, 1829540.08717719418928 ], [ 642128.874125595437363, 1829572.905587611719966 ], [ 642166.936858202214353, 1829594.84506731457077 ], [ 642229.681079769623466, 1829596.477850896539167 ], [ 642285.657109580934048, 1829604.815620394423604 ], [ 642331.958863147068769, 1829607.446228618500754 ], [ 642380.542130033834837, 1829604.006304828915745 ], [ 642416.055466026300564, 1829608.003994782222435 ], [ 642444.049563744105399, 1829603.210473468294367 ], [ 642478.197312088450417, 1829587.835399519186467 ], [ 642528.954377877293155, 1829546.346517725847661 ], [ 642555.915905937086791, 1829536.345711837988347 ], [ 642591.299106030957773, 1829543.883632085286081 ], [ 642608.265243636909872, 1829576.52754231588915 ], [ 642605.211161901359446, 1829618.554395348066464 ], [ 642566.311519585317001, 1829690.550696945982054 ], [ 642510.612335167825222, 1829785.22947886143811 ], [ 642493.850779043626972, 1829802.158350429264829 ], [ 642445.23805815866217, 1829826.17874857946299 ], [ 642411.799568991875276, 1829847.31236749724485 ], [ 642394.724133169744164, 1829879.39831692003645 ], [ 642395.184882012894377, 1829922.554996233200654 ], [ 642393.022681416478008, 1829974.988901596516371 ], [ 642388.073293391382322, 1830029.285371901933104 ], [ 642368.293331396300346, 1830066.885904749855399 ], [ 642344.363001216202974, 1830134.887758105993271 ], [ 642338.272124738898128, 1830184.308048689970747 ], [ 642341.50687246164307, 1830227.593780656578019 ], [ 642375.735215850407258, 1830296.424066742183641 ], [ 642409.937148210825399, 1830337.038411337416619 ], [ 642461.584635735722259, 1830370.133767925435677 ], [ 642520.61018808290828, 1830401.065260677831247 ], [ 642538.538897044025362, 1830417.228667916962877 ], [ 642539.920480538159609, 1830434.167361459229141 ], [ 642531.971336531685665, 1830458.015046006068587 ], [ 642518.019581389031373, 1830485.806274587055668 ], [ 642496.645014614216052, 1830538.55520371068269 ], [ 642487.834294254542328, 1830579.658642687136307 ], [ 642492.465480715618469, 1830621.515261443564668 ], [ 642528.938196168746799, 1830705.741227173944935 ], [ 642560.460402605356649, 1830780.086492778733373 ], [ 642585.215096905361861, 1830844.981550893979147 ], [ 642603.070597482379526, 1830888.143287807004526 ], [ 642620.136996311834082, 1830905.518231643596664 ], [ 642647.377360339276493, 1830917.538972782436758 ], [ 642667.933653504471295, 1830939.695141836302355 ], [ 642694.020645378739573, 1830996.743049332406372 ], [ 642699.095035005942918, 1831052.102085033431649 ], [ 642694.453237038338557, 1831108.171035505598411 ], [ 642704.550491904257797, 1831162.456993988482282 ], [ 642738.683305594604462, 1831213.140801833709702 ], [ 642797.190832328400575, 1831257.347927997354418 ], [ 642843.838353727711365, 1831287.64490418904461 ], [ 642867.074265216011554, 1831323.982449557399377 ], [ 642878.543645448982716, 1831364.446353079052642 ], [ 642872.266389166237786, 1831393.616305337287486 ], [ 642841.996154895517975, 1831452.059497177600861 ], [ 642826.483322921441868, 1831505.953685128828511 ], [ 642826.814055482740514, 1831552.429164263419807 ], [ 642836.977008882677183, 1831596.757128725759685 ], [ 642862.234911233768798, 1831633.882730434415862 ], [ 642901.191097768140025, 1831649.190825024619699 ], [ 642955.851058594998904, 1831646.014371792552993 ], [ 643000.656674096477218, 1831648.304868184262887 ], [ 643038.522756739635952, 1831667.036125692306086 ], [ 643069.483193807071075, 1831697.11840444477275 ], [ 643081.210046423249878, 1831746.878861846867949 ], [ 643103.003491653129458, 1831775.350918261101469 ], [ 643146.287146853283048, 1831797.770032942062244 ], [ 643200.689054072834551, 1831801.231558761326596 ], [ 643312.762964681372978, 1831797.886354853631929 ], [ 643374.615994515828788, 1831788.23067400814034 ], [ 643473.436243175412528, 1831756.139074654318392 ], [ 643514.643843827070668, 1831753.869900676421821 ], [ 643563.243460237048566, 1831763.268655919237062 ], [ 643590.759415457141586, 1831781.710340809077024 ], [ 643603.534365509520285, 1831802.266342593822628 ], [ 643608.684631536249071, 1831829.963595347478986 ], [ 643605.544045965187252, 1831852.736668379977345 ], [ 643592.004341463441961, 1831898.566149602876976 ], [ 643545.476397805148736, 1831978.255230879876763 ], [ 643509.94651732838247, 1832041.088414259022102 ], [ 643509.827256534830667, 1832058.902426790678874 ], [ 643500.991129789035767, 1832071.67878816020675 ], [ 643494.561981637962162, 1832107.486672614468262 ], [ 643497.781137783778831, 1832136.720087236259133 ], [ 643512.006153160124086, 1832163.814168527489528 ], [ 643533.492554097203538, 1832206.116077282698825 ], [ 643540.751009806757793, 1832237.700228112982586 ], [ 643541.039279237040319, 1832258.39390172646381 ], [ 643534.074316988349892, 1832278.59639706579037 ], [ 643521.868048308882862, 1832300.64486347627826 ], [ 643493.083466201322153, 1832328.336189275607467 ], [ 643469.940426234155893, 1832358.167681749677286 ], [ 643462.388689254992642, 1832386.333138857968152 ], [ 643461.682629689690657, 1832428.043845037696883 ], [ 643477.082027942291461, 1832470.968880663393065 ], [ 643496.299840539461002, 1832501.415934171294793 ], [ 643524.040854204911739, 1832533.911809902871028 ], [ 643524.847084944020025, 1832556.932628929847851 ], [ 643517.871835115598515, 1832610.551675881491974 ], [ 643503.149989002617076, 1832657.701084411470219 ], [ 643485.718286602990702, 1832695.205712170572951 ], [ 643458.67117390956264, 1832718.482639072462916 ], [ 643429.249120899359696, 1832729.904037948930636 ], [ 643388.082083142362535, 1832758.287133448524401 ], [ 643359.98967112833634, 1832794.282041736179963 ], [ 643330.648089753929526, 1832841.555026012007147 ], [ 643286.96087529626675, 1832911.747504523722455 ], [ 643258.648181334836408, 1832964.781297896057367 ], [ 643254.930114419781603, 1832994.189598460914567 ], [ 643250.900414588279091, 1833054.246139254188165 ], [ 643261.045083231292665, 1833085.074951082468033 ], [ 643294.60475229122676, 1833125.023109603440389 ], [ 643330.848085037665442, 1833146.621216494357213 ], [ 643366.594035828020424, 1833146.860410157591105 ], [ 643444.52820089913439, 1833125.473198996391147 ], [ 643505.40979248273652, 1833116.918201870750636 ], [ 643555.383109744521789, 1833111.941761784022674 ], [ 643619.319820087519474, 1833125.205830670893192 ], [ 643697.219741657725535, 1833156.710548518225551 ], [ 643833.90674746397417, 1833237.296753524104133 ], [ 643887.42802359291818, 1833260.118397711543366 ], [ 643916.770587982959114, 1833308.116873411694542 ], [ 643950.069595942972228, 1833338.991036619292572 ], [ 643996.804626217694022, 1833355.34960456029512 ], [ 644063.0731950084446, 1833339.086844218662009 ], [ 644095.530456810840406, 1833336.428226597374305 ], [ 644149.554984739632346, 1833363.680012371158227 ], [ 644221.483545797993429, 1833426.018344157841057 ], [ 644275.471429652534425, 1833490.338476394070312 ], [ 644316.368938099127263, 1833565.303760183509439 ], [ 644319.838098495616578, 1833604.719069847138599 ], [ 644300.14027726824861, 1833661.682514459826052 ], [ 644245.968053063726984, 1833799.078669922892004 ], [ 644235.82969654945191, 1833862.634985966375098 ], [ 644240.299582202453166, 1833911.905008741654456 ], [ 644253.214545912109315, 1833974.731411831686273 ], [ 644275.409270683885552, 1834022.239797660615295 ], [ 644278.856652471004054, 1834049.04069585679099 ], [ 644266.827296313364059, 1834076.511869708774611 ], [ 644187.815458535449579, 1834147.349851445527747 ], [ 644085.945927821449004, 1834221.68573825317435 ], [ 643971.594551565940492, 1834279.893655846826732 ], [ 643933.500281253596768, 1834327.660216828109697 ], [ 643938.377370571251959, 1834379.920473449397832 ], [ 643944.288804173585959, 1834405.299395886948332 ], [ 643962.971093321335502, 1834467.389826947124675 ], [ 643960.976904011215083, 1834605.248107363004237 ], [ 643946.80351596721448, 1834697.768044008873403 ], [ 643925.166383735602722, 1834773.640077323419973 ], [ 643931.686151368776336, 1834819.604273998411372 ], [ 643964.252840767614543, 1834847.928788533899933 ], [ 644019.381215542089194, 1834853.279014634899795 ], [ 644096.27184933447279, 1834859.329157089116052 ], [ 644137.712670859415084, 1834884.947423191508278 ], [ 644145.178779026260599, 1834932.909831898519769 ], [ 644143.842153407400474, 1834988.77986593847163 ], [ 644115.395533360657282, 1835077.552124630892649 ], [ 644088.580530822277069, 1835130.041686146752909 ], [ 644059.813694572425447, 1835171.342325944220647 ], [ 644034.309426993713714, 1835187.657711489591748 ], [ 644012.562586827320047, 1835200.568215938052163 ] ] } },
{ "type": "Feature", "properties": { "edge_id": 2, "u": 3, "v": 4, "length_m": 2610.9855765403572, "source": "osm", "waterway_tag": "river", "name": "แคววังทอง" }, "geometry": { "type": "LineString", "coordinates": [ [ 644012.562586827320047, 1835200.568215938052163 ], [ 643942.8986307248706, 1835198.99294609692879 ], [ 643860.135516424197704, 1835177.85517336986959 ], [ 643800.259525348199531, 1835164.617131605977193 ], [ 643765.280104650766589, 1835161.947754354448989 ], [ 643732.071378051186912, 1835165.708110247738659 ], [ 643691.722015360253863, 1835184.137198198121041 ], [ 643595.065713384421542, 1835245.78504240186885 ], [ 643496.999966890318319, 1835310.854018197394907 ], [ 643456.477779984008521, 1835323.307183107361197 ], [ 643380.817171626491472, 1835340.946826426777989 ], [ 643253.588305487879552, 1835379.486419478664175 ], [ 643179.292107715038583, 1835384.632296989904717 ], [ 643126.798465531901456, 1835400.325482138432562 ], [ 643081.984983480302617, 1835464.203402901533991 ], [ 643037.701936828903854, 1835496.660021752119064 ], [ 643014.699439078802243, 1835506.02223600470461 ], [ 642988.103440481121652, 1835510.270503433188424 ], [ 642970.064289468107745, 1835511.367103927768767 ], [ 642949.405888413311914, 1835505.253895921166986 ], [ 642934.505172903765924, 1835499.732431867858395 ], [ 642855.45182828058023, 1835450.407288521761075 ], [ 642840.769611034076661, 1835444.112796731293201 ], [ 642823.303772856132127, 1835439.238196277758107 ], [ 642802.200774255208671, 1835435.777796613518149 ], [ 642781.183048756676726, 1835435.526867099804804 ], [ 642758.746571806957945, 1835440.024484854191542 ], [ 642731.593484423472546, 1835447.810187993105501 ], [ 642710.715353530365974, 1835458.625357614364475 ], [ 642669.524787955451757, 1835491.435274647548795 ], [ 642604.437964235665277, 1835587.710260874824598 ], [ 642538.256036144215614, 1835688.293494916753843 ], [ 642510.593244897783734, 1835772.64650070737116 ], [ 642486.219623293727636, 1835859.787715230835602 ], [ 642450.459979738574475, 1835926.382687931414694 ], [ 642414.035497681703418, 1835980.691026658285409 ], [ 642366.143960792920552, 1836026.624260956421494 ], [ 642292.33889609342441, 1836070.614744591992348 ], [ 642219.186782175442204, 1836144.81748500559479 ], [ 642164.196533292997628, 1836231.534064834238961 ], [ 642124.078892029239796, 1836279.843112391419709 ], [ 642092.39190775481984, 1836311.831921483157203 ], [ 642051.138388364342973, 1836338.445977862225845 ], [ 642019.256597645930015, 1836367.667316923150793 ], [ 642013.09382588241715, 1836379.908623954514042 ] ] } },
{ "type": "Feature", "properties": { "edge_id": 3, "u": 3, "v": 10, "length_m": 5987.0597680003375, "source": "osm", "waterway_tag": "river", "name": null }, "geometry": { "type": "LineString", "coordinates": [ [ 644012.562586827320047, 1835200.568215938052163 ], [ 644153.848651962354779, 1835388.188840162707493 ], [ 644166.575148075935431, 1835415.494888468645513 ], [ 644171.604786370415241, 1835444.962111092638224 ], [ 644164.534244055277668, 1835512.522604073164985 ], [ 644172.583371125743724, 1835553.075342112220824 ], [ 644198.124762677121907, 1835578.697365306084976 ], [ 644219.901252123527229, 1835593.007573811337352 ], [ 644248.151628381456248, 1835596.628247956279665 ], [ 644296.717598650371656, 1835593.857534924289212 ], [ 644328.570936306146905, 1835585.330932526150718 ], [ 644361.335336783668026, 1835568.29034164105542 ], [ 644391.91077469731681, 1835543.600053400499746 ], [ 644435.490867554908618, 1835520.768027337966487 ], [ 644572.338446822715923, 1835464.374752609990537 ], [ 644617.880793513962999, 1835419.647271966328844 ], [ 644650.166096905595623, 1835394.636915899114683 ], [ 644684.578311943565495, 1835386.460064323851839 ], [ 644720.78081572544761, 1835397.548797349212691 ], [ 644797.742805162677541, 1835455.829812707845122 ], [ 644841.047903786064126, 1835473.716603422770277 ], [ 644877.861589748063125, 1835473.301959579344839 ], [ 644920.760286892997101, 1835456.662761938991025 ], [ 644978.43704928457737, 1835400.621032567927614 ], [ 645013.746819992200471, 1835354.497155593009666 ], [ 645035.535453352029435, 1835335.502053283154964 ], [ 645067.741143328836188, 1835322.331500747939572 ], [ 645105.891736500663683, 1835313.627390871988609 ], [ 645141.159369415603578, 1835305.235745564103127 ], [ 645190.696215188479982, 1835285.322515676030889 ], [ 645209.028810998192057, 1835272.500635258853436 ], [ 645224.726359202293679, 1835254.902845580363646 ], [ 645235.355163206462748, 1835229.525015963474289 ], [ 645242.10613088181708, 1835193.830226360820234 ], [ 645250.947453432250768, 1835164.56744678504765 ], [ 645263.301474167499691, 1835136.545688276179135 ], [ 645282.121868402929977, 1835114.764352128608152 ], [ 645300.875433099339716, 1835102.830610177014023 ], [ 645324.712826371891424, 1835096.464012226788327 ], [ 645352.450616274611093, 1835097.095014898339286 ], [ 645380.248495745239779, 1835104.586892352439463 ], [ 645401.813671140000224, 1835118.564930312102661 ], [ 645420.29209535557311, 1835147.128095535328612 ], [ 645430.439232916804031, 1835176.962481337832287 ], [ 645434.152308983262628, 1835211.511184629751369 ], [ 645430.34184193238616, 1835254.086359248962253 ], [ 645422.321512447437271, 1835288.112706542946398 ], [ 645408.717092443606816, 1835311.699803809402511 ], [ 645384.235155417118222, 1835334.438426882494241 ], [ 645351.111802014056593, 1835357.007714061765 ], [ 645329.77070219872985, 1835372.907298079458997 ], [ 645317.055307304719463, 1835391.299832267453894 ], [ 645311.250982027617283, 1835413.280178173212335 ], [ 645304.758426610496826, 1835426.624986660666764 ], [ 645296.398745395708829, 1835432.10081702331081 ], [ 645284.609844215679914, 1835439.766404880443588 ], [ 645279.429943875293247, 1835448.362093273783103 ], [ 645275.365071798209101, 1835465.596217523561791 ], [ 645277.813011013902724, 1835497.923252886626869 ], [ 645283.684895926387981, 1835513.122466001659632 ], [ 645297.518181280698627, 1835534.350965945981443 ], [ 645310.331855769036338, 1835548.601468353997916 ], [ 645318.612579753273167, 1835554.743582854280248 ], [ 645331.605833540903404, 1835558.262063774513081 ], [ 645357.629920704988763, 1835559.766698697116226 ], [ 645384.984704409376718, 1835553.866714709671214 ], [ 645401.43875639163889, 1835550.548324716743082 ], [ 645417.119638437405229, 1835551.097517153946683 ], [ 645431.351830244297162, 1835560.710350842913613 ], [ 645442.961066520074382, 1835563.776883800281212 ], [ 645460.355048411875032, 1835563.452538214158267 ], [ 645497.306228238274343, 1835558.503165859961882 ], [ 645514.202126333140768, 1835552.974822281394154 ], [ 645530.826880024978891, 1835540.252252935199067 ], [ 645547.390127178048715, 1835520.890143411466852 ], [ 645565.734066243865527, 1835506.408858466893435 ], [ 645587.878335742745548, 1835497.928669494576752 ], [ 645630.566528753261082, 1835480.957462227204815 ], [ 645657.497001248411834, 1835474.722966948989779 ], [ 645686.079587036976591, 1835476.577370508573949 ], [ 645697.833215446677059, 1835474.112409961875528 ], [ 645704.800704583059996, 1835469.401813230244443 ], [ 645711.814920071512461, 1835457.831095187459141 ], [ 645719.212207131553441, 1835452.68082064203918 ], [ 645727.86872010549996, 1835450.637389705982059 ], [ 645753.870336935506202, 1835455.461913400096819 ], [ 645768.602366160252132, 1835454.34510918147862 ], [ 645784.763639129931107, 1835447.041524502914399 ], [ 645796.137273811153136, 1835437.713582592783496 ], [ 645806.095243083895184, 1835432.580786217469722 ], [ 645817.407810456119478, 1835432.215276538627222 ], [ 645844.668645626748912, 1835440.146758177084848 ], [ 645883.65673007897567, 1835449.48606730485335 ], [ 645896.220191792002879, 1835453.444571698550135 ], [ 645904.4386332181748, 1835453.058008853346109 ], [ 645912.253693546401337, 1835449.238474549725652 ], [ 645917.976385963149369, 1835439.31879155151546 ], [ 645927.103478232398629, 1835430.860810955055058 ], [ 645935.861437482410111, 1835429.592720319516957 ], [ 645953.105094919796102, 1835435.685578233795241 ], [ 645984.639923231326975, 1835458.363169810036197 ], [ 645999.251916700624861, 1835474.83943735784851 ], [ 646014.873972111614421, 1835484.019551204284653 ], [ 646031.228520265081897, 1835495.307073634350672 ], [ 646044.174143941490911, 1835505.796771639492363 ], [ 646053.223643637727946, 1835524.337507359683514 ], [ 646060.070336430217139, 1835537.3305867719464 ], [ 646063.191817324142903, 1835548.970405276864767 ], [ 646066.361060244264081, 1835569.241441677790135 ], [ 646068.097953940043226, 1835596.141846381360665 ], [ 646067.605619327980094, 1835621.367243921617046 ], [ 646053.865082338918, 1835774.195120145566761 ], [ 646046.361103865667246, 1835919.983835411956534 ], [ 646062.564270592527464, 1836047.123536925530061 ], [ 646104.165715373004787, 1836204.755578831071034 ], [ 646145.271382656181231, 1836309.935074186651036 ], [ 646160.480647706077434, 1836410.62221003533341 ], [ 646156.755204435554333, 1836534.195673304377124 ], [ 646115.240652158274315, 1836754.331857356708497 ], [ 646097.745312557555735, 1836910.121782635804266 ], [ 646108.959121798397973, 1837033.354777101194486 ], [ 646148.495828395127319, 1837196.063140927813947 ], [ 646178.363715497544035, 1837321.636868946021423 ], [ 646189.417763066245243, 1837436.901921830140054 ], [ 646187.664323035744019, 1837552.853947478812188 ], [ 646160.964538636151701, 1837634.886251249583438 ], [ 646035.482568118954077, 1837855.886839093640447 ], [ 646006.552420399850234, 1837936.576199227711186 ], [ 646017.80651517084334, 1838053.834291168022901 ], [ 645976.167229151935317, 1838120.937182447407395 ], [ 645969.302768289344385, 1838157.516304884338751 ] ] } },
{ "type": "Feature", "properties": { "edge_id": 4, "u": 4, "v": 28, "length_m": 3864.3966575264544, "source": "osm", "waterway_tag": "canal", "name": null }, "geometry": { "type": "LineString", "coordinates": [ [ 642013.09382588241715, 1836379.908623954514042 ], [ 641974.760454018949531, 1836368.478338045766577 ], [ 641932.968970852904022, 1836363.664215470431373 ], [ 641909.619039004086517, 1836361.296223086770624 ], [ 641890.258401396102272, 1836352.647635955596343 ], [ 641865.802179059479386, 1836324.048129899660125 ], [ 641839.059668100671843, 1836286.249483740190044 ], [ 641829.99016762629617, 1836270.255625954363495 ], [ 641818.801275460980833, 1836235.990352600347251 ], [ 641808.584577494882978, 1836216.005474767414853 ], [ 641796.134736334555782, 1836194.899289533263072 ], [ 641787.863750130403787, 1836155.010205379221588 ], [ 641774.353232546593063, 1836116.856803660513833 ], [ 641766.619276280864142, 1836076.418043066048995 ], [ 641758.271550409495831, 1836031.991797450464219 ], [ 641756.76399935700465, 1836001.884828835027292 ], [ 641754.144809735473245, 1835978.520182863110676 ], [ 641743.044698469457217, 1835914.711849694838747 ], [ 641740.855519745964557, 1835842.55313278385438 ], [ 641744.484072952065617, 1835794.112205726094544 ], [ 641741.761799888452515, 1835770.193632587790489 ], [ 641730.504257249762304, 1835746.218505306402221 ], [ 641722.13720840960741, 1835704.669091121992096 ], [ 641705.17472367384471, 1835672.136091627879068 ], [ 641700.752648969879374, 1835647.099765288643539 ], [ 641700.018167002010159, 1835613.01451962464489 ], [ 641687.101352394092828, 1835565.681167023489252 ], [ 641676.945421354146674, 1835552.557137774303555 ], [ 641665.342402746318839, 1835548.496877889148891 ], [ 641636.21922597498633, 1835547.750788528937846 ], [ 641604.73052296123933, 1835549.755344225792214 ], [ 641582.360195848043077, 1835560.4510325610172 ], [ 641541.041794217773713, 1835580.647961304523051 ], [ 641470.226610487443395, 1835640.484051708132029 ], [ 641401.766340270987712, 1835699.229409323306754 ], [ 641317.071941598202102, 1835760.523310024756938 ], [ 641232.763862874591723, 1835811.86152386222966 ], [ 641169.651583415688947, 1835836.451880318811163 ], [ 641117.530607571592554, 1835844.62802188238129 ], [ 641057.993190938956104, 1835844.899201483232901 ], [ 641016.117267349734902, 1835836.545604221988469 ], [ 640987.701770422980189, 1835825.625204298412427 ], [ 640950.473255000077188, 1835808.229050861438736 ], [ 640878.753270387649536, 1835762.832555876579136 ], [ 640847.649636403075419, 1835738.837923803599551 ], [ 640774.705690723028965, 1835652.382533029187471 ], [ 640729.416137999389321, 1835595.21034519886598 ], [ 640671.295253319549374, 1835526.003682527225465 ], [ 640609.91360095073469, 1835465.84909003553912 ], [ 640504.158143930835649, 1835371.323024444049224 ], [ 640401.201904251123779, 1835272.832532699452713 ], [ 640317.017654430237599, 1835191.505807580659166 ], [ 640273.705174411414191, 1835141.65064555243589 ], [ 640233.515604498796165, 1835087.390058567514643 ], [ 640155.777822642121464, 1834982.759212801000103 ], [ 640105.312907639192417, 1834917.034695003181696 ], [ 640071.199225590913557, 1834879.85434277029708 ], [ 640033.089216168038547, 1834850.061443934915587 ], [ 640004.047725697397254, 1834836.704113834071904 ], [ 639973.665801511611789, 1834832.521991308545694 ], [ 639944.946126186638139, 1834835.211068057222292 ], [ 639914.518985047005117, 1834854.265184491639957 ], [ 639887.304339491180144, 1834904.21161943115294 ], [ 639842.704565256368369, 1834985.800943735754117 ], [ 639746.720982142724097, 1835142.296516339527443 ], [ 639658.613017449621111, 1835302.052675119368359 ], [ 639614.889323081588373, 1835380.43924389895983 ] ] } },
{ "type": "Feature", "properties": { "edge_id": 5, "u": 6, "v": 7, "length_m": 1804.6783810733882, "source": "osm", "waterway_tag": "canal", "name": null }, "geometry": { "type": "LineString", "coordinates": [ [ 639425.130705994321033, 1836288.741949600633234 ], [ 639317.463876127498224, 1836274.651604478945956 ], [ 639261.986478034872562, 1836257.914090316276997 ], [ 639163.730612978921272, 1836191.216627859510481 ], [ 639127.278426986187696, 1836152.805342772044241 ], [ 639079.67189239023719, 1836090.531936924206093 ], [ 639009.484286826569587, 1836005.98197849909775 ], [ 638950.093861522618681, 1835950.935201779240742 ], [ 638861.22356064338237, 1835884.410961235640571 ], [ 638827.467290534870699, 1835824.994397521484643 ], [ 638796.25743063155096, 1835701.971032090485096 ], [ 638808.249062737450004, 1835613.308039914583787 ], [ 638863.815137201570906, 1835518.067592572653666 ], [ 638914.299663474084809, 1835466.058179849525914 ], [ 638953.514234727248549, 1835457.23959239362739 ], [ 639026.678061523823999, 1835478.185067697893828 ], [ 639170.682120841811411, 1835467.171219299081713 ], [ 639298.00935254432261, 1835444.763480720110238 ], [ 639361.961430383496918, 1835422.054209375288337 ], [ 639428.880860158707947, 1835386.086503194179386 ], [ 639466.203593867365271, 1835356.565017695305869 ], [ 639489.121566132642329, 1835327.170971346553415 ] ] } },
{ "type": "Feature", "properties": { "edge_id": 6, "u": 6, "v": 28, "length_m": 966.14770303305477, "source": "osm", "waterway_tag": "canal", "name": null }, "geometry": { "type": "LineString", "coordinates": [ [ 639425.130705994321033, 1836288.741949600633234 ], [ 639448.74970644665882, 1836282.588929573539644 ], [ 639473.411178115289658, 1836263.828666121000424 ], [ 639489.111077994573861, 1836228.63381087151356 ], [ 639493.014881423790939, 1836186.280432907864451 ], [ 639471.703961301944219, 1835969.378674350911751 ], [ 639461.704760188120417, 1835833.878266150597483 ], [ 639462.14049395499751, 1835767.048708515707403 ], [ 639473.434800607501529, 1835703.941391207976267 ], [ 639490.323958897497505, 1835633.678332213312387 ], [ 639542.016449534567073, 1835511.194327968172729 ], [ 639582.717626241035759, 1835438.099108661524951 ], [ 639614.889323081588373, 1835380.43924389895983 ] ] } },
{ "type": "Feature", "properties": { "edge_id": 7, "u": 6, "v": 6, "length_m": 9.9729247919050046, "source": "osm", "waterway_tag": "canal", "name": null }, "geometry": { "type": "LineString", "coordinates": [ [ 639587.575774845201522, 1835429.389480595709756 ], [ 639582.717626241035759, 1835438.099108661524951 ] ] } },
{ "type": "Feature", "properties": { "edge_id": 8, "u": 6, "v": 6, "length_m": 12.090725724972945, "source": "osm", "waterway_tag": "stream", "name": null }, "geometry": { "type": "LineString", "coordinates": [ [ 639433.365066888276488, 1836416.706704742042348 ], [ 639432.590219543781132, 1836404.640833030920476 ] ] } },
{ "type": "Feature", "properties": { "edge_id": 9, "u": 6, "v": 6, "length_m": 12.401560578790964, "source": "osm", "waterway_tag": "stream", "name": null }, "geometry": { "type": "LineString", "coordinates": [ [ 638925.128626738907769, 1838560.332908964483067 ], [ 638931.598269218928181, 1838549.752623950829729 ] ] } },
{ "type": "Feature", "properties": { "edge_id": 10, "u": 6, "v": 31, "length_m": 5577.5673247517816, "source": "osm", "waterway_tag": "canal", "name": null }, "geometry": { "type": "LineString", "coordinates": [ [ 639425.130705994321033, 1836288.741949600633234 ], [ 639432.590219543781132, 1836404.640833030920476 ], [ 639434.432554008322768, 1836432.979174290085211 ], [ 639434.235573538462631, 1836463.18526305956766 ], [ 639427.053481489536352, 1836501.091281686676666 ], [ 639415.996898659039289, 1836527.796415502438322 ], [ 639385.872352888109162, 1836566.327402910450473 ], [ 639340.850829640286975, 1836615.162401546258479 ], [ 639322.452579955104738, 1836638.832182797137648 ], [ 639311.859700207365677, 1836659.897245232481509 ], [ 639305.197610000614077, 1836683.532867349451408 ], [ 639302.036673594499007, 1836710.178845735033974 ], [ 639312.230076377745718, 1836750.411108313128352 ], [ 639329.308222656487487, 1836781.946924096439034 ], [ 639347.481348096975125, 1836792.79839875898324 ], [ 639369.98892605653964, 1836793.387724036350846 ], [ 639394.787386134034023, 1836786.246529490454122 ], [ 639563.0806575283641, 1836714.094402281101793 ], [ 639581.349099477403797, 1836710.340927576879039 ], [ 639604.806106190662831, 1836712.596439541783184 ], [ 639628.973050392814912, 1836720.499755595577881 ], [ 639646.283945506438613, 1836732.673657948384061 ], [ 639735.150127400062047, 1836815.245892377570271 ], [ 639786.391596033237875, 1836859.508913826663047 ], [ 639832.845376335200854, 1836918.014598301844671 ], [ 639899.935208683251403, 1837018.4811471181456 ], [ 639934.330712554277852, 1837060.974592393264174 ], [ 639962.965350763057359, 1837119.695930971996859 ], [ 639986.627601410495117, 1837155.701500900555402 ], [ 640057.316824904293753, 1837227.644544791197404 ], [ 640079.170987696386874, 1837262.753193339100108 ], [ 640082.483296886202879, 1837278.265913696493953 ], [ 640077.280587153509259, 1837290.735270175850019 ], [ 640040.108177027199417, 1837330.215027722297236 ], [ 639963.374424779205583, 1837383.04565333831124 ], [ 639874.929981491761282, 1837432.14842027798295 ], [ 639763.745762772392482, 1837500.023923676693812 ], [ 639671.480236019589938, 1837562.601759994868189 ], [ 639615.788230096222833, 1837611.919610205106437 ], [ 639559.94860879285261, 1837667.543666636105627 ], [ 639531.519813485210761, 1837707.966504612704739 ], [ 639516.793118029483594, 1837741.286600665887818 ], [ 639508.408732861047611, 1837783.610756769310683 ], [ 639513.636982061434537, 1837816.175962642766535 ], [ 639535.858218626584858, 1837893.112111027119681 ], [ 639570.715503708459437, 1837979.093496194342151 ], [ 639588.479286859743297, 1838036.083628234220669 ], [ 639586.46548189537134, 1838066.72050288785249 ], [ 639578.09147145296447, 1838091.119421989889815 ], [ 639563.4422635800438, 1838112.600444954121485 ], [ 639545.206508580362424, 1838127.861649584723637 ], [ 639520.629361775703728, 1838134.008153792703524 ], [ 639492.513329975306988, 1838126.632285920204595 ], [ 639473.494538081926294, 1838114.779207614250481 ], [ 639462.713782249251381, 1838099.328484095167369 ], [ 639431.571492332383059, 1837999.87224782933481 ], [ 639408.414290624554269, 1837935.544197414303198 ], [ 639386.909661656012759, 1837879.525706857675686 ], [ 639350.07336917007342, 1837818.759951999410987 ], [ 639298.651934604626149, 1837769.628061717841774 ], [ 639265.034888931084424, 1837755.024439501576126 ], [ 639240.599441899335943, 1837755.750376425916329 ], [ 639221.415796427056193, 1837769.124634835403413 ], [ 639218.500811864272691, 1837790.792993565322831 ], [ 639230.589993593166582, 1837883.817580402130261 ], [ 639232.020633869571611, 1837942.581937200389802 ], [ 639221.881735971663147, 1837975.932094403076917 ], [ 639198.023151045665145, 1838002.775165762752295 ], [ 639166.138516710372642, 1838017.062548270914704 ], [ 639120.770623707212508, 1838021.303684236947447 ], [ 639081.637647978728637, 1838018.282625330612063 ], [ 639045.419553271029145, 1838009.969425214454532 ], [ 638962.925845520221628, 1837981.438274546759203 ], [ 638933.855123926885426, 1837973.171766384970397 ], [ 638899.392179092741571, 1837973.832860821392387 ], [ 638863.887142179533839, 1837987.10129506723024 ], [ 638844.639232584508136, 1838010.433907711412758 ], [ 638835.371661118697375, 1838041.134271570947021 ], [ 638838.758533060434274, 1838078.113260702462867 ], [ 638855.905163407325745, 1838099.026844156440347 ], [ 638893.848186632618308, 1838120.960853900760412 ], [ 638929.089649146073498, 1838148.188551209867001 ], [ 638958.819205332081765, 1838186.334775955416262 ], [ 638980.42389402363915, 1838227.083777624182403 ], [ 638991.84664444020018, 1838275.069430688628927 ], [ 638997.912448377930559, 1838326.561024400172755 ], [ 638997.542331676580943, 1838383.432575200917199 ], [ 638988.192564991535619, 1838426.746421842835844 ], [ 638969.610362522071227, 1838478.962821129476652 ], [ 638942.05595380498562, 1838532.891252284869552 ], [ 638931.598269218928181, 1838549.752623950829729 ], [ 638913.59341594693251, 1838578.847023739479482 ], [ 638851.106674541602843, 1838689.422291583614424 ], [ 638834.532899541198276, 1838728.152572530321777 ], [ 638821.496705419733189, 1838764.25026855384931 ], [ 638811.324216740438715, 1838802.911529553355649 ], [ 638806.5077682150295, 1838838.177471159258857 ], [ 638805.414133608224802, 1838875.127360404469073 ], [ 638817.239333715755492, 1839008.869087694212794 ], [ 638822.069580565439537, 1839102.731459568953142 ], [ 638822.597241524024867, 1839300.465972386766225 ], [ 638828.475125298136845, 1839380.835920193465427 ], [ 638840.722825774573721, 1839449.518436219543219 ], [ 638852.275416775606573, 1839493.853496066527441 ], [ 638863.76231395022478, 1839531.881102420855314 ], [ 638882.044405092252418, 1839574.821526393294334 ] ] } },
{ "type": "Feature", "properties": { "edge_id": 11, "u": 7, "v": 8, "length_m": 1535.0880759015849, "source": "osm", "waterway_tag": "canal", "name": null }, "geometry": { "type": "LineString", "coordinates": [ [ 639489.121566132642329, 1835327.170971346553415 ], [ 639510.532923123682849, 1835299.758814841276035 ], [ 639544.126541238743812, 1835187.668496788712218 ], [ 639549.478087032679468, 1835136.030016323551536 ], [ 639532.789682946982794, 1835060.900739596923813 ], [ 639481.384795188438147, 1834893.59537360817194 ], [ 639461.320614625117742, 1834796.092989675002173 ], [ 639426.753560484852642, 1834664.526757470099255 ], [ 639408.052940689725801, 1834619.702536537544802 ], [ 639332.524666272103786, 1834486.210057771997526 ], [ 639306.928725983016193, 1834435.144710297463462 ], [ 639286.769145130761899, 1834384.889323104871437 ], [ 639262.774131161277182, 1834333.723818321013823 ], [ 639245.441367474501021, 1834308.161701927892864 ], [ 639226.147716858307831, 1834288.783218488562852 ], [ 639200.439969525439665, 1834271.244089311221614 ], [ 639164.200799045851454, 1834248.767960749100894 ], [ 639107.321512939990498, 1834233.460636786185205 ], [ 639060.931892568129115, 1834229.507835848489776 ], [ 638973.540000985143706, 1834246.422955303220078 ], [ 638904.138448231737129, 1834269.872797327348962 ], [ 638863.589972618967295, 1834270.16299208952114 ], [ 638830.116514811175875, 1834265.409276925958693 ] ] } },
{ "type": "Feature", "properties": { "edge_id": 12, "u": 7, "v": 28, "length_m": 146.31803785061112, "source": "osm", "waterway_tag": "canal", "name": null }, "geometry": { "type": "LineString", "coordinates": [ [ 639489.121566132642329, 1835327.170971346553415 ], [ 639519.313058933592401, 1835360.452072161249816 ], [ 639541.294359258143231, 1835376.528976425528526 ], [ 639563.028450350277126, 1835381.428677076706663 ], [ 639614.889323081588373, 1835380.43924389895983 ] ] } },
{ "type": "Feature", "properties": { "edge_id": 13, "u": 10, "v": 20, "length_m": 5247.2380607603436, "source": "osm", "waterway_tag": "river", "name": null }, "geometry": { "type": "LineString", "coordinates": [ [ 647203.456706020515412, 1842376.237117260694504 ], [ 647173.651367516955361, 1842305.655553188174963 ], [ 647115.86593032150995, 1842224.479443868156523 ], [ 647066.189018391771242, 1842112.044535959837958 ], [ 647037.560905124526471, 1841963.460647311527282 ], [ 647007.382215429213829, 1841854.037488597910851 ], [ 646991.252591125201434, 1841780.009735428029671 ], [ 646966.684745885431767, 1841738.566600353457034 ], [ 646803.951713823829778, 1841624.025579001754522 ], [ 646779.407703922595829, 1841594.533437667414546 ], [ 646783.098236544989049, 1841554.281025751261041 ], [ 646859.718072672025301, 1841456.769792760722339 ], [ 646873.432924063177779, 1841416.918396938825026 ], [ 646864.296483879210427, 1841365.069682482397184 ], [ 646840.341201885836199, 1841296.520916817942634 ], [ 646815.898884404683486, 1841205.727521656546742 ], [ 646810.950219122692943, 1841072.356193949002773 ], [ 646839.967106596217491, 1840870.613666899967939 ], [ 646862.095199159695767, 1840817.320476604858413 ], [ 646890.061156635638326, 1840768.272332523716614 ], [ 646891.311480025877245, 1840741.613492907490581 ], [ 646903.154695400968194, 1840710.269514532061294 ], [ 646917.43769892572891, 1840618.968244589166716 ], [ 646925.265073546674103, 1840504.717281001387164 ], [ 646949.940860660746694, 1840422.339874138124287 ], [ 646932.513481324072927, 1840335.13568703760393 ], [ 646887.401220547966659, 1840271.531366100767627 ], [ 646832.761571610462852, 1840228.221793960547075 ], [ 646772.261892873328179, 1840214.859090815065429 ], [ 646726.219106748700142, 1840208.899091124301776 ], [ 646706.667840496520512, 1840197.69932751590386 ], [ 646694.77231927937828, 1840174.601675537182018 ], [ 646698.418402409995906, 1840125.27542702993378 ], [ 646672.419834620552137, 1840074.30689245602116 ], [ 646643.720133659662679, 1840028.299230229342356 ], [ 646592.027408857597038, 1839990.653938555857167 ], [ 646568.332134042866528, 1839961.500055784592405 ], [ 646568.555571630946361, 1839928.969579013530165 ], [ 646583.594463982619345, 1839867.217794879339635 ], [ 646578.072195104672574, 1839754.866975851124153 ], [ 646535.965356199070811, 1839672.694549937034026 ], [ 646507.426876959158108, 1839618.610592452110723 ], [ 646472.021628634422086, 1839601.327019684016705 ], [ 646447.317838322836906, 1839610.231046702945605 ], [ 646441.367309705703519, 1839653.455545963952318 ], [ 646418.905643945909105, 1839677.645099617308006 ], [ 646383.435597036033869, 1839685.368802323937416 ], [ 646357.821527886670083, 1839671.472164354752749 ], [ 646346.102533208671957, 1839638.085257877130061 ], [ 646350.849113430827856, 1839599.278611868387088 ], [ 646395.466258982429281, 1839471.116483849240467 ], [ 646400.926266611088067, 1839437.18346809130162 ], [ 646386.102239404572174, 1839405.435050445375964 ], [ 646353.352778107160702, 1839389.719070011982694 ], [ 646324.201866023358889, 1839393.724034318700433 ], [ 646297.320450330618769, 1839409.031190522946417 ], [ 646278.567260304349475, 1839390.202325672842562 ], [ 646285.383525995071977, 1839360.704707488184795 ], [ 646339.106847115093842, 1839304.750594709301367 ], [ 646350.946796129923314, 1839273.848941010655835 ], [ 646340.740257642464712, 1839175.40851584635675 ], [ 646358.271313636098057, 1839092.428346917033195 ], [ 646386.235798470443115, 1838997.015938845230266 ], [ 646383.539220705628395, 1838923.5239103063941 ], [ 646349.642351837595925, 1838841.629704792518169 ], [ 646300.504084448912181, 1838804.334910208359361 ], [ 646232.503880605218001, 1838795.127539729699492 ], [ 646196.486639801645651, 1838757.922870760783553 ], [ 646192.055319841136225, 1838672.800518106902018 ], [ 646159.369997906615026, 1838600.76311979512684 ], [ 646151.740354192676023, 1838515.286955946823582 ], [ 646128.235683625680394, 1838473.520677192369476 ], [ 646061.149110218626447, 1838455.357329102233052 ], [ 646035.676310343900695, 1838436.150869652396068 ], [ 646023.091071505565196, 1838295.203924586065114 ], [ 646022.075666078133509, 1838256.468538838904351 ], [ 645992.653107278281823, 1838221.965085956966504 ], [ 645975.584181052166969, 1838190.644376965006813 ], [ 645969.302768289344385, 1838157.516304884338751 ] ] } },
{ "type": "Feature", "properties": { "edge_id": 14, "u": 10, "v": 32, "length_m": 15476.262293833686, "source": "osm", "waterway_tag": "river", "name": null }, "geometry": { "type": "LineString", "coordinates": [ [ 645969.302768289344385, 1838157.516304884338751 ], [ 645911.12722408620175, 1838162.20886478270404 ], [ 645803.64920858561527, 1838137.684671642025933 ], [ 645650.660382156027481, 1838091.052135339705274 ], [ 645560.280490657780319, 1838077.932359908241779 ], [ 645500.618923639063723, 1838081.509396774927154 ], [ 645449.0070977776777, 1838093.661643407540396 ], [ 645402.026765702175908, 1838115.02968479366973 ], [ 645316.989893947727978, 1838163.359380104346201 ], [ 645222.856446919613518, 1838200.230344963492826 ], [ 645173.601740680052899, 1838226.673395939171314 ], [ 645147.992425449425355, 1838258.809833589475602 ], [ 645117.967915314249694, 1838312.714803145267069 ], [ 645098.310316498274915, 1838332.498668175423518 ], [ 645071.898947503534146, 1838341.392749696969986 ], [ 645012.435890013817698, 1838347.29612741060555 ], [ 644903.59703573177103, 1838350.430278907297179 ], [ 644856.799494276987389, 1838345.022838265867904 ], [ 644813.496685926918872, 1838327.688760955585167 ], [ 644782.783272794098593, 1838294.506199885625392 ], [ 644769.383876117877662, 1838240.970386120025069 ], [ 644773.160586290759966, 1838187.440342738293111 ], [ 644798.768275927519426, 1838123.988927311031148 ], [ 644857.761674473644234, 1838045.825855179456994 ], [ 644967.194402131484821, 1837939.678163159638643 ], [ 645073.12199125951156, 1837847.117375508183613 ], [ 645243.421403764281422, 1837717.483409656677395 ], [ 645442.252203830867074, 1837597.118319424567744 ], [ 645539.911054092342965, 1837544.338150162482634 ], [ 645590.521859305794351, 1837507.061090682400391 ], [ 645644.708857568562962, 1837446.018233740469441 ], [ 645672.550808465806767, 1837399.623322313651443 ], [ 645681.935323135228828, 1837368.925910747610033 ], [ 645675.202232743031345, 1837339.335807313444093 ], [ 645655.853960945387371, 1837313.532561684725806 ], [ 645632.986176968552172, 1837303.196695045102388 ], [ 645590.69691749359481, 1837309.105097080115229 ], [ 645473.859903362463228, 1837326.56711350614205 ], [ 645366.153754185885191, 1837334.907716573216021 ], [ 645280.31509801291395, 1837328.127484900644049 ], [ 645222.071620116592385, 1837311.133788005914539 ], [ 645118.27160410117358, 1837262.737598050385714 ], [ 645022.411687022540718, 1837223.358653825242072 ], [ 644927.494495946913958, 1837202.244161648675799 ], [ 644871.508280669339001, 1837198.434378489851952 ], [ 644787.797774322563782, 1837208.157764583360404 ], [ 644677.870688062277623, 1837213.609861826058477 ], [ 644597.899204415152781, 1837206.87214565416798 ], [ 644534.899836020427756, 1837183.09845003276132 ], [ 644487.091462669195607, 1837153.231133458670229 ], [ 644425.847103391075507, 1837090.741485438542441 ], [ 644389.385131303220987, 1837055.307844354538247 ], [ 644344.860197579255328, 1837044.716491794679314 ], [ 644310.392498965957202, 1837061.524137923493981 ], [ 644291.87309216381982, 1837086.517076398944482 ], [ 644283.580414635594934, 1837129.615309700369835 ], [ 644289.049330284469761, 1837172.917097135912627 ], [ 644300.134389177663252, 1837221.90005151508376 ], [ 644318.982346039032564, 1837306.23338231141679 ], [ 644330.687766878982075, 1837437.102949885651469 ], [ 644332.386298960540444, 1837517.337040677666664 ], [ 644316.046094309422188, 1837567.241332234116271 ], [ 644280.231485556112602, 1837625.644972508307546 ], [ 644237.499291440937668, 1837665.744402691023424 ], [ 644180.087713049259037, 1837699.437689998187125 ], [ 644107.863268562592566, 1837714.884306018007919 ], [ 644024.209059821208939, 1837716.643939941190183 ], [ 643964.749284709338099, 1837721.88645990123041 ], [ 643935.921453752904199, 1837741.056293420260772 ], [ 643924.394815520616248, 1837773.3996051766444 ], [ 643926.473475685692392, 1837813.2482360356953 ], [ 643944.516932011465542, 1837842.913812952116132 ], [ 643991.077760357991792, 1837883.615466515533626 ], [ 644094.902065033325925, 1837944.067464596824721 ], [ 644230.450543419923633, 1838046.117990908678621 ], [ 644286.164513838361017, 1838105.693006511777639 ], [ 644366.705602786038071, 1838201.287215000484139 ], [ 644461.988358078990132, 1838341.242305412422866 ], [ 644548.185022426885553, 1838452.14559838664718 ], [ 644642.549733020248823, 1838554.031169969355687 ], [ 644724.480629708850756, 1838617.215364891337231 ], [ 644800.881701044389047, 1838661.994153733598068 ], [ 644851.094573126640171, 1838682.805356370983645 ], [ 644892.256240897113457, 1838685.408300495240837 ], [ 644994.302853501401842, 1838661.093525286065415 ], [ 645087.121336944052018, 1838644.683487686794251 ], [ 645112.297242782544345, 1838644.854549789335579 ], [ 645133.966973032336682, 1838658.612051332602277 ], [ 645144.105620421702042, 1838689.442314364016056 ], [ 645144.969967951532453, 1838734.926309357630089 ], [ 645131.531503314618021, 1838859.982792821712792 ], [ 645112.355946147115901, 1838981.570068582426757 ], [ 645113.892967905849218, 1839085.040489180479199 ], [ 645124.549058229662478, 1839196.650534990476444 ], [ 645144.362263169954531, 1839326.469863970531151 ], [ 645162.05217849672772, 1839391.985739810625091 ], [ 645197.795933774206787, 1839469.464258762309328 ], [ 645223.072352649411187, 1839517.438084007706493 ], [ 645228.509209977230057, 1839549.342989915283397 ], [ 645213.560224188724533, 1839582.768978400388733 ], [ 645184.582206153078005, 1839624.177168213995174 ], [ 645163.693731201812625, 1839636.870770339621231 ], [ 645137.537868856918067, 1839639.79115456272848 ], [ 645107.909967279294506, 1839635.606207777746022 ], [ 645061.074791756574996, 1839620.460406469879672 ], [ 644902.125026357243769, 1839573.349293358856812 ], [ 644815.310536508681253, 1839554.502452190732583 ], [ 644760.196667343378067, 1839548.817271410487592 ], [ 644713.260586464079097, 1839548.498988148523495 ], [ 644657.641264060977846, 1839554.429132981691509 ], [ 644593.32676799048204, 1839568.378123658709228 ], [ 644490.748958581825718, 1839608.846055407542735 ], [ 644395.048753344453871, 1839641.947286211652681 ], [ 644346.211205433239229, 1839654.673877286026254 ], [ 644305.844216242898256, 1839661.040025820722803 ], [ 644180.662454570760019, 1839668.382232169620693 ], [ 644091.717204882530496, 1839680.727820854634047 ], [ 644048.981192487059161, 1839690.398009732132778 ], [ 643999.879167726263404, 1839710.758567469194531 ], [ 643962.408191628404893, 1839730.64442673465237 ], [ 643928.2067976356484, 1839756.084993530996144 ], [ 643898.184306975919753, 1839794.610714008565992 ], [ 643895.683828066685237, 1839833.211378056555986 ], [ 643908.025541029637679, 1839869.699089449597523 ], [ 643933.0924291475676, 1839885.802027643658221 ], [ 643986.655239287298173, 1839915.70744790835306 ], [ 644137.263146936660632, 1839981.566307070432231 ], [ 644262.749879525508732, 1840039.289499303326011 ], [ 644363.100032574729994, 1840091.200143007328734 ], [ 644462.267656582407653, 1840160.14373470749706 ], [ 644576.154491637018509, 1840245.010855586268008 ], [ 644658.040362967527471, 1840313.838376554427668 ], [ 644808.240365837235004, 1840454.832598523003981 ], [ 644847.955527401762083, 1840497.150140224955976 ], [ 644925.351999216945842, 1840567.054895256645977 ], [ 644953.691621774574742, 1840603.65211437898688 ], [ 644969.413542304304428, 1840644.70037365378812 ], [ 644979.210784041322768, 1840694.228621485177428 ], [ 644978.592399111017585, 1840973.511325092986226 ], [ 644971.075430886936374, 1841059.326575870160013 ], [ 644952.538559049600735, 1841102.908311012201011 ], [ 644932.955533617874607, 1841127.782673268346116 ], [ 644904.058969004894607, 1841141.86046761716716 ], [ 644846.879014403210022, 1841142.578516274923459 ], [ 644812.666607521125115, 1841138.362664611777291 ], [ 644782.968678838806227, 1841129.087507328717038 ], [ 644746.56808635010384, 1841101.50924593070522 ], [ 644713.688063025241718, 1841058.131651372648776 ], [ 644660.499904060270637, 1840973.564321365673095 ], [ 644604.963898583548144, 1840889.09189851093106 ], [ 644528.841539804125205, 1840804.369500273372978 ], [ 644454.708284265361726, 1840756.618757309624925 ], [ 644372.5884846172994, 1840722.535117642721161 ], [ 644287.892349765403196, 1840706.581347386119887 ], [ 644205.702262601815164, 1840698.611821493599564 ], [ 644138.204516556928866, 1840694.836025733500719 ], [ 644094.48205793928355, 1840708.704080125316978 ], [ 644045.139760459191166, 1840733.378170453710482 ], [ 643925.880106094991788, 1840780.928035283926874 ], [ 643887.951489501050673, 1840805.679484336171299 ], [ 643867.062681538634934, 1840834.529401041800156 ], [ 643856.51972529431805, 1840879.383006221847609 ], [ 643861.964717748574913, 1840926.114888973068446 ], [ 643879.988736724248156, 1840974.038159385323524 ], [ 643918.346780421910807, 1841043.675822249380872 ], [ 643951.079105281969532, 1841093.358226975658908 ], [ 643985.182969734538347, 1841145.262999600730836 ], [ 644054.364360451931134, 1841246.976943886373192 ], [ 644162.10132144135423, 1841388.786618675338104 ], [ 644228.811677402816713, 1841508.631544809555635 ], [ 644255.96160882874392, 1841563.36679512495175 ], [ 644285.089193337131292, 1841656.843777029775083 ], [ 644307.38309846795164, 1841735.55780901806429 ], [ 644323.54906938818749, 1841774.063603174639866 ], [ 644346.941729770740494, 1841816.491183211561292 ], [ 644384.329629254876636, 1841871.406655635917559 ], [ 644510.628672770224512, 1841980.591251076199114 ], [ 644532.931371682090685, 1841994.905986804282293 ], [ 644549.300823583849706, 1842003.315929568372667 ], [ 644577.272993522929028, 1842015.234813660383224 ], [ 644662.433940761722624, 1842040.488163030706346 ], [ 644707.697760792565532, 1842050.64350908389315 ], [ 644736.857335425913334, 1842060.468279710970819 ], [ 644755.987811177503318, 1842070.667583217145875 ], [ 644767.330567621393129, 1842081.035310944076627 ], [ 644776.082651467993855, 1842095.922201199922711 ], [ 644780.865748542826623, 1842114.101709718583152 ], [ 644782.541414152248763, 1842134.362508265767246 ], [ 644781.588834315771237, 1842164.674834129633382 ], [ 644777.380916750989854, 1842187.440672307508066 ], [ 644772.578899381682277, 1842203.45266983914189 ], [ 644758.242098338087089, 1842225.596442037494853 ], [ 644509.045659511582926, 1842544.354690595064312 ], [ 644467.410469645867124, 1842596.964224457275122 ], [ 644446.707790219923481, 1842614.196294866967946 ], [ 644420.376304412493482, 1842627.849349960451946 ], [ 644382.640020740916952, 1842640.318621349288151 ], [ 644342.391987741459161, 1842645.689185324124992 ], [ 644305.37367475987412, 1842646.655602900544181 ], [ 644264.638850033050403, 1842645.162566957063973 ], [ 644230.969619493931532, 1842639.844606499420479 ], [ 644189.225874221185222, 1842629.824656243203208 ], [ 644089.816006577224471, 1842598.390791478566825 ], [ 644055.610721084289253, 1842577.688826341181993 ], [ 644017.017742407508194, 1842543.347036913270131 ], [ 643962.534611619310454, 1842477.030120890820399 ], [ 643908.266342278104275, 1842378.846995332743973 ], [ 643859.524386674747802, 1842283.578319754684344 ], [ 643796.253897313261405, 1842191.531328871380538 ] ] } },
{ "type": "Feature", "properties": { "edge_id": 15, "u": 10, "v": 10, "length_m": 13.986263083615254, "source": "osm", "waterway_tag": "river", "name": null }, "geometry": { "type": "LineString", "coordinates": [ [ 643958.787211937364191, 1841105.028730256715789 ], [ 643951.079105281969532, 1841093.358226975658908 ] ] } },
{ "type": "Feature", "properties": { "edge_id": 16, "u": 12, "v": 13, "length_m": 1165.3879068765036, "source": "osm", "waterway_tag": "canal", "name": null }, "geometry": { "type": "LineString", "coordinates": [ [ 642926.857057087356225, 1833577.009609233122319 ], [ 642913.950186422211118, 1833592.303954390343279 ], [ 642896.802574445959181, 1833603.475927617400885 ], [ 642879.457078719511628, 1833612.322924443986267 ], [ 642858.907592435833067, 1833621.591165385441855 ], [ 642843.794747366337106, 1833631.670241309097037 ], [ 642817.951983835780993, 1833650.640490202466026 ], [ 642806.578899073414505, 1833659.969972995575517 ], [ 642797.429587700404227, 1833671.859258284792304 ], [ 642788.234547439264134, 1833690.608594832709059 ], [ 642772.645557617419399, 1833708.098147027660161 ], [ 642738.729325792519376, 1833753.681509039597586 ], [ 642723.082901650923304, 1833779.801473491825163 ], [ 642715.051352784619667, 1833800.107700230320916 ], [ 642702.732617658562958, 1833823.262280754512176 ], [ 642677.196844871039502, 1833860.270803308812901 ], [ 642649.455830714083277, 1833891.953420248115435 ], [ 642620.911408944404684, 1833916.106461316812783 ], [ 642600.870045477175154, 1833929.251081330934539 ], [ 642581.699253582861274, 1833939.856546917464584 ], [ 642559.858034279779531, 1833950.886852090246975 ], [ 642538.667350256349891, 1833960.372397415107116 ], [ 642522.824202173040248, 1833968.012492260430008 ], [ 642511.246852211537771, 1833976.012941212859005 ], [ 642503.290678289602511, 1833985.033352157101035 ], [ 642495.1895215268014, 1833999.806640270166099 ], [ 642488.354045218555257, 1834016.80136855901219 ], [ 642486.735813692561351, 1834035.490578201133758 ], [ 642487.81599627493415, 1834049.550413238117471 ], [ 642490.606313006952405, 1834063.179026373429224 ], [ 642495.96256506210193, 1834076.05016177194193 ], [ 642505.048131181159988, 1834089.720675599528477 ], [ 642523.371591581730172, 1834110.20238356734626 ], [ 642535.66914839646779, 1834122.234533144626766 ], [ 642557.633580442983657, 1834140.748800875153393 ], [ 642584.696683716028929, 1834162.727224922738969 ], [ 642609.102578367572278, 1834183.138876833720133 ], [ 642633.058780518127605, 1834206.977740830276161 ], [ 642656.152492590015754, 1834232.138699639588594 ], [ 642695.279456717893481, 1834269.135540585266426 ], [ 642707.354578320402652, 1834282.49413375207223 ], [ 642716.531126119545661, 1834298.489033074118197 ], [ 642725.462543288944289, 1834319.240291676484048 ], [ 642733.664488502778113, 1834353.375450560590252 ], [ 642740.633245411561802, 1834380.420735208550468 ], [ 642747.64403746498283, 1834401.159202784998342 ], [ 642755.224458390614018, 1834416.479578121099621 ], [ 642770.982217670069076, 1834437.608342051738873 ] ] } },
{ "type": "Feature", "properties": { "edge_id": 17, "u": 12, "v": 17, "length_m": 697.76326458983579, "source": "osm", "waterway_tag": "drain", "name": null }, "geometry": { "type": "LineString", "coordinates": [ [ 642483.716992650181055, 1833109.87726932624355 ], [ 642484.748707423103042, 1833131.239710478577763 ], [ 642486.889406381058507, 1833146.302440034924075 ], [ 642490.757235290016979, 1833158.389089956413954 ], [ 642499.500317754456773, 1833175.487451105378568 ], [ 642510.885217202361673, 1833196.476166006643325 ], [ 642521.00731640541926, 1833214.800870893988758 ], [ 642531.692363354261033, 1833228.703299944521859 ], [ 642543.732146298512816, 1833247.483381495811045 ], [ 642550.46545170142781, 1833261.912780444137752 ], [ 642556.387828433769755, 1833269.919044215930626 ], [ 642564.357447391026653, 1833274.951365742832422 ], [ 642574.151330296648666, 1833278.446722400607541 ], [ 642588.325204083463177, 1833281.196683772373945 ], [ 642618.389773439848796, 1833285.269606332527474 ], [ 642638.975418974878266, 1833286.623832504963502 ], [ 642653.997751313727349, 1833290.154043579706922 ], [ 642669.744894618634135, 1833297.008616050472483 ], [ 642691.271696106530726, 1833301.246082271914929 ], [ 642710.461338401539251, 1833303.918888836400583 ], [ 642722.596763994079083, 1833308.315122995059937 ], [ 642742.466961773578078, 1833320.951065376866609 ], [ 642756.612773136352189, 1833327.905685782199726 ], [ 642777.343934634118341, 1833339.440893699880689 ], [ 642786.258320456719957, 1833346.803269070573151 ], [ 642802.428990767220967, 1833370.147742874221876 ], [ 642821.501260436256416, 1833390.413355955621228 ], [ 642837.846156260580756, 1833419.6235199382063 ], [ 642866.730680521111935, 1833472.596623601624742 ], [ 642899.34963304118719, 1833525.594696132000536 ], [ 642917.404877237742767, 1833570.3074787161313 ], [ 642926.857057087356225, 1833577.009609233122319 ] ] } },
{ "type": "Feature", "properties": { "edge_id": 18, "u": 12, "v": 18, "length_m": 992.70792864458019, "source": "osm", "waterway_tag": "drain", "name": null }, "geometry": { "type": "LineString", "coordinates": [ [ 642926.857057087356225, 1833577.009609233122319 ], [ 642953.912845706683584, 1833584.161189605714753 ], [ 642974.072877020691521, 1833585.291620560456067 ], [ 643010.845601837849244, 1833575.467900246148929 ], [ 643052.196667697979137, 1833551.179544867714867 ], [ 643066.812380817136727, 1833535.675386144779623 ], [ 643080.889165543369018, 1833505.008453882066533 ], [ 643099.756978698074818, 1833412.077045478858054 ], [ 643118.42827294243034, 1833348.577490135096014 ], [ 643128.826802984927781, 1833309.476529550272971 ], [ 643137.499146557413042, 1833241.262835120782256 ], [ 643138.65072762244381, 1833196.678194388747215 ], [ 643137.967877114424482, 1833171.113261501770467 ], [ 643115.539742627181113, 1833110.105397461447865 ], [ 643096.648524669231847, 1833062.731258260784671 ], [ 643089.411246166215278, 1833027.938530281186104 ], [ 643092.410968041978776, 1832994.210035839350894 ], [ 643098.220501494593918, 1832955.189064967446029 ], [ 643115.814481938257813, 1832925.209533343790099 ], [ 643149.02373586082831, 1832889.912440484855324 ], [ 643172.492802288150415, 1832875.020726855145767 ], [ 643205.106793384882621, 1832864.948147099465132 ], [ 643297.485660424921662, 1832853.836774265160784 ] ] } },
{ "type": "Feature", "properties": { "edge_id": 19, "u": 15, "v": 16, "length_m": 2562.3236830489645, "source": "osm", "waterway_tag": "drain", "name": null }, "geometry": { "type": "LineString", "coordinates": [ [ 642823.612443854333833, 1835424.966272548073903 ], [ 642811.113541569560766, 1835411.272759437793866 ], [ 642804.824229085235856, 1835394.411821867106482 ], [ 642807.701641532010399, 1835378.939883832121268 ], [ 642807.805037166923285, 1835363.449429953237996 ], [ 642800.50377173977904, 1835354.327312929555774 ], [ 642786.350508219795302, 1835348.700302278157324 ], [ 642736.617822867934592, 1835334.426433102926239 ], [ 642718.469972893362865, 1835319.810091241961345 ], [ 642705.655288929352537, 1835305.450639286544174 ], [ 642704.771060611587018, 1835294.047690972452983 ], [ 642706.751318149385042, 1835285.098169564269483 ], [ 642716.872754482435994, 1835271.334306757198647 ], [ 642730.786787813063711, 1835248.854319249745458 ], [ 642746.010700181359425, 1835221.957037942949682 ], [ 642768.819866770529188, 1835177.627517673652619 ], [ 642777.611954230815172, 1835155.224030214361846 ], [ 642783.313617529929616, 1835132.246668510371819 ], [ 642792.272235481301323, 1835100.881565732182935 ], [ 642798.717093752929941, 1835078.462421054951847 ], [ 642808.453251459635794, 1835058.499564235797152 ], [ 642817.750093564391136, 1835040.41484571993351 ], [ 642822.429535874747671, 1835026.725352592067793 ], [ 642822.596046559512615, 1835017.763732865219936 ], [ 642818.386591305024922, 1835008.994209986645728 ], [ 642808.130227640969679, 1834994.983737440779805 ], [ 642793.446556757786311, 1834972.86620704154484 ], [ 642783.589973181951791, 1834946.908111483091488 ], [ 642775.52651377255097, 1834924.060213068267331 ], [ 642768.049657632247545, 1834893.24936338653788 ], [ 642765.32167084061075, 1834870.326415663817897 ], [ 642759.056482723448426, 1834849.81419505411759 ], [ 642747.379319190629758, 1834824.839841680368409 ], [ 642733.265093525522389, 1834797.304272633511573 ], [ 642727.00944017036818, 1834775.353668435942382 ], [ 642722.576459643896669, 1834752.087410684907809 ], [ 642721.80729162087664, 1834723.42369076423347 ], [ 642723.019153522793204, 1834685.699805771466345 ], [ 642726.883672830881551, 1834650.20662861969322 ], [ 642732.193257992854342, 1834622.026049279142171 ], [ 642744.963815364986658, 1834579.068001923384145 ], [ 642752.722302116919309, 1834551.678313683951274 ], [ 642756.178972072550096, 1834529.349879952380434 ], [ 642758.682750430773012, 1834505.908582376781851 ], [ 642763.395447373855859, 1834487.240006641950458 ], [ 642768.500995380571112, 1834473.66399415791966 ], [ 642774.43134848959744, 1834464.408869809936732 ], [ 642781.823738109669648, 1834459.921488467836753 ], [ 642800.205245584947988, 1834455.618065125774592 ], [ 642850.533656507730484, 1834444.888765745097771 ], [ 642859.833337746211328, 1834442.405854649841785 ], [ 642869.039616020862013, 1834437.930606712121516 ], [ 642907.472623801673763, 1834418.933875679736957 ], [ 642942.066056010313332, 1834399.69026784459129 ], [ 642960.494209120748565, 1834388.416274013463408 ], [ 642973.760970882955007, 1834383.082976474892348 ], [ 642987.001873251516372, 1834381.62229915196076 ], [ 643003.442241420736536, 1834380.404304488329217 ], [ 643024.58693747036159, 1834377.779288598103449 ], [ 643083.670108560821973, 1834366.334448864683509 ], [ 643099.683707344578579, 1834365.11367420013994 ], [ 643110.765523124951869, 1834367.400775315705687 ], [ 643120.337288825772703, 1834372.112110184039921 ], [ 643126.145025927107781, 1834381.224326309282333 ], [ 643131.58975544013083, 1834396.751879414077848 ], [ 643145.351458935532719, 1834461.021522917319089 ], [ 643149.824031965690665, 1834478.313001047354192 ], [ 643156.128213927382603, 1834492.96110398019664 ], [ 643165.333939013653435, 1834504.530384836252779 ], [ 643188.473350347136147, 1834522.721287804190069 ], [ 643199.535832023248076, 1834527.885242234449834 ], [ 643206.252586051821709, 1834528.704735181760043 ], [ 643215.864234760054387, 1834527.441227462841198 ], [ 643225.076487776008435, 1834522.080960053484887 ], [ 643238.892284920206293, 1834514.427827367326245 ], [ 643245.739434250630438, 1834511.707368849776685 ], [ 643252.56807364069391, 1834511.753066833596677 ], [ 643260.956447081989609, 1834517.895018236944452 ], [ 643273.100015359348617, 1834536.897640232928097 ], [ 643292.542008935939521, 1834581.398893654113635 ], [ 643306.368239218951203, 1834619.998061800375581 ], [ 643345.721602270146832, 1834686.652288529556245 ], [ 643362.491455383133143, 1834715.865872935857624 ], [ 643369.371141468640417, 1834724.210795724065974 ], [ 643379.061990513582714, 1834727.041992671787739 ], [ 643388.13489660131745, 1834726.549517974024639 ], [ 643412.397997348569334, 1834720.294309706427157 ], [ 643424.923010894563049, 1834714.181768968235701 ], [ 643445.102093849680386, 1834696.391500524245203 ], [ 643468.608834407292306, 1834675.635970111936331 ], [ 643483.008559055859223, 1834660.462624092819169 ], [ 643500.90333873569034, 1834649.185511996503919 ], [ 643517.375466351630166, 1834643.210134720662609 ], [ 643537.013639291282743, 1834642.45661030896008 ], [ 643549.365997331682593, 1834646.190941468579695 ], [ 643565.309681494254619, 1834655.371281036175787 ], [ 643574.088335021282546, 1834666.937898645410314 ], [ 643577.929979821317829, 1834682.786802463466302 ], [ 643575.685453633312136, 1834699.258788023842499 ], [ 643576.868581150891259, 1834713.762043642345816 ], [ 643582.74635378154926, 1834728.296793265501037 ], [ 643587.157090003252961, 1834738.838256524642929 ], [ 643587.614114950760268, 1834750.238406396703795 ], [ 643584.269959043478593, 1834771.57167200371623 ], [ 643585.010698882280849, 1834788.395639268681407 ], [ 643590.869882446946576, 1834805.696552182547748 ], [ 643596.804778587073088, 1834811.7115421181079 ], [ 643609.151089188759215, 1834816.331087190890685 ], [ 643615.180051289498806, 1834824.227786551229656 ], [ 643619.049100425909273, 1834835.982789810048416 ], [ 643622.579493646277115, 1834850.501804678933695 ], [ 643621.124647753546014, 1834876.49510284839198 ], [ 643620.981337637989782, 1834897.849847280187532 ], [ 643624.888745844713412, 1834919.785033674445003 ], [ 643627.147681041620672, 1834932.967702754540369 ], [ 643627.095699593308382, 1834940.712947324616835 ], [ 643622.864773357752711, 1834951.085777626372874 ], [ 643610.989423873601481, 1834971.697881166357547 ], [ 643599.859477664344013, 1834992.536294335033745 ], [ 643594.513361862511374, 1835010.093981766374782 ], [ 643592.174761114758439, 1835024.684264783049002 ] ] } },
{ "type": "Feature", "properties": { "edge_id": 20, "u": 19, "v": 20, "length_m": 1539.7071314867287, "source": "osm", "waterway_tag": "river", "name": null }, "geometry": { "type": "LineString", "coordinates": [ [ 648521.323552387184463, 1842679.500536600826308 ], [ 648308.242957543465309, 1842720.61806363821961 ], [ 647929.03278728807345, 1842785.148662782041356 ], [ 647739.956687744706869, 1842825.885111169191077 ], [ 647698.731595535064116, 1842833.566338399192318 ], [ 647660.919527339516208, 1842825.890411878935993 ], [ 647637.035811691195704, 1842809.237458412768319 ], [ 647602.880515119759366, 1842766.39906270802021 ], [ 647557.2821412315825, 1842743.288509926060215 ], [ 647477.441631515161134, 1842705.224054431077093 ], [ 647439.945207711891271, 1842682.723128512967378 ], [ 647389.963796245749108, 1842630.148742893245071 ], [ 647359.186646647169255, 1842607.69446186744608 ], [ 647323.779499880969524, 1842591.515477422391996 ], [ 647289.773484026780352, 1842542.371447053737938 ], [ 647229.902245697798207, 1842439.049774812767282 ], [ 647203.456706020515412, 1842376.237117260694504 ] ] } },
{ "type": "Feature", "properties": { "edge_id": 21, "u": 20, "v": 24, "length_m": 1192.5069864742909, "source": "osm", "waterway_tag": "canal", "name": null }, "geometry": { "type": "LineString", "coordinates": [ [ 647203.456706020515412, 1842376.237117260694504 ], [ 647181.630871410714462, 1842385.823874379508197 ], [ 647158.813346339156851, 1842384.559750805376098 ], [ 647067.228354754392058, 1842394.218253199011087 ], [ 646986.710694172652438, 1842361.241219721036032 ], [ 646975.286658292752691, 1842362.822225737851113 ], [ 646956.82367851305753, 1842379.735531663522124 ], [ 646947.638744372292422, 1842381.442646855022758 ], [ 646906.048505420098081, 1842364.668512690579519 ], [ 646895.691077450290322, 1842366.256913859862834 ], [ 646885.906491421745159, 1842377.586774750612676 ], [ 646885.655559229198843, 1842413.990040614269674 ], [ 646893.98846609715838, 1842443.038696618750691 ], [ 646913.373607536777854, 1842462.53670314187184 ], [ 646918.921261159703135, 1842477.845136702759191 ], [ 646925.67709557316266, 1842503.563333322294056 ], [ 646912.370368141098879, 1842530.692344376584515 ], [ 646871.329120496171527, 1842589.055759164271876 ], [ 646841.132911043707281, 1842652.473385517019778 ], [ 646779.440782929072157, 1842720.321477498626336 ], [ 646757.561398018617183, 1842737.764652502257377 ], [ 646693.860068561160006, 1842756.690294471569359 ], [ 646656.103275623754598, 1842756.430351805873215 ], [ 646630.391179554862902, 1842757.359905148856342 ], [ 646609.159524117014371, 1842773.701143649639562 ], [ 646589.013509495300241, 1842787.283536012517288 ], [ 646519.015930492780171, 1842806.719620490912348 ], [ 646434.821685049915686, 1842827.718136418843642 ], [ 646421.596197745762765, 1842827.627232869621366 ], [ 646402.79620231478475, 1842816.100736556807533 ], [ 646394.232452034018934, 1842820.578672820003703 ], [ 646338.253384495270438, 1842864.455387817928568 ] ] } },
{ "type": "Feature", "properties": { "edge_id": 22, "u": 20, "v": 20, "length_m": 34.491601617486467, "source": "osm", "waterway_tag": "canal", "name": null }, "geometry": { "type": "LineString", "coordinates": [ [ 646892.655759843764827, 1842558.994372604647651 ], [ 646912.370368141098879, 1842530.692344376584515 ] ] } },
{ "type": "Feature", "properties": { "edge_id": 23, "u": 21, "v": 22, "length_m": 158.55243315367665, "source": "osm", "waterway_tag": "canal", "name": null }, "geometry": { "type": "LineString", "coordinates": [ [ 645521.560974214924499, 1842580.900816583773121 ], [ 645554.145051016006619, 1842666.990055779460818 ], [ 645576.85492128552869, 1842699.56652695662342 ], [ 645597.86043318011798, 1842716.197355991927907 ] ] } },
{ "type": "Feature", "properties": { "edge_id": 24, "u": 22, "v": 23, "length_m": 2080.27204556881, "source": "osm", "waterway_tag": "canal", "name": null }, "geometry": { "type": "LineString", "coordinates": [ [ 645597.86043318011798, 1842716.197355991927907 ], [ 645618.902235983638093, 1842743.119182450696826 ], [ 645629.567987760761753, 1842774.396223984891549 ], [ 645643.335070576285943, 1842851.283505643485114 ], [ 645637.988617613795213, 1842868.840779223712161 ], [ 645620.16713733272627, 1842885.75950990524143 ], [ 645572.101374287274666, 1842895.721727551659569 ], [ 645552.073391793761402, 1842892.154635148588568 ], [ 645535.551389326923527, 1842875.001201740233228 ], [ 645523.027892689453438, 1842865.842108394484967 ], [ 645499.06189500389155, 1842861.030986431753263 ], [ 645451.513574603712186, 1842873.320720734307542 ], [ 645405.001672554994002, 1842890.043746226234362 ], [ 645376.270502488478087, 1842911.4249690878205 ], [ 645358.363964265794493, 1842940.847092913463712 ], [ 645351.182922001113184, 1842977.202887947671115 ], [ 645362.251749109709635, 1843043.227534673642367 ], [ 645356.305844311718829, 1843070.518221509177238 ], [ 645365.794023301219568, 1843102.451003269292414 ], [ 645362.175660698441789, 1843132.52389611210674 ], [ 645338.802352036000229, 1843197.206988001707941 ], [ 645319.197146307211369, 1843225.511007813271135 ], [ 645268.615371429477818, 1843260.464217837201431 ], [ 645243.410190837224945, 1843265.382348527666181 ], [ 645209.106669016531669, 1843259.394496396649629 ], [ 645191.397492719814181, 1843259.937682332471013 ], [ 645175.859430163633078, 1843270.565088821575046 ], [ 645174.503712296369486, 1843297.333831836469471 ], [ 645163.982083680573851, 1843338.756924595916644 ], [ 645140.853885811637156, 1843367.590333006111905 ], [ 645105.853651589713991, 1843385.609545901184902 ], [ 645061.693316482007504, 1843401.795971102546901 ], [ 645047.854346627485938, 1843413.541559586534277 ], [ 645041.982763800304383, 1843429.988834402523935 ], [ 645017.60595413390547, 1843485.591825066367164 ], [ 644994.392977511393838, 1843526.928552385652438 ], [ 644985.624180188868195, 1843561.613819092046469 ], [ 644989.896849328535609, 1843607.67446518316865 ], [ 644980.11009313701652, 1843619.558329947525635 ], [ 644933.217580841388553, 1843614.149087016703561 ], [ 644922.269731464679353, 1843624.254628766328096 ], [ 644904.738746907794848, 1843677.027336249826476 ], [ 644887.988804705440998, 1843693.400614949176088 ], [ 644857.680002242675982, 1843696.071372270584106 ], [ 644802.754122713697143, 1843695.697779375361279 ], [ 644742.980768253677525, 1843702.37314773327671 ], [ 644709.428084103623405, 1843711.550570046762004 ], [ 644646.73521371348761, 1843755.496301905950531 ], [ 644555.294718435732648, 1843823.590578562114388 ], [ 644495.262069842545316, 1843899.975978366332129 ], [ 644485.904607030330226, 1843927.243663121480495 ], [ 644482.329584565828554, 1843951.120361634064466 ], [ 644485.495354961953126, 1843987.546550689032301 ] ] } },
{ "type": "Feature", "properties": { "edge_id": 25, "u": 22, "v": 24, "length_m": 1128.4534498122084, "source": "osm", "waterway_tag": "canal", "name": null }, "geometry": { "type": "LineString", "coordinates": [ [ 645597.86043318011798, 1842716.197355991927907 ], [ 645618.620008014142513, 1842690.778402240946889 ], [ 645641.036233754828572, 1842672.673885432537645 ], [ 645655.621097531286068, 1842645.552958606276661 ], [ 645667.948035356821492, 1842589.868135157972574 ], [ 645668.286173804779537, 1842540.408569893799722 ], [ 645677.594957066117786, 1842520.554677640087903 ], [ 645691.388693376560695, 1842515.558952163206413 ], [ 645713.696197209181264, 1842513.387780123623088 ], [ 645850.608785942662507, 1842582.044174733338878 ], [ 645923.937304784776643, 1842652.479005774250254 ], [ 645933.534033200470731, 1842668.478781464509666 ], [ 645935.453666922287084, 1842684.094016624614596 ], [ 645922.627066083019599, 1842719.193845913512632 ], [ 645925.624642133014277, 1842733.156667303061113 ], [ 645936.421086184447631, 1842745.291807432891801 ], [ 645986.693618839024566, 1842755.816319163423032 ], [ 646000.370523145538755, 1842767.86058094073087 ], [ 646014.993405033485033, 1842797.505185909336433 ], [ 646040.683833903050981, 1842815.275131365284324 ], [ 646064.041732746642083, 1842815.435265563195571 ], [ 646136.532046179287136, 1842759.05665700417012 ], [ 646150.949770062463358, 1842756.389228944666684 ], [ 646181.691766563919373, 1842768.55069021275267 ], [ 646192.88659169129096, 1842784.782876898534596 ], [ 646200.850900389603339, 1842821.021134811919183 ], [ 646212.683344498276711, 1842837.589671701192856 ], [ 646253.725648950668983, 1842871.952597924275324 ], [ 646272.365529918577522, 1842875.732132993638515 ], [ 646301.725042140227742, 1842871.728918183129281 ], [ 646338.253384495270438, 1842864.455387817928568 ] ] } },
{ "type": "Feature", "properties": { "edge_id": 26, "u": 24, "v": 27, "length_m": 36.060193248786085, "source": "osm", "waterway_tag": "canal", "name": null }, "geometry": { "type": "LineString", "coordinates": [ [ 646335.339939485071227, 1842900.397694022627547 ], [ 646338.253384495270438, 1842864.455387817928568 ] ] } }
]
}
